dep_id,url,mrds_id,mas_id,site_name,latitude,longitude,region,country,state,county,com_type,commod1,commod2,commod3,oper_type,dep_type,prod_size,dev_stat,ore,gangue,other_matl,orebody_fm,work_type,model,alteration,conc_proc,names,ore_ctrl,reporter,hrock_unit,hrock_type,arock_unit,arock_type,structure,tectonic,ref,yfp_ba,yr_fst_prd,ylp_ba,yr_lst_prd,dy_ba,disc_yr,prod_yrs,discr
10023239,https://mrdata.usgs.gov/mrds/show-mrds.php?dep_id=10023239,I000032,,Hellroaring Creek,49.57487,-116.34275,NA,Canada,British Columbia,,M,Beryllium,,,Unknown,,N,Occurrence,Beryl,,,,,33: Be-Li pegmatites,,,,,"Orris, Greta J.",,Pegmatite,,,,,"SCHILLER, E.A., 1985, BERYLLIUM-- GEOLOGY, PRODUCTION AND USES:  MINING MAGAZINE, V. 152, NO. 4, P. 317-322.CANADA DEPARTMENT OF ENERGY, MINES, AND RESOURCES, 1985, CANADIAN MINERAL DEPOSITS NOT BEING MINED IN 1985:  CANADA DEPARTMENT OF ENERGY, MINES, AND RESOURCES MINERAL BULLETIN 213, P. 254.CANADA DEPT. OF ENERGY, MINES, AND RESOURCES, 1985.",,,,,,,,
10023245,https://mrdata.usgs.gov/mrds/show-mrds.php?dep_id=10023245,I000038,,O'Connor River Gypsum Deposit,59.66641,-136.75216,NA,Canada,British Columbia,,N,Gypsum-Anhydrite,,,Unknown,,N,Prospect,Gypsum,Anhydrite,,,,253: Bedded gypsum: marine evaporite gypsum,Limestone Is Altered To Skarn In Places.,,,Northwest-Trending Shear Zone,"Orris, Greta J.",,Evaporite,,,,Alexander Terrane Of Insular Tectonic Belt,"WHITE, G.V., 1986, PRELIMINARY REPORT O'CONNOR RIVER GYPSUM DEPOSIT (114P/10E), IN GEOLOGIC FIELDWORK- 1985:  BRITISH COLUMBIA MINISTRY OF ENERGY, MINES, AND PETROLEUM RESOURCES PAPER 1986-1, P. 279-282",,,,,,1958,,
10023320,https://mrdata.usgs.gov/mrds/show-mrds.php?dep_id=10023320,I000175,,Mineral Hill,49.46646,-123.75132,NA,Canada,British Columbia,,N,Wollastonite,Garnet,,Unknown,,N,Prospect,"Garnet, Wollastonite",,,,,65: Skarn wollastonite,,,,,"Orris, Greta J.",,,,,,,"CANADIAN MINES HANDBOOK 1989-90, P. 94, 449-50.FATTAH, HASSAN, 1994, WOLLASTONITE-- NEW ASPECTS PROMISE GROWTH:  INDUSTRIAL MINERALS, NO. 326, P. 21-43.CANDADIAN MINES HANDBOOK, 1989, P. 94; SECOND AND THIRD NUMBERS FROM FATTAH, 1994;",,,,,,,,
10023378,https://mrdata.usgs.gov/mrds/show-mrds.php?dep_id=10023378,I000273,,Boston Bar,49.86649,-121.43459,NA,Canada,British Columbia,,N,Talc-Soapstone,,,Unknown,,N,Prospect,Talc,,,,,,,,,,"Orris, Greta J.",,,,,,,"NORTHERN MINER, 1990, PACIFIC TALC SEES BIG PROFITS IN MINING OF WHITE MINERAL:  V. 76, NO. 5, P. 17NORTHERN MINER, 1990.",,1991,,,,,,
10023443,https://mrdata.usgs.gov/mrds/show-mrds.php?dep_id=10023443,I000412,,Marysville Magnesite Occurrence,49.59987,-115.95107,NA,Canada,British Columbia,,M,Magnesite,,,Unknown,,N,Occurrence,Magnesite,,,,,,,,,,"Orris, Greta J.",Cranbrook Formation,Quartzite,,,,,"HAMILTON, W.N., AND HORA, Z.D., 1987, OPPORTUNITIES EXIST FOR INDUSTRIAL MINERALS DEVELOPMENT IN BRITISH COLUMBIA AND ALBERTA:  MINING ENGINEERING, V. 39, NO. 12, P. 1061-1067",,,,,,1932,,
10023862,https://mrdata.usgs.gov/mrds/show-mrds.php?dep_id=10023862,I005023,,Spar,51.56374,-119.90681,NA,Canada,British Columbia,,N,Fluorine-Fluorite,,,Unknown,,U,Occurrence,Fluorite,"Celestite, Pyrite",,,,,,,,,"Orris, Greta J.",,"Greenstone,Gneiss",,Plutonic Rock,,,"CANADA DEPARTMENT OF ENERGY, MINES AND RESOURCES, 1984, CANADIAN MINERAL DEPOSITS NOT BEING MINED IN 1983:  CANADA DEPARTMENT OF ENERGY, MINES AND RESOURCES MINERAL BULLETIN 198, 308 PMR198",,,,,,1918,,
10023867,https://mrdata.usgs.gov/mrds/show-mrds.php?dep_id=10023867,I005029,,Eaglet,52.56929,-120.98743,NA,Canada,British Columbia,,N,Fluorine-Fluorite,,,Unknown,,N,Occurrence,Fluorite,,,,,,,,,,"Orris, Greta J.",,Gneiss,,,,,"CANADA DEPARTMENT OF ENERGY, MINES AND RESOURCES, 1984, CANADIAN MINERAL DEPOSITS NOT BEING MINED IN 1983:  CANADA DEPARTMENT OF ENERGY, MINES AND RESOURCES MINERAL BULLETIN 198, 308 PMR198.",,,,,,1946,,
10038703,https://mrdata.usgs.gov/mrds/show-mrds.php?dep_id=10038703,M046124,,Maple Leaf,49.56652,-118.35948,NA,Canada,British Columbia,,M,Copper,"Platinum, Gold, Silver","Lead, Zinc",Unknown,,Y,Past Producer,"Chalcopyrite, Galena, Malachite, Pyrite, Sphalerite",,,,,,,Contact Metamorphic,Franklin Mining Camp,,"Blair, Will N.",,Quartzite,,,,,"O'NEILL AND GUNNING, 1934, PT DEPOSITS OF CANADA: CANADA GEOLOGICAL SURVEY ECON. GEOL. REPT. 13, P. 104 - 105DRYSDALE, 1915, FRANKLIN MINING CAMP, B. C. : CANADA GEOLOGICAL SURVEY MEM. 56, P. 80, 137, 155, 173, 174",,,,,,,,
10038704,https://mrdata.usgs.gov/mrds/show-mrds.php?dep_id=10038704,M046125,,Mountain Lion,49.56652,-118.35948,NA,Canada,British Columbia,,M,,,"Platinum, Gold, Copper",Unknown,,N,Occurrence,"Bornite, Chalcopyrite, Pyrite",,,,,,,,Franklin Mining Camp,,"Blair, Will N.",,,,,,,"O'NEILL AND GUNNING, 1934, PT DEPOSITS OF CANADA: CANADA GEOLOGICAL SURVEY ECON. GEOL. REPT. 13, P. 105DRYSDALE, 1915, FRANKLIN MINING CAMP, B. C. : CANADA GEOLOGICAL SURVEY MEM. 56, P. 59, 170, 173",,,,,,,,
10038705,https://mrdata.usgs.gov/mrds/show-mrds.php?dep_id=10038705,M046126,,Golden Age,49.56652,-118.35948,NA,Canada,British Columbia,,M,,,"Gold, Copper, Platinum",Unknown,,N,Occurrence,"Bornite, Chalcopyrite, Pyrite",,,,,,,,Franklin Mining Camp,,"Blair, Will N.",,,,,,,"O'NEILL AND GUNNING, 1934, PT DEPOSITS OF CANADA GEOLOGICAL SURVEY ECON. GEOL. REPT. 13, P. 10",,,,,,,,
10038706,https://mrdata.usgs.gov/mrds/show-mrds.php?dep_id=10038706,M046127,,Lucky Jack,49.56652,-118.35948,NA,Canada,British Columbia,,M,,,"Copper, Platinum, Gold",Unknown,,N,Occurrence,"Bornite, Chalcopyrite, Pyrite",,,,,,,,Franklin Mining Camp,,"Blair, Will N.",,,,,,,"O'NEILL AND GUNNING, 1934, PT DEPOSITS OF CANADA: CANADA GEOLOGICAL SURVEY ECON. GEOL. REPT. 13, P. 105DRYSDALE, 1915, FRANKLIN MINING CAMP, B. C. : CANADA GEOLOGICAL SURVEY MEM. 56, P. 173",,,,,,,,
10038707,https://mrdata.usgs.gov/mrds/show-mrds.php?dep_id=10038707,M046128,,Buffalo Property,49.56652,-118.35948,NA,Canada,British Columbia,,M,,,"Copper, Platinum, Gold",Unknown,,N,Occurrence,"Bornite, Chalcopyrite, Pyrite",,,,,,,Ore Near Monzonite Contact,Franklin Mining Camp,,"Blair, Will N.",,,,,Porphry Dikes,,"O'NEILL AND GUNNING, 1934, PT DEPOSITS OF CANADA: CANADA GEOLOGICAL SURVEY ECON. GEOL. REPT. 13, P. 105DRYSDALE, 1915, FRANKLIN MINING CAMP, B. C. : CANADA. GEOLOGICAL SURVEY MEM. 56, P. 154, 155, 173",,,,,,,,
10038708,https://mrdata.usgs.gov/mrds/show-mrds.php?dep_id=10038708,M046131,,Ottawa,49.56652,-118.35948,NA,Canada,British Columbia,,M,,,"Copper, Platinum, Gold",Unknown,,N,Occurrence,"Bornite, Chalcopyrite, Pyrite",,,,,,,,Franklin Mining Camp,,"Blair, Will N.",,,,,,,"O'NEILL AND GUNNING, 1934, PT DEPOSITS OF CANADA: CANADA GEOLOGICAL SURVEY ECON. GEOL. REPT. 13, P. 105DRYSDALE, 1915, FRANKLIN MINING CAMP, B. C. : CANADA GEOLOGICAL SURVEY MEM. 56, P. 173",,,,,,,,
10038709,https://mrdata.usgs.gov/mrds/show-mrds.php?dep_id=10038709,M046132,,Columbia,49.56652,-118.35948,NA,Canada,British Columbia,,M,,,"Platinum, Copper",Unknown,,N,Occurrence,"Bornite, Chalcopyrite, Pyrite",,,,,,,,Franklin Mining Camp,,"Blair, Will N.",,,,,,,"O'NEILL AND GUNNING, 1934, PT DEPOSITS OF CANADA: CANADA GEOLOGICAL SURVEY ECON. GEOL. REPT. 13, P. 105DRYSDALE, 1915, FRANKLIN MINING CAMP, B. C. : CANADA GEOLOGICAL SURVEY MEM. 56, P. 105",,,,,,,,
10038710,https://mrdata.usgs.gov/mrds/show-mrds.php?dep_id=10038710,M046133,,Franklin Creek,54.7538,-124.75853,NA,Canada,British Columbia,,M,,,Platinum,Unknown,Placer,N,Occurrence,,,,,,,,,Grand Forks Mining Div.,,"Blair, Will N.",,,,,,,"O'NEILL AND GUNNING, 1934, PT DEPOSITS IN CANADA: CANADA GEOLOGICAL SURVEY ECON. GEOL. REPT. 13, P. 9",,,,,,,,
10038711,https://mrdata.usgs.gov/mrds/show-mrds.php?dep_id=10038711,M046134,,Mc Donald Creek,54.7538,-124.75853,NA,Canada,British Columbia,,M,,,Platinum,Unknown,Placer,N,Occurrence,,,,STREAM GRAVELS,,,,,Grand Forks Mining Div.,,"Blair, Will N.",,,,,,,"O'NEILL AND GUNNING, 1934, PT DEPOSITS IN CANADA: CANADA GEOLOGICAL SURVEY ECON. GEOL. REPT. 13, P. 9",,,,,,,,
10038712,https://mrdata.usgs.gov/mrds/show-mrds.php?dep_id=10038712,M046135,,Shuttleworth Creek,49.33734,-119.56174,NA,Canada,British Columbia,,M,,,Platinum,Unknown,Placer,N,Occurrence,,,,STREAM,,,,,,,"Blair, Will N.",,,,,,,"O'NEILL AND GUNNING, 1934, PT DEPOSITS IN CANADA: CANADA GEOLOGICAL SURVEY ECON. GEOL. REPT. 13, P. 99CAMSELL, 1918, PT INVESTIGATIONS IN B. C. : GEOLOGICAL SURVEY CANADA SUMM. REPT. 1918, PT. B, P. 30",,,,,,,,
10038713,https://mrdata.usgs.gov/mrds/show-mrds.php?dep_id=10038713,M046136,,Lardeau River,50.50543,-117.28669,NA,Canada,British Columbia,,M,Gold,,Platinum,Unknown,Placer,Y,Past Producer,,,,STREAM GRAVELS,,,,,Lardeau Mining Division,,"Blair, Will N.",,,,,,,"O'NEILL & GUNNING, 1934, PT DEPOSITS IN CANADA: CANADA GEOLOGICAL SURVEY ECON. GEOL. REPT. 13, P. 100HOLLAND, 1950, PLACER GOLD IN B. C. : B. C. DEPT. MINES BULL. 28, P. 53 - 54HOLLAND 1950",,,,,,,,
10038714,https://mrdata.usgs.gov/mrds/show-mrds.php?dep_id=10038714,M046137,,Siwash Creek,49.68927,-120.33455,NA,Canada,British Columbia,,M,"Gold, Platinum",,,Unknown,Placer,N,Occurrence,,,,STREAM GRAVELS,,,,,,,"Blair, Will N.",,,,,,,"RICE, 1947, GEOL. AND MINERAL DEPOSITS PRINCETON, B. C. : CANADA DEPT. MINES MEM. 243, P. 60",,,,,,,,
10038715,https://mrdata.usgs.gov/mrds/show-mrds.php?dep_id=10038715,M046139,,Cable Mining Claim,49.77487,-116.89721,NA,Canada,British Columbia,,M,,,"Silver, Platinum, Gold",Unknown,,N,Occurrence,Pyrite,,,,,,,,,,"Blair, Will N.",,Diorite,,,,,"O'NEILL AND GUNNING, 1934, PT DEPOSITS IN CANADA: CANADA GEOLOGICAL SURVEY ECON. GEOL. REPT. 13, P. 10",,,,,,,,
10038716,https://mrdata.usgs.gov/mrds/show-mrds.php?dep_id=10038716,M046140,,Nome Claim,49.90904,-116.90583,NA,Canada,British Columbia,,M,,,"Gold, Platinum",Unknown,,N,Occurrence,,,,,,,,,,,"Blair, Will N.",,,,,,,"O'NEILL AND GUNNING, 1934, PT DEPOSITS IN CANADA: CANADA GEOLOGICAL SURVEY ECON. GEOL. REPT. 13, P. 10",,,,,,,,
10038717,https://mrdata.usgs.gov/mrds/show-mrds.php?dep_id=10038717,M046141,,Mineral Dyke Property,54.7538,-124.75853,NA,Canada,British Columbia,,M,,,"Palladium, Platinum",Unknown,,N,Occurrence,"Chalcopyrite, Pyrite",,,,,,,,,,"Blair, Will N.",,,,,,,"O'NEILL AND GUNNING, 1934, PT DEPOSITS IN CANADA: CANADA GEOLOGICAL SURVEY ECON. GEOL. REPT. 13, P. 10",,,,,,,,
10038718,https://mrdata.usgs.gov/mrds/show-mrds.php?dep_id=10038718,M046142,,Horsefly River,52.33317,-121.40132,NA,Canada,British Columbia,,M,Gold,,"Platinum, PGE, Osmium, Iridium",Unknown,Placer,Y,Past Producer,,,,STREAM GRAVELS,,,,,Horsefly Hydraulic Mining Company,,"Blair, Will N.",,,,,,,"O'NEILL AND GUNNING, 1934, PT DEPOSITS IN CANADA: CANADA GEOLOGICAL SURVEY ECON. GEOL. REPT. 13, P. 83, 84HOLLAND, 1950, PLACER GOLD IN B. C. : B. C. DEPT. MINES BULL. 28, P. 49",,,,,,,,
10038719,https://mrdata.usgs.gov/mrds/show-mrds.php?dep_id=10038719,M046143,,Upper Fraser River,53.12094,-122.66806,NA,Canada,British Columbia,,M,Gold,,"Platinum, Osmium, Iridium",Unknown,Placer,Y,Past Producer,,,,STREAM GRAVELS,,,,,Clayoquot Mining Division,,"Blair, Will N.",,,,,,,"O'NEILL AND GUNNING, 1934, PT DEPOSITS IN CANADA: CANADA GEOLOGICAL SURVEY ECON. GEOL. REPT. 13, P. 100 - 101HOLLAND, 1950, PLACER GOLD IN B. C. : B. C. DEPT. MINES BULL. 28, P. 50HOLLAND 1950",,,,,,,1876 - 1945,
10038720,https://mrdata.usgs.gov/mrds/show-mrds.php?dep_id=10038720,M046144,,Fraser River Gold Dredging Co.,50.2726,-121.58655,NA,Canada,British Columbia,,M,Gold,,Platinum,Unknown,Placer,S,Past Producer,,,,STREAM GRAVELS,,,,,Cobledick Dredge,,"Blair, Will N.",,,,,,,"O'NEILL AND GUNNING, 1934, PT DEPOSITS IN CANADA: CANADA GEOLOGICAL SURVEY ECON. GEOL. REPT. 13, P. 10",,,,,,,,
10038721,https://mrdata.usgs.gov/mrds/show-mrds.php?dep_id=10038721,M046146,,Boston Bar,49.87482,-121.42987,NA,Canada,British Columbia,,M,Gold,,Platinum,Unknown,Placer,S,Past Producer,,,,STREAM GRAVELS,,,,,Lower Fraser River,,"Blair, Will N.",,,,,,,"O'NEILL AND GUNNING, 1934, PT DEPOSITS IN CANADA: CANADA GEOLOGICAL SURVEY ECON. GEOL. REPT. 13, P. 101 - 10",,,,,,,,
10038722,https://mrdata.usgs.gov/mrds/show-mrds.php?dep_id=10038722,M046147,,Twenty Mile Creek,52.29983,-121.88467,NA,Canada,British Columbia,,M,Gold,,Platinum,Unknown,Placer,S,Past Producer,,,,STREAM GRAVELS,,,,,Quesnel Hydraulic Min. Co.,,"Blair, Will N.",,,,,,,"O'NEILL AND GUNNING, 1934, PT DEPOSITS IN CANADA: CANADA GEOLOGICAL SURVEY ECON. GEOL. REPT. 13, P. 8",,,,,,,,
10038723,https://mrdata.usgs.gov/mrds/show-mrds.php?dep_id=10038723,M046148,,Bullion Mine,52.62873,-121.64578,NA,Canada,British Columbia,,M,"Gold, Silver","Osmium, Copper, Platinum, Palladium, Iridium",,Unknown,Placer,Y,Past Producer,,,,STREAM GRAVELS,,,,,"B. C. Hydraulics, Ltd.",,"Blair, Will N.",,,,,,,"O'NEILL AND GUNNING, 1934, PT DEPOSITS IN CANADA: CANADA GEOLOGICAL SURVEY ECON. GEOL. REPT. 13, P.HOLLAND, 1950, PLACER GOLD IN B. C. : B. C. DEPT. MINES BULL. 28, P. 49",,,,,,,,
10038724,https://mrdata.usgs.gov/mrds/show-mrds.php?dep_id=10038724,M046149,,Harpers Bar,52.39984,-121.38465,NA,Canada,British Columbia,,M,Gold,Platinum,,Unknown,Placer,Y,Past Producer,,,,,,,,,Horsefly River,,"Blair, Will N.",,,,,,,"O'NEILL AND GUNNING, 1934, PT IN CANADA: CANADA GEOLOGICAL SURVEY ECON. REPT. 13, P. 86.HOLLAND, 1950, PLACER GOLD IN B. C. : B. C. DEPT. MINES BULL. 28, P. 49",,,,,,,,
10038725,https://mrdata.usgs.gov/mrds/show-mrds.php?dep_id=10038725,M046150,,Fivemile Creek,50.60431,-117.47392,NA,Canada,British Columbia,,M,,,Platinum,Unknown,Placer,N,Occurrence,,,,STREAM GRAVELS,,,,,Lardeau Mining Division,,"Blair, Will N.",,,,,,,"O'NEILL AND GUNNING, 1934, PT DEPOSITS IN CANADA: CANADA GEOLOGICAL SURVEY ECON. GEOL. REPT. 13, P. 10",,,,,,,,
10038726,https://mrdata.usgs.gov/mrds/show-mrds.php?dep_id=10038726,M046151,,Canyon Creek,50.50681,-117.28669,NA,Canada,British Columbia,,M,,,Platinum,Unknown,Placer,N,Occurrence,,,,STREAM GRAVELS,,,,,Lardeau Mining Division,,"Blair, Will N.",,,,,,,"O'NEILL AND GUNNING, 1934, PT DEPOSITS IN CANADA: CANADA GEOLOGICAL SURVEY ECON. GEOL. REPT. 13, P. 10",,,,,,,,
10038727,https://mrdata.usgs.gov/mrds/show-mrds.php?dep_id=10038727,M046152,,Gold Hill,50.36376,-117.10112,NA,Canada,British Columbia,,M,,,"Platinum, Gold",Unknown,Placer,N,Occurrence,,,,STREAM GRAVELS,,,,,Lardeau Mining Division,,"Blair, Will N.",,,,,,,"O'NEILL AND GUNNING, 1934, PT DEPOSITS IN CANADA: CANADA GEOLOGICAL SURVEY ECON. GEOL. REPT. 13, P. 10",,,,,,,,
10038729,https://mrdata.usgs.gov/mrds/show-mrds.php?dep_id=10038729,M046156,,Olivine Mountain,49.52038,-120.87623,NA,Canada,British Columbia,,M,"Gold, Platinum",,,Unknown,Placer,Y,Past Producer,,,,,,,,,,,"Blair, Will N.",,,,,,,"RICE, 1947, GEOL. AND MINERAL DEPOSITS PRINCETON AREA, B. C. : CANADA DEPT. MINES MEM. 243, P. 63",,,,,,,1928,
10038730,https://mrdata.usgs.gov/mrds/show-mrds.php?dep_id=10038730,M046157,,Elliot Creek,49.61983,-120.78679,NA,Canada,British Columbia,,M,Gold,,Platinum,Unknown,Placer,S,Past Producer,,,,,,,,,Boulder Creek,,"Blair, Will N.",,,,,,,"RICE, 1947, GEOL. AND MINERAL DEPOSITS PRINCETON AREA, B. C. : CANADA DEPT. MINES MEM. 243, P. 63",,,,,,,,
10038731,https://mrdata.usgs.gov/mrds/show-mrds.php?dep_id=10038731,M046158,,General Princeton Area,49.49983,-120.50122,NA,Canada,British Columbia,,M,"Gold, Platinum",,,Unknown,,Y,Past Producer,,,,,,,,,,,"Blair, Will N.",,,,,,,"RICE, 1947, GEOL. AND MINERAL DEPOSITS PRINCETON AREA, B. C. : CANADA DEPT. MINES MEM. 243, P. 57 - 58",,,,,,,1887 - 1905,
10038732,https://mrdata.usgs.gov/mrds/show-mrds.php?dep_id=10038732,M046159,,Moresby Island,52.7136,-132.00166,NA,Canada,British Columbia,,M,Copper,"Gold, Silver","Platinum, Palladium",Unknown,,S,Past Producer,"Bornite, Chalcopyrite",,,,,,,,,,"Blair, Will N.",,,,,,,"O'NEILL AND GUNNING, 1934, PT DEPOSITS IN CANADA: CANADA GEOLOGICAL SURVEY ECON. GEOL. REPT. 13, P. 10",,,,,,,,
10038733,https://mrdata.usgs.gov/mrds/show-mrds.php?dep_id=10038733,M046160,,Scottie Creek,50.94983,-121.40128,NA,Canada,British Columbia,,M,,,"Gold, Platinum",Unknown,Placer,N,Occurrence,,,,,,,,,,,"Blair, Will N.",,,,,,,"THOMLINSON, W., 1920, PT LODE SAMPLES IN B. C. : MUNITION RES. CANADA FINAL REPORT, TORONTO, P. 161 - 182.O'NEILL AND GUNNING, 1934, PT DEPOSITS IN CANADA: CANADA GEOLOGICAL SURVEY ECON. REPORT 13, P. 87",,,,,,,,
10038735,https://mrdata.usgs.gov/mrds/show-mrds.php?dep_id=10038735,M046162,,Mount Ida,50.66652,-119.24426,NA,Canada,British Columbia,,M,,,"Platinum, Gold",Unknown,,N,Occurrence,"Chalcopyrite, Galena, Pyrite, Sphalerite",,,VEIN,,,,,Mountain View Claim,Shear Zone,"Blair, Will N.",,,,,,,"O'NEILL AND GUNNING, 1934, PT DEPOSITS IN CANADA: CANADA GEOLOGICAL SURVEY ECON. GEOL. REPT. 13, P. 10",,,,,,,,
10038736,https://mrdata.usgs.gov/mrds/show-mrds.php?dep_id=10038736,M046163,,Similco Mine,49.32955,-120.46399,NA,Canada,British Columbia,,M,"Copper, Gold, Silver, Platinum",,,Unknown,,L,Producer,"Bornite, Chalcocite, Chalcopyrite, Sperrylite","Biotite, Fluorite, Magnetite, Scapolite",,,,53: Porphyry Cu,"Potassic Alteration, Propylitic Alteration. See Geology Comments.",Primary Sulfide Mineralization Extends To The Present Surface And Oxidation Is Limited To The Upper 15 Meters Of Fault And Fracture Zones. No Secondary Enrichment Has Taken Place Since Pleistocene Glaciation.,"Sunset Claim, Copper Mountain",Fine Grained Bedded Tuffs Are The Most Favorable Host Rock Because Of Their Propensity For Brittle Fracture. The Lost Horse Intrusive Is Considered To Have Been More Important In Localizing The Orebodies Than The Copper Mountain Stock.,"Phinisey, J. D. (Marcus, S.), Blair, Will N.",Nicola Group;Nicola Group;Nicola Group;Nicola Group;Nicola Group,Basalt,Copper Mountain Stock;Lost Horse Complex;Copper Mountain Stock;Copper Mountain Stock;Copper Mountain Stock;Lost Horse Complex,Diorite,"North-Trending High Angle Faults Form An Ancient Long-Lived Rift System, The Nicola Basin, That Extends From The U.S. Border To At Least 160 Km North., Copper Mountain Is Dominated By Strong Easterly And Northwesterly Faulting. Folding Is Minor And Units Are Mostly Flat Lying Or Very Gently Dipping.",Back Arc Basin,"FAHRNI, K.C., ET AL, 1976, COPPER MOUNTAIN AND INGERBELLE, IN BROWN, A., ED., PORPHYRY DEPOSITS OF THE CANADIAN CORDILLERA, CANADIAN INSTITUTE OF MINING AND METALLURGY, SPECIAL VOLUME 15, P. 368-375.GEORGE CROSS NEWSLETTER, 8/1/90.BRITISH COLUMBIA DEPARTMENT OF MINES AND PETROLEUM RESOURCES BULLETIN 59.O'NEILL AND GUNNING, 1934, PLATINUM DEPOSITS IN CANADA: CANADA GEOLOGICAL SURVEY ECON. GEOL. REPT. 13, P. 103.",,1900,,,,1884,1900-1923 (SPORADIC); 1925-1930; 1937-1957; 1989-PRESENT (5/92),"Mr. Jameson, A Trapper."
10038737,https://mrdata.usgs.gov/mrds/show-mrds.php?dep_id=10038737,M046164,,Nickel Plate Mine,49.34816,-120.03731,NA,Canada,British Columbia,,M,Gold,,Platinum,Unknown,,S,Past Producer,,,,,,,,,,,"Blair, Will N.",,,,,,,"O'NEILL AND GUNNING, 1934, PT DEPOSITS IN CANADA: CANADA GEOLOGICAL SURVEY ECON. GEOL. REPT. 13, P. 10",,,,,,,,
10038738,https://mrdata.usgs.gov/mrds/show-mrds.php?dep_id=10038738,M046166,,Mother Lode Claim,49.1123,-118.7188,NA,Canada,British Columbia,,M,"Silver, Gold",Copper,Platinum,Unknown,,S,Past Producer,"Chalcopyrite, Galena, Molybdenite, Pyrite, Sphalerite",,,,,,,,,,"Blair, Will N.",,Schist,,,,,"O'NEILL AND GUNNING, 1934, PT DEPOSITS IN CANADA: CANADA GEOLOGICAL SURVEY ECON. GEOL. REPT. 13, P. 104ANNUAL REPT. B. C. DEPT. MINE FOR 1917, P. 201British Columbia Minfile database, 2009, Minfile record number 082ESE034.",,,,,,,1901 - 1918,
10038739,https://mrdata.usgs.gov/mrds/show-mrds.php?dep_id=10038739,M046168,,Tulameen River,49.4665,-120.50122,NA,Canada,British Columbia,,M,"Gold, Platinum",,,Unknown,Placer,Y,Past Producer,Magnetite,,,STREAM GRAVELS,,,,,Tulameen Area,,"Blair, Will N.",,,,,,,"O'NEILL AND GUNNING, 1934, PT DEPOSITS IN CANADA: CANADA GEOLOGICAL SURVEY ECON. GEOL. REPT. 13, P. 94, 98HOLLAND, 1950, PLACER GOLD IN B. C. : B. C. DEPT. MINES BULL. 28, P. 54O'NEILL & GUNNING P. 95",,,,,,,,
10038740,https://mrdata.usgs.gov/mrds/show-mrds.php?dep_id=10038740,M046170,,"Kettle River, West Branch North Fork.",49.06095,-118.93171,NA,Canada,British Columbia,,M,,,Platinum,Unknown,Placer,N,Occurrence,,,,STREAM GRAVELS,,,,,,,"Blair, Will N.",,,,,,,"O'NEILL AND GUNNING, 1934 PT DEPOSITS IN CANADA: CANADA GEOLOGICAL SURVEY ECON. GEOL. REPT. 13, P. 99HOLLAND, 1950, PLACER GOLD IN B. C. : B. C. DEPT. MINES BULL. 28, P. 36",,,,,,,,
10038741,https://mrdata.usgs.gov/mrds/show-mrds.php?dep_id=10038741,M046171,,North Thompson River,51.63318,-120.06793,NA,Canada,British Columbia,,M,Gold,,Platinum,Unknown,Placer,Y,Past Producer,,,,STREAM GRAVELS,,,,,,,"Blair, Will N.",,,,,,,"O'NEILL AND GUNNING, 1934, PT DEPOSITS IN CANADA: CANADA GEOLOGICAL SURVEY ECON. GEOL. REPT. 13, P. 87HOLLAND, 1950, PLACER GOLD IN B. C. : B. C. DEPT. MINES BULL. 28, P. 38",,,,,,,,
10038742,https://mrdata.usgs.gov/mrds/show-mrds.php?dep_id=10038742,M046173,,Sowaqua Creek,49.41649,-121.23457,NA,Canada,British Columbia,,M,Gold,Silver,Platinum,Unknown,Placer,Y,Past Producer,,,,STREAM GRAVEL,,,,,,,"Blair, Will N.",,,,,,,"O'NEILL AND GUNNING, 1934, PT DEPOSITS IN CANADA: CANADA GEOLOGICAL SURVEY ECON. GEOL. REPT. 13, P. 88HOLLAND, 1950, PLACER GOLD IN B. C. : B. C. DEPT. MINES BULL. 28, P. 42",,,,,,,,
10038743,https://mrdata.usgs.gov/mrds/show-mrds.php?dep_id=10038743,M046174,,Peace River,56.14987,-122.56816,NA,Canada,British Columbia,,M,Gold,,Platinum,Unknown,Placer,Y,Past Producer,,,,STREAM GRAVELS,,,,,"Gold Bar, Branham Flat",,"Blair, Will N.",,,,,,,"O'NEILL AND GUNNING, 1934, PT DEPOSITS IN CANADA: CANADA GEOLOGICAL SURVEY ECON. GEOL. REPT. 13, P. 83HOLLAND, 1950, PLACER GOLD IN B. C. : B. C. DEPT. MINES BULL. 28, P. 47HOLLAND 1950",,,,,,,"1881 - 1885, 1926 - 1945",
10038744,https://mrdata.usgs.gov/mrds/show-mrds.php?dep_id=10038744,M046175,,Lawless Creek,49.54372,-120.85817,NA,Canada,British Columbia,,M,,Gold,Platinum,Unknown,Placer,N,Prospect,,,,STREAM GRAVELS,,,,,,,"Blair, Will N.",,,,,,,"RICE, 1947, GEOLOGY AND MINERAL DEPOSITS OF PRINCETON, B. C. : CANADA DEPT. MINES MEM. 243, P. 63HOLLAND, 1950, PLACER GOLD IN B. C. : B. C. DEPT. MINES BULL. 28, P. 55",,,,,,,,
10038745,https://mrdata.usgs.gov/mrds/show-mrds.php?dep_id=10038745,M046177,,Champion Creek,49.9165,-120.48456,NA,Canada,British Columbia,,M,,,"Gold, Platinum",Unknown,Placer,N,Prospect,,,,STREAM GRAVELS,,,,,,,"Blair, Will N.",,,,,,,"RICE, 1947, GEOL. AND MINERAL DEPOSITS PRINCETON AREA B. C. : CANADA DEPT. MINES MEM. 243, P. 63",,,,,,,,
10038746,https://mrdata.usgs.gov/mrds/show-mrds.php?dep_id=10038746,M046179,,Spruce Creek,59.55257,-133.50205,NA,Canada,British Columbia,,M,Gold,,"Iridium, Osmium",Unknown,Placer,Y,Producer,"Gold, Iridosmine",,,,,,,Pt Metals Probably From Alpine Peridotites,"Tax Lease, Dream Lease, Lassie Creek Lease, St. Quentin Lease, Jewel Lease, Lynx Lease, Hard Scrabble Lease, Gladstone Lease, Peterboro Lease, Olalla Lease, Hope Fraction, Poker Lease, Joker Lease, Croker Lease, Bratt, Morse and Co., Wolf Lease, Clydesdale Lease, Colpe Mining Co., Ltd.","River Grade About 3%, Red Clays Have Higher Grade","Page, Norman J.",,"Greenstone,Gravel",,,,,"HARRIS AND CABRI, 1973, CAN. MINERAL., V. 12, P. 104 - 112AITKEN, J. D., 1959, GEOL. SURV. CANADA MEM. 307, P. 74 - 75MANDY, J. T., 1936, B. C. REPT. TO MINISTER OF MINES, P. B39 - B56",,1898,,,,1898,,Fred Marius
10038747,https://mrdata.usgs.gov/mrds/show-mrds.php?dep_id=10038747,M046180,,Discovery,59.59118,-133.56538,NA,Canada,British Columbia,,M,Gold,,"Iridium, Osmium",Unknown,Placer,Y,Past Producer,,,,,,,,Pt Metal Source Probably Alpine Peridotites,Pine Creek,Has Pre And Post Glacial Channels,"Page, Norman J.",,Gravel,,Greenstone,,,"HARRIS AND CABRI, 1973, CAN. MINERAL., V. 12, P. 104 - 112AITKEN, J. D., 1959, GEOL. SURV. CANADA MEM. 307MANDY, J. T., 1936, B. C. REPT. TO MINISTER OF MINES, P. B39 - B56",,1898,,,,1897,,Miller
10038748,https://mrdata.usgs.gov/mrds/show-mrds.php?dep_id=10038748,M046181,,Pacific Nickel Mines,49.4376,-121.31791,NA,Canada,British Columbia,,M,Nickel,"Platinum, Copper",,Unknown,,Y,Producer,"Chalcopyrite, Pentlandite, Pyrrhotite",,,PARSNIP - SHAPED,,,,,,,"Blair, Will N.",,,,,,,"MERTIE, 1969, ECON. GEOL. PT: US GEOLOGICAL SURVEY PROF. PAPER 630, P. 28AHO, 1956, GEOL. NI - CU PAC. NICKEL PROPERTY, B. C. : ECON. GEOL. V. 51, P.MERTIE 1969",,,,,,,,
10038749,https://mrdata.usgs.gov/mrds/show-mrds.php?dep_id=10038749,M046183,,Nation River,55.24706,-124.10984,NA,Canada,British Columbia,,M,Gold,,Platinum,Unknown,Placer,Y,Past Producer,,,,STREAM GRAVELS,,,,,,,"Blair, Will N.",,,,,,,"O'NEILL AND GUNNING, 1934, PT DEPOSITS IN CANADA: CANADA GEOLOGICAL SURVEY ECON. GEOL. REPT. 13, P. 81HOLLAND, 1950, PLACER AU IN B. C. : B. C. DEPT. MINES BULL. 28, P. 43",,,,,,,,
10038750,https://mrdata.usgs.gov/mrds/show-mrds.php?dep_id=10038750,M046185,,Granite Creek,49.49511,-120.68844,NA,Canada,British Columbia,,M,Gold,,"PGE, Palladium, Osmium, Platinum, Iridium",Unknown,Placer,Y,Past Producer,"Chromite, Magnetite",,,,,,,,,,"Blair, Will N.",,,,,,,"RICE, 1947, GEOL. & MIN. DEPOSITS PRINCETON AREA: CANADA GEOLOGICAL SURVEY MEM. 243, P. 59HOLLAND, 1950, PLACER GOLD IN B. C. : B. C. DEPT. MINES BULL. 28, P. 54 - 55HOLLAND 1950",,,,,,,1876 - 1945,
10038751,https://mrdata.usgs.gov/mrds/show-mrds.php?dep_id=10038751,M046186,,Government Creek,53.51651,-122.56807,NA,Canada,British Columbia,,M,Gold,,Platinum,Unknown,Placer,Y,Past Producer,,,,STREAM GRAVELS,,,,,,,"Blair, Will N.",,,,,,,"O'NEILL AND GUNNING, 1934, PT DEPOSITS IN CANADA: CANADA GEOLOGICAL SURVEY ECON. REPT. 13, P. 83HOLLAND, 1950, PLACER GOLD IN B. C. : B. C. DEPT. MINES BULL. 28, P. 21",,,,,,,,
10038752,https://mrdata.usgs.gov/mrds/show-mrds.php?dep_id=10038752,M046187,,Chrome Creek,50.84983,-121.36795,NA,Canada,British Columbia,,M,,,"Platinum, Gold",Unknown,Placer,N,Prospect,,,,STREAM GRAVELS,,,,,,,"Blair, Will N.",,,,,,,"O'NEILL AND GUNNING, 1934, PT DEPOSITS IN CANADA: CANADA GEOLOGICAL SURVEY ECON. GEOL. REPT. NO. 13, P. 8",,,,,,,,
10038753,https://mrdata.usgs.gov/mrds/show-mrds.php?dep_id=10038753,M046188,,Tranquille River,50.76651,-120.51792,NA,Canada,British Columbia,,M,Gold,,Platinum,Unknown,Placer,Y,Past Producer,,,,STREAM GRAVELS,,,,,,,"Blair, Will N.",,,,,,,"HOLLAND, 1950, PLACER GOLD IN B. C.: B. C. DEPT. MINES BULL. 28, P. 38O'NEILL AND GUNNING, 1934, PT DEPOSITS IN CANADA: CANADA GEOLOGICAL SURVEY ECON. GEOL. REPT. 13, P. 87",,,,,,,,
10038754,https://mrdata.usgs.gov/mrds/show-mrds.php?dep_id=10038754,M046189,,Omenica River,55.7904,-124.70406,NA,Canada,British Columbia,,M,Gold,,Platinum,Unknown,Placer,N,Occurrence,,,,RIVER GRAVELS,,,,,,,"Blair, Will N.",,,,,,,"O'NEILL AND GUNNING, 1934, PT DEPOSITS IN CANADA: CANADA GEOLOGICAL SURVEY ECON. GEOL. REPT. 13, P. 8",,,,,,,,
10038755,https://mrdata.usgs.gov/mrds/show-mrds.php?dep_id=10038755,M046191,,Igenika River,56.79984,-126.21832,NA,Canada,British Columbia,,M,Gold,,Platinum,Unknown,Placer,Y,Past Producer,,,,STREAM GRAVELS,,,,,,,"Blair, Will N.",,,,,,,"O'NEILL AND GUNNING, 1934, PT DEPOSITS IN CANADA: CANADA GEOLOGICAL SURVEY ECON. GEOL. REPT. 13, P. 81HOLLAND, 1950, PLACER GOLD IN B. C.: B. C. DEPT. MINES BULL. 28, P. 43",,,,,,,,
10038756,https://mrdata.usgs.gov/mrds/show-mrds.php?dep_id=10038756,M046192,,Rainbow Creek,55.14984,-123.96818,NA,Canada,British Columbia,,M,Gold,,"Platinum, Iridium",Unknown,Placer,Y,Past Producer,,,,STREAM GRAVELS,,,,,,,"Blair, Will N.",,,,,,,"O'NEILL AND GUNNING, 1934, PT DEPOSITS IN CANADA: CANADA GEOLOGICAL SURVEY ECON. GEOL. REPT. 13, P. 82HOLLAND, 1950, PLACER GOLD IN B. C.: B. C. DEPT. MINES BULL. 28, P. 43",,,,,,,1874 -,
10038757,https://mrdata.usgs.gov/mrds/show-mrds.php?dep_id=10038757,M046194,,Dog Creek,54.6165,-124.31817,NA,Canada,British Columbia,,M,Gold,,Platinum,Unknown,Placer,Y,Past Producer,,,,STREAM GRAVELS,,,,,,,"Blair, Will N.",,,,,,,"O'NEILL AND GUNNING, 1934, PT DEPOSITS IN CANADA: CANADA GEOLOGICAL SURVEY ECON. GEOL. REPT. 13, P. 82HOLLAND, 1950, PLACER GOLD IN B. C.: B. C. DEPT. MINES BULL. 28, P. 43",,,,,,,,
10038758,https://mrdata.usgs.gov/mrds/show-mrds.php?dep_id=10038758,M046195,,Mc Connell Creek,56.84984,-126.50167,NA,Canada,British Columbia,,M,Gold,Platinum,,Unknown,Placer,Y,Past Producer,,,,STREAM GRAVELS,,,,,P. Jensen's Lease No. 457,,"Blair, Will N.",,,,,,,"O'NEILL AND GUNNING, 1934, PT DEPOSITS IN CANADA: CANADA GEOLOGICAL SURVEY ECON. GEOL. REPT. 13, P. 83HOLLAND, 1950, PLACER GOLD IN B. C.:B. C. DEPT. MINES BULL. 28, P. 43LAY, 1932, REPT. ON MC CONNELL CREEK, B. C.: B. C. DEPT. MINES BULL. 2, 17 P.HOLLAND 1950",,,,,,,,
10039234,https://mrdata.usgs.gov/mrds/show-mrds.php?dep_id=10039234,M046824,,Tyee Lake Resources,49.6665,-120.6679,NA,Canada,British Columbia,,M,,,Platinum,Unknown,,N,Occurrence,,,,,,,,,,,"Blair, Will N.",,,,,,,"NORTHERN MINER, 1977 , V. 62 , N. 52CANADIAN MINES HANDBOOK, 1976 - 1977 , TYEE LAKE RESOURCES:  N. MINER, P. 320",,,,,,,,
10039323,https://mrdata.usgs.gov/mrds/show-mrds.php?dep_id=10039323,M046958,,Basic,49.01652,-118.03445,NA,Canada,British Columbia,,M,Nickel,,PGE,Unknown,,U,Prospect,,,,,,,,,,,"Saso, Jerri L.",,,,,,,"ANNIS, CRANSTONE, AND VALLEE, 1978 , KNOWN MIN. CA.:  DEPT. ENERGY, MINES RESOURCES CA., BULL. MR 181ANNIS ETAL., 1978 , KNOWN MIN. CA. NOT MINED",,,,,,,,
10039328,https://mrdata.usgs.gov/mrds/show-mrds.php?dep_id=10039328,M046967,,E and L,56.57755,-130.69347,NA,Canada,British Columbia,,M,,,"PGE, Copper, Nickel",Unknown,,N,Occurrence,,,,,,,,,,,"Saso, Jerri L.",,,,,,,"ANNIS, CRANSTONE, AND VALLEE, KNOWN MIN. CA., 1978 :  DEPT. ENERGY, MINES RESOURCES CA., BULL. MR 181ANNIS ETAL., 1978 , KNOWN MIN. CA. NOT MINED",,,,,,,,
10056492,https://mrdata.usgs.gov/mrds/show-mrds.php?dep_id=10056492,TC00513,,Lornex,50.48316,-121.03459,NA,Canada,British Columbia,,M,"Copper, Molybdenum",,"Gold, Silver",Unknown,,Y,Producer,"Bornite, Chalcopyrite, Molybdenite","Anhydrite, Calcite, Chlorite, Epidote, Gypsum, Hematite, Magnetite, Montmorillonite, Pyrite, Quartz, Sericite",,"STRINGS, VEINS, AND FRACTURE FILLING",Surface,79: Porphyry Cu-Mo,"Argillic, Phyllic, Potassic, Silicic, Propylitic; Distinct Propylitic Zone On The E Side Of The Orebody",,,,"Bolm, Karen S.",,Diorite,,Diorite,"Guichon Creek Batholith Iin The Intermontare Belt, Fracture Area At Contact Of Skeena Granodiorite With Bethsaida Quartz Monzonite",,"CORE SHED DISPLAY APPENDIX, 1990, VIII SYMPOSIUM, INTERNATIONAL ASSOCIATION ON THE GENESIS OF ORE  DEPOSITS, OTTAWA, CANADACORE SHED DISPLAY APPENDIX, 1990.",,1972,,,,1964,,Egil Lorentzen
10065853,https://mrdata.usgs.gov/mrds/show-mrds.php?dep_id=10065853,TC41291,,Tulameen,49.49983,-120.75122,NA,Canada,British Columbia,,M,"Gold, Platinum",Osmium,,Unknown,,Y,Past Producer,,,,,,,,,,,"Orris, Greta J. (Bliss, James D.)",,,,,,,"CAMSELL, 1913.ORRIS, G.J. AND BLISS, J.D., 1985, GEOLOGIC AND GRADE VOLUME DATA ON 330 GOLD PLACER DEPOSITS:  U.S. GEOLOGICAL SURVEY OPEN-FILE REPORT 85-213, 172 P.CIMRIORRIS AND BLISS, 1985.",,,,,,,,
10065854,https://mrdata.usgs.gov/mrds/show-mrds.php?dep_id=10065854,TC41292,,Wheaton Creek,58.33316,-129.00181,NA,Canada,British Columbia,,M,Gold,Silver,,Unknown,,N,Occurrence,,,,,,,,,,,"Orris, Greta J. (Bliss, James D.)",,Slate,,,,,"HOLLAND, 1940.ORRIS, G.J. AND BLISS, J.D., 1985, GEOLOGIC AND GRADE VOLUME DATA ON 330 GOLD PLACER DEPOSITS:  U.S. GEOLOGICAL SURVEY OPEN-FILE REPORT 85-213, 172 P.CIMRIORRIS AND BLISS, 1985.",,,,,,,,
10069226,https://mrdata.usgs.gov/mrds/show-mrds.php?dep_id=10069226,W002754,,Giant Nickel Mines-Canada,49.41648,-121.83459,NA,Canada,British Columbia,,M,"Nickel, Copper",,,Unknown,,Y,Past Producer,"Chalcopyrite, Pentlandite, Pyrrhotite",,,,,,,,,,"Shaffer, Glenn L.",,Peridotite,,,,,"METALS WEEK-METALS SOURCEBOOK, 9/30/74, ITEM #B4404ENGINEERING AND MINING JOURNAL, 3/72, P. 274.METALS WEEK-METALS SOURCEBOOK, 6/24/74, ITEM #B3237.SKINNER, WALTER R., 1973, MINING INTERNATIONAL YEARBOOK: THE FINANCIAL TIMES, LONDON, 1973, P. 2655) METALS WEEK-METALS SOURCEBOOK, 9/24/73 ITEM #A44486) BOLDT, JOSEPH R., JR., 1967, THE WINNING OF NICKEL, P. 51-52*8)SKINNER,WALTER R.,1975, MINING INTERNAC. YEARBOOK:FINANCIAL TIMES,LONDON,P.257.*9)CANADIAN MINES HANDBOOK 1974-1975,1974,THE NORTHERN MINER,P.132.E/MJ, INTER. DIRECTORY OF MINING 1976 , P. 187",,1957,,,,,,
10069442,https://mrdata.usgs.gov/mrds/show-mrds.php?dep_id=10069442,W006977,,Rock Candy Fluorspar Mine,49.2608,-118.4887,NA,Canada,British Columbia,,B,Fluorine-Fluorite,,"Copper, Quartz, Lead, Barium-Barite, Calcium",Unknown,Replacement,Y,Past Producer,,"Barite, Calcite, Chert, Kaolin, Pyrite, Quartz",,LINEAR,,175: Barite-fluorite veins,,,,,"Schruben, Paul G.",,Syenite,Syenite,"Syenite,Plutonic Rock",,,"BARTLEY, C.M., 1961, FLUORSPAR, CAN. DEPT. OF MINES AND TECH. SURVEYS, MINES BRANCH INFO. CIRC. IC 127, P. 50-51.DOLMAGE, V., 1929, GRAND FORKS MINING DIVISION; ROCK CANDY: GEOLOGICAL SURVEY, CANADA, ECON. GEOL. SERIES NO. 6, P. 22 - 281929 GEOLMAP GEOLOGICAL SURVEY, CANADA (V. DOLMAGEBritish Columbia Minfile database, 2009, Minfile record number 082ESE070",,1918,,,,1916,,
10069443,https://mrdata.usgs.gov/mrds/show-mrds.php?dep_id=10069443,W006978,,Birch Island Uranium - Fluorspar Deposit,51.44994,-109.81756,NA,Canada,British Columbia,,B,,,"Manganese, Fluorine-Fluorite, REE, Strontium, Iron, Uranium",Unknown,,Y,Producer,"Bastnasite, Monazite, Pitchblende","Feldspar, Galena, Pyrite, Sericite",Celestite,TABULAR,,,,,Rexspar Property,,"Schruben, Paul G.",,Trachyte,Porphyritic Trachytic Tuffs,Trachyte,,,", 1957, THE GEOLOGY OF CANADIAN INDUSTRIAL MINERAL DEPOSITS:  CAN. INST. MINING & METALLURGY, 6TH COMMONWEALTH MINING AND METALL. CONGRESS, P. 90BARTLEY, C.M., 1961, FLUORSPAR: CANADIAN DEPT. MINES AND TECH. SURVEYS, MINES BRANCH INFO. CIRC. IC 127, P. 51 & 52SCOTT, J.W., 1954, THE REXSPAR URANIUM PROPERTY: WESTERN MINER & OIL REVIEW, DEC. 1954, V. 27, N. 12, P. 40 - 42.COTE, P.R., 1969, PAST DECADE MARKS GROWTH FOR FLUORSPAR: THE NORTHERN MINER, NOV. 27, 1969, P. 59, 62COTE, P.R., 1969, PAST DECADE...",,,,,,1918,,
10069444,https://mrdata.usgs.gov/mrds/show-mrds.php?dep_id=10069444,W006979,,Lower Liard Crossing Fluorite - Witherite Deposit,59.43322,-126.11845,NA,Canada,British Columbia,,B,,,"Fluorine-Fluorite, Barium-Barite, Calcium, Quartz, Iron",Unknown,,N,Occurrence,,"Barite, Calcite",,TABULAR,,,,,,Disconformity Between Argillite And Limestone,"Schruben, Paul G.",Argillite;Limestone,"Argillite,Limestone",,,Northerly Trending Anticline Adjacent To The Area Of Mineralization,,"WOODCOCK, J.R., AND SMITHERINGALE, W.V., 1957, FLUORITE - WITHERITE DEPOSIT AT LOWER LIARD CROSSING, BRITISH COLUMBIA, IN THE GEOLOGY OF CANADIAN INDUSTRIAL MINERAL DEPOSITS: CAN. INST. MINING AND METALLURGY, 6TH COMMONWEALTH MINING AND METALLURGICAL CONGRESS, P. 244- 247.WILLIAMS, M.Y., 1944, GEOLOGICAL SURVEY OF CANADA PAPER 44-28.1944 GEOLMAP GEOL. SURV., CANADA, WILLIAMS, M.Y.1953 GEOCHEM INDUSTRIAL MINERALS DIV., DEPT. MINES & TECH. SURV.WOODCOCK, J.R. AND SMITHERINGALE, W.V., 1957, FLUORITE - WITHERITE DEPOSIT",,1969,,,,1953,,Conwest Exploration Co. Ltd.
10073058,https://mrdata.usgs.gov/mrds/show-mrds.php?dep_id=10073058,W018866,1220100017,H. B. Mine,49.1367,-117.2443,NA,Canada,British Columbia,,M,"Lead, Zinc",,"Gold, Silver, Cadmium",Unknown,Replacement,Y,Past Producer,"Galena, Hemimorphite, Sphalerite","Dolomite, Pyrite, Pyrrhotite",,STEEPLY DIPPING STRINGERS OR FLAT - LYING IN BRECCIA ZONES,Underground,,"Dolomitization, Silicification And Tremolite To Talc",,,"Possibly A Large Thrust Fault Which Is Very Close To The Mine. Also, Favorable Host Rock Structure & Lithology","Schruben, Paul G., Porter, Kenneth E.",Reeves Limestone (Lower Liab Group),Limestone,,,"Kootenay Arc., Diabase Dikes. Host Rock Is Tightly Folded At The Mine Forming A Syncline, Both Limbs Dipping 50 - 75 Deg E.","Coroilleran Region, Kootenay Arc","WARNING, G. F., 1960, GEOLOGY OF THE H. B. MINE; CAN. INST. MINING AND METALLURGY TR. V. 63 P. 520 - 23.FYLES, J. T. AND HEWLETT, C. G., 1959, STRATIGRAPHY AND STRUCTURE OF THE SALMO LEAD - ZINC AREA; B. C. DEPT. MINES BULL 41, 162 P.1973, GEOLOGY, EXPLORATION AND MINING IN BRITISH COLUMBIA; B. C. DEPT. MINES AND PET. RESOURCES, P. 22, 571946 DIREXPL COMINCO - EXTENSIVE ORE FOUNCominco Ltd. Staff, 1974, The H.B. Mine; in Mineral industries in Western Canada, The Tenth Commomweath Mining and Metallurgical Congress - Sept. 2-28, 1974, Section VI, Article F, P. 1-10.Irvine, W.T., 1957, Structural geology of Canadian ore deposits, Vol. II, p. 124-132.CANADIAN MINES HANDBOOKS, VARIOUS YEARS. GEOL. EXPLORATION AND MINING IN B. C., 1973, P. 22",,1912,,,,1907,,Horton And Benson
10073059,https://mrdata.usgs.gov/mrds/show-mrds.php?dep_id=10073059,W018867,,Lynx Mine,49.57477,-125.59305,NA,Canada,British Columbia,,M,"Lead, Zinc, Copper","Silver, Gold, Cadmium",,Unknown,,Y,Producer,"Chalcopyrite, Galena, Sphalerite","Calcite, Pyrite",,,,,,,"Myra Mine, Price Mine, Myra Falls Paramdunt",,"Schruben, Paul G.",,"Volcanic Rock (Aphanitic),Tuff,Volcanic Breccia (Agglomerate),Felsic Volcanic Rock,Andesite",,,,,"CANADIAN MINES HANDBOOK - VARIOUS YEARS.1973, GEOLOGY, EXPLORATION AND MINING IN BRITISH COLUMBIA; B. C. DEPT. MINES AND PET. RES. P. 235 - 236.CANADIAN MINES HANDBOOKS. GEOL. EXPLORATION AND MINING IN B. C., 1973 P. 24CANADIAN MINES HANDBOOK '75-76",,1966,,,,,,
10073060,https://mrdata.usgs.gov/mrds/show-mrds.php?dep_id=10073060,W018869,,Ruth Vermont Mine,50.94987,-116.98446,NA,Canada,British Columbia,,M,"Zinc, Lead, Silver",,,Unknown,,S,Producer,"Galena, Sphalerite",,,,,,,,,,"Schruben, Paul G.",Horsethief Creek Formation,Limestone,,,,,"STAFF, 1976, MINING ACTIVITY DIGEST, AUGUST 6, P.GEOLOGY EXPLORATION AND MINING IN BRITISH COLUMBIA, 1973, P. 96; 1974 P. 84 - 5MINING ACTIVITY DIGEST 8-6-76 P. 9",,1970,,,,,,
10073061,https://mrdata.usgs.gov/mrds/show-mrds.php?dep_id=10073061,W018870,,Sullivan Mine,49.71654,-116.00106,NA,Canada,British Columbia,,M,"Silver, Lead, Zinc","Palladium, Cadmium, Tin, Antimony, Platinum",,Unknown,,Y,Producer,"Boulangerite, Cassiterite, Galena, Pyrargyrite, Sphalerite, Tetrahedrite","Biotite, Calcite, Chlorite, Clinozoisite, Garnet, Muscovite, Pyrite, Pyrrhotite, Quartz, Sericite, Tourmaline",,"TABULAR, LENSE",Surface/Underground,208: Sedimentary exhalative Zn-Pb,"Tourmalinization, Chloritization, Albitization",,,"Bedding Porosity, Some Fracture Control","Schruben, Paul G., Bolm, Karen S.","Aldridge Formation Quartzite, Arg. Quartzite, Siltstone",Siltstone,"Purcell Intrusives-Diorite, Granophyric",Diorite,"Kimberly Fault, Kootenay Arc, Purcell Anticlinorium (East Side), Sullivan Anticline And A Well Developed Set Of Faults (Sullivan Type)","Purcell Mtns. Foothills, Cordilleran Region","SWANSON, C. O., 1950, THE SULLIVAN MINE, KIMBERLEY, B. C.; IN 18TH INTERNATIONAL GEOLOGICAL CONGRESS, SYMP. ON PB - ZN, P. 36 - 41BOSTOCK, H. S., MULLIGAN, R., DOUGLAS, R. J. W., 1957, THE CORDIUERAN REGION; IN STOCKWELL, C. H. ED., GEOLOGY AND ECON. MINS. CAN.; GEOL. SURV. OF CAN., ECON. GEOL. SER. 1, 4TH ED., P. 369 - 70SULLIVAN MINE STAFF, 1970, MINING AT THE SULLIVAN; IN RAUSCH, D. O., MARIACHER, B. C., EDS, AIME WORLD SYMP. MINING & METALLURGY OF LEAD & ZINC, V. 1 P. 259 - 273.1970, GEOLOGY, EXPLORATION AND MINING IN BRITISH COLUMBIA; B. C. DEPT MINES, P. 473O'NEILL AND GUNNING, 1934, PLATINUM DEPOSITS IN CANADA:  CANADA GEOLOGICAL SURVEY ECONOMIC REPORT 13, P. 107.MULLIGAN, R., 1975, GEOLOGY OF CANADIAN TIN OCCURRENCES:  CANADA GEOLOGICAL SURVEY ECONOMIC REPORT 28, P. 87-93.SANGSTER, D.F., 1972, PRECAMBRIAN VOLCANIC MASSIVE SULFIDE DEPOSITS IN CANADA:  CANADA GEOLOGICAL SURVEY PAPER 72-22, P. 32-35.CORE SHED DISPLAY APPENDIX, 1990, VIII SYMPOSIUM, INTERNATIONAL ASSOCIATION ON THE GENESIS OF ORE DEPOSITS, OTTAWA, CANADA.CANADIAN MINES HANDBOOK 1975 - 76 P. FINANCIAL POST SURV. MINES, 1967 P. 70. GEOL., EXPLORATION AND MINING IN BRITISH COLUMBIA, P. 23; ORE SHED DISPLAY APPENDIX, 1990.SKINNER W. R., 1975, MINING INTL. YBK. P. 173",,1900,,,,1892,,"Sullivan, Smith, Cleaver, Burchett"
10079686,https://mrdata.usgs.gov/mrds/show-mrds.php?dep_id=10079686,W029768,,Endako,54.03313,-126.10154,NA,Canada,British Columbia,,M,Molybdenum,,"Copper, Tungsten, Bismuth",Unknown,,Y,Producer,"Bismutite, Bornite, Chalcopyrite, Ferrimolybdite, Magnetite, Molybdenite, Pyrite, Scheelite","Calcite, Quartz",,ELONGATED ELLIPTICALLY-SHAPED,Surface,"80: Porphyry Mo, low-F","Hydrothermal, K-Feldspar, Sericite, Kaolinite",,"Stella, Canex",,"Krauss, Ulrich H.",Endako Quartz Monzonite,Quartz Monzonite,Endako Quartz Monzonite,Quartz Monzonite,"Intermontane Cordiller And Belt, Faults. South Boundary Fault West Basalt Fault, Casey Fault. Taillings Creek Fault",,"SRC.REF: CRANSTONE, D.A. AND HAMILTON, S.A. 1974 IN MR 166KIMURA, E. BYSOUTH, G.D. AND DRUMMOND, A. 1976: ENDAKO IN: CIM. SPECIAL VOLUME NO.15 PP.444-453CRANSTONE, D.A. AND HAMILTON, S.A. 1976: CANADIAN RESERVES OF CU, NI, PB, ZN, MO, AG, AU. ENERGY MINES AND RESOURCES CANADA MR 166KIMURA, E. AND DRUMMOND, A. 1969: HYDROTHERMAL ALTERATION AT ENDAKO-A COMPARISON TO EXPERIMENTAL STUDIES. CAN. MIN. MET. BULL. 62.687CARR, J.M. 1965 GEOLOGY OF THE ENDAKO AREA. ANNUAL REPORT B.C. DEPT OF MINES FOR 1965, PP.114-134ENDAKO, 1966, ANNUAL REPORT.STEPHENS, F., 1965, ENDAKO MINES:  WESTERN MINER, MAY.DAVENPORT, W., JUNE 1969, ORAL COMMUN. ON RHENIUM.FINANCIAL POST, SURVEY OF MINES 1978, P.262",,1965,,,,1927,,C.H. Foote And A. Langdow
10084807,https://mrdata.usgs.gov/mrds/show-mrds.php?dep_id=10084807,W700019,,Goldstream,51.62903,-118.4262,NA,Canada,British Columbia,,M,"Copper, Zinc","Gold, Silver",,Unknown,,Y,Producer,"Chalcopyrite, Pyrrhotite, Sphalerite",,,,,,,,,,"Orris, Greta J.",,Phyllite,,,,,"NORTHERN MINER, MARCH 4, 1976.CANADIAN DEPARTMENT OF ENERGY, MINES AND RESOURCES, 1980, CANADIAN MINERAL DEPOSITS NOT BEING MINED IN 1980:  CANADIAN DEPARTMENT OF ENERGY, MINES AND RESOURCES MINERAL POLICY SECTOR INTERNAL REPORT MRI 80/7.MINING MAGAZINE, JANUARY, 1987, P. 56.",,,,,,,,
10084820,https://mrdata.usgs.gov/mrds/show-mrds.php?dep_id=10084820,W700032,,Cassiar,59.3179,-129.82135,NA,Canada,British Columbia,,N,Asbestos,,,Unknown,,Y,Producer,Chrysotile,"Antigorite, Brucite, Jade, Magnetite, Talc, Tremolite",,LENTICULAR,,18: Serpentine-hosted asbestos,Serpentinization,,,,"Orris, Greta J.",Sylvester Group,Serpentinite,,,,,"BRITISH COLUMBIA MINISTRY OF ENERGY, MINES AND PETROLEUM RESOURCESHARBEN, P.W., AND BATES, R.L., 1984, ASBESTOS, IN GEOLOGY OF THE NONMETALLICS:  NEW YORK, METAL BULLETIN INC., P. 324-335.CIM BULLETIN, APRIL, 1977.ASBESTOS, 1981, V. 62, NO. 7.ASBESTOS, 1983, V. 64, NO. 7.ESTIMATE OF G. ORRIS (1984), BASED ON PUBLISHED INFORMATION.",,,,,,,,
10084823,https://mrdata.usgs.gov/mrds/show-mrds.php?dep_id=10084823,W700036,,Equity Silver,54.18313,-126.26822,NA,Canada,British Columbia,,M,"Silver, Gold",Copper,"Antimony, Arsenic",Unknown,,Y,Producer,"Chalcopyrite, Galena, Magnetite, Pyrite, Pyrrhotite, Sphalerite, Tetrahedrite","Andalusite, Pyrophyllite, Quartz, Scorzalite, Sericite, Tourmaline",,,,83: Volcanic-hosted Cu-As-Sb,,,,,"Orris, Greta J.",Skeena Group,Metasedimentary Rock,,,,,"KOWALCHUK, J.M., CHURCH, B.N., BRADSHAW, P.M.D., AND BARAKSO, J.J., 1984, LITHOGEOCHEMISTRY AT THE EQUITY SILVER MINE:  WESTERN MINER, APRIL, 1984, P. 50-54",,,,,,1967,,
10084829,https://mrdata.usgs.gov/mrds/show-mrds.php?dep_id=10084829,W700042,,Island Copper,50.59975,-127.46813,NA,Canada,British Columbia,,M,"Copper, Molybdenum",,"Lead, Zinc",Unknown,,Y,Producer,"Bornite, Galena, Hematite, Magnetite, Sphalerite","Actinolite, Dumortierite, Pyrophyllite, Vermiculite",,,,53: Porphyry Cu,,,Port Hardy,,"Mosier, Dan",Bonanza Formation,"Mafic Intrusive Rock,Diorite",,Volcanic Rock (Aphanitic),,,"DRUMMOND, A.D., AND GODWIN, C.I., 1976, HYPOGENE MINERALIZATION-- AN EMPIRICAL EVALUATON  OF ALTERATION ZONING:  CIM SPECIAL VOLUME 15, TABLE 2, P. 52-62",,,,,,,,
10084831,https://mrdata.usgs.gov/mrds/show-mrds.php?dep_id=10084831,W700044,,Valley Copper,50.48316,-121.03459,NA,Canada,British Columbia,,M,Copper,,"Molybdenum, Tungsten, Lead, Zinc, Gold, Silver",Unknown,,Y,Producer,"Bornite, Chalcocite, Chalcopyrite, Covellite, Digenite, Galena, Molybdenite, Powellite, Scheelite, Sphalerite","Anhydrite, Barite, Calcite, Fluorite, Gypsum, Kaolinite, Magnetite, Pyrite, Quartz",,VEINS AND STRINGERS,Surface,79: Porphyry Cu-Mo,,,,,"Mosier, Dan, Bolm, Karen S.",Nicloa Group,"Quartz Monzonite,Diorite",Bethsaida Granodiorite,Diorite,"Guichon Creek Batholith, South Intermontare Belt, Lornex Fault, Highland Valley Fault",,"DRUMMOND, A.D., AND GODWIN, C.I., 1976, HYPOGENE MINERALIZATION-- AN EMPIRICAL EVALUATION OF ALTERATION ZONING:  CIM SPECIAL VOLUME 15, TABLE 2, P. 52-62.CORE SHED DISPLAY APPENDIX, 1990, VIII SYMPOSIUM, INTERNATIONAL ASSOCIATION ON THE GENESIS OF ORE  DEPOSITS, OTTAWA, CANADA.CORE SHED DISPLAY APPENDIX, 1990.",,1986,,,,1968,,J.M. Allen
10084894,https://mrdata.usgs.gov/mrds/show-mrds.php?dep_id=10084894,W700121,,Ladner Creek Mine,49.41649,-121.38457,NA,Canada,British Columbia,,M,Gold,,,Unknown,,Y,Past Producer,"Gold, Pyrite, Pyrrhotite",,,,,273: Low-sulfide Au-quartz vein,,,Carolin,,"Paidakovich, Matthew E.",,"Slate,Argillite,Siltstone",,,,,"ELEVATORSKI, E.A., 1985, GOLD DEPOSITS GUIDEBOOK:  MINOBRAS MINING SERVICES, 146 P.MINING MAGAZINE, JANUARY, 1987.",,,,,,,,
10085061,https://mrdata.usgs.gov/mrds/show-mrds.php?dep_id=10085061,W700567,,Westmin/Buttle Lake Mine,54.7538,-124.75853,NA,Canada,British Columbia,,M,"Lead, Silver, Copper, Zinc",,,Unknown,,Y,Producer,,,,,,,,,,,"Beougher, Dee (Spanski, Gregory T.)",,,,,,,"MINING MAGAZINE, JANUARY 1989, P. 44",,,,,,,,
10096421,https://mrdata.usgs.gov/mrds/show-mrds.php?dep_id=10096421,W018868,,Robb Lake Pb - Zn Prospect,54.99984,-125.00153,NA,Canada,British Columbia,,M,"Lead, Zinc",,,Unknown,,N,Occurrence,,,,,,,,,,,"Schruben, Paul G.",,,,,,,"DROLET, J - P., 1976, THE DEMANDS AND LIMITATIONS GOVERNING THE MINERAL PRODUCTION OF WESTERN CANADA TO 1990DROLET, J - P., 1976, DEMANDS AND LIMITATIONS GOVERNING W. CANADA TO 1990, P. 48",,,,,,,,
10096954,https://mrdata.usgs.gov/mrds/show-mrds.php?dep_id=10096954,I000600,,Penticton Garnet,49.49984,-119.58452,NA,Canada,British Columbia,,N,Garnet,,,Unknown,,N,Prospect,Garnet,,,,,,,,,,"Orris, Greta J.",,Clastic Sedimentary Rock,,,,,"INDUSTRIAL MINERALS, 1990, WORLD OF MINERALS:  NO. 276, P. 12INDUSTRIAL MINERALS, 1990.",,,,,,,,
10097098,https://mrdata.usgs.gov/mrds/show-mrds.php?dep_id=10097098,M046129,,Don Claim,49.56652,-118.35948,NA,Canada,British Columbia,,M,,,"Platinum, Gold, Copper",Unknown,,N,Prospect,,,,,,,,,Franklin Mining Camp,,"Blair, Will N.",,,,,,,"O'NEILL AND GUNNING, 1934, PT DEPOSITS OF CANADA: CANADA GEOLOGICAL SURVEY ECON. GEOL. REPT. 13, P. 106B. C. ANNUAL REPORT 1922, P. 169",,,,,,,,
10097099,https://mrdata.usgs.gov/mrds/show-mrds.php?dep_id=10097099,M046176,,Britton Creek,49.53788,-120.91179,NA,Canada,British Columbia,,M,"Gold, Platinum",,,Unknown,Placer,N,Prospect,,,,STREAM PLACERS,,,,,Eagle Creek,,"Blair, Will N.",,,,,,,"RICE, 1947, GEOL. AND MINERAL DEPOSITS OF PRINCETON, B. C. : CANADA DEPT. MINES MEM. 243, P. 63HOLLAND, 1950, PLACER GOLD IN B. C. : B. C. DEPT. MINES BULL. 28, P. 54",,,,,,,,
10097336,https://mrdata.usgs.gov/mrds/show-mrds.php?dep_id=10097336,TC00510,,Windy Craggy Deposit,59.73305,-137.73553,NA,Canada,British Columbia,,M,Copper,"Cobalt, Gold, Silver",,Unknown,,N,Prospect,"Chalcopyrite, Cobaltite, Cubanite, Gold, Pyrite, Pyrrhotite, Sphalerite","Ankerite, Biotite, Calcite, Chlorite, Cordierite, Galena, Graphite, Hematite, Magnetite, Quartz, Siderite, Stilpnomelane",,,,"91: Massive sulfide, Besshi (Japanese deposits)","Silicification, Chloritization; Chlorite, Carbonate Regional Haloes",,,,"Bolm, Karen S.",,Meta-Argillite,,,,"Allochthonous Alexander Terrane, Insular Tectonic Belt","CORE SHED DISPLAY APPENDIX, 1990, VIII SYMPOSIUM, INTERNATIONAL ASSOCIATION ON THE GENESIS OF ORE DEPOSITS, OTTAWA, CANADA.HARPER, G., 1990, GEOLOGY AND DEVELOPMENT OF THE WINDY CRAGGY PROJECT IN BRITISH COLUMBIA [ABST.]:  MINING IS ALIVE IN DENVER (ANNOUNCEMENT FOR 1991 SME, AIME, AND WAAIME ANNUAL MEETING), P.58.",,,,,,1958,,Frobisher Exploration (Now Falconbridge Ltd.)
10098392,https://mrdata.usgs.gov/mrds/show-mrds.php?dep_id=10098392,M046130,,Averill Group,49.56652,-118.35948,NA,Canada,British Columbia,,M,Gold,"Silver, Copper",Platinum,Unknown,,S,Past Producer,"Bornite, Chalcopyrite, Magnetite, Pyrite",,,,,,,,Franklin Mining Camp,,"Blair, Will N.",,,,,,,"O'NEILL AND GUNNING, 1934, PT DEPOSITS IN CANADA: CANADA GEOLOGICAL SURVEY ECON. GEOL. REPT. 13, P. 105DRYSDALE, 1915, FRANKLIN MINING CAMP, B. C. : CANADA GEOLOGICAL SURVEY MEM. 56, P. 80, 111, 137, 173",,,,,,,,
10098393,https://mrdata.usgs.gov/mrds/show-mrds.php?dep_id=10098393,M046155,,North Fork Lardeau River,50.41848,-117.10807,NA,Canada,British Columbia,,M,Gold,,Platinum,Unknown,Placer,Y,Past Producer,,,,STREAM GRAVELS,,,,,Lardeau Mining Division,,"Blair, Will N.",,,,,,,"O'NEILL AND GUNNING, 1934, PT DEPOSITS IN CANADA: CANADA GEOLOGICAL SURVEY ECON. GEOL. REPT. 13, P. 100HOLLAND, 1950, PLACER GOLD IN B. C. : B. C. DEPT. MINES BULL. 28, P. 52 - 54HOLLAND 1950",,,,,,,1896 - 1945,
10098420,https://mrdata.usgs.gov/mrds/show-mrds.php?dep_id=10098420,M046842,,Granite Creek,54.7538,-124.75853,NA,Canada,British Columbia,,M,"PGE, Platinum, Gold",,,Unknown,Placer,S,Past Producer,,,,RIVER GRAVELS,,,,,,,"Blair, Will N.",,,,,,,"NORTHERN MINER, 1977 , CAL WEST AU-PT: N. MINER, V. 63 , NO. 30CANADIAN MINES HANDBOOK, 1976 - 1977 :  N. MINER",,,,,,,,
10103698,https://mrdata.usgs.gov/mrds/show-mrds.php?dep_id=10103698,M046138,,Whipsaw Creek,49.37539,-120.56789,NA,Canada,British Columbia,,M,Gold,,Platinum,Unknown,Placer,Y,Past Producer,,,,STREAM GRAVELS,,,,,,,"Blair, Will N.",,,,,,,"HOLLAND, 1950, PLACER GOLD IN B. C. : B. C. DEPT. MINES BULL. 28, P. 55RICE, 1947, GEOL. AND MINERAL DEPOSITS OF PRINCETON, B. C. : CANADA DEPT. MINES GEOLOGICAL SURVEY MEM. 243, P. 61",,,,,,,1890 - 1945,
10103699,https://mrdata.usgs.gov/mrds/show-mrds.php?dep_id=10103699,M046145,,"Quesnel River, Below the Forks",52.94983,-122.31804,NA,Canada,British Columbia,,M,Gold,,Platinum,Unknown,Placer,Y,Past Producer,,,,STREAM GRAVELS,,,,,"Water - Tight Dipper Dredge and Mining Company, Ltd.",,"Blair, Will N.",,,,,,,"O'NEILL AND GUNNING, 1934, PT DEPOSITS IN CANADA: CANADA GEOLOGICAL SURVEY ECON. GEOL. REPT. 13, P. 86HOLLAND, 1950, PLACER GOLD IN B. C. : B. C. DEPT. MINES BULL. 28, P. 49",,,,,,,,
10103700,https://mrdata.usgs.gov/mrds/show-mrds.php?dep_id=10103700,M046154,,Wreck Bay,48.99978,-125.63219,NA,Canada,British Columbia,,M,Gold,,Platinum,Unknown,Placer,Y,Past Producer,,,,BEACH SAND,,,,,Clayoquot Mining Division,,"Blair, Will N.",,,,,,,"O'NEILL AND GUNNING, 1934, PT DEPOSITS IN CANADA: CANADA GEOLOGICAL SURVEY ECON. GEOL. REPT. 13, P. 100HOLLAND, 1950, PLACER GOLD IN B. C. : B. C. DEPT. MINES BULL. 28, P. 16DOLMAGE 1919",,,,,,,1896 - 1945,
10103701,https://mrdata.usgs.gov/mrds/show-mrds.php?dep_id=10103701,M046165,,Sappho Property,49.007,-118.7035,NA,Canada,British Columbia,,M,"Copper, Silver",,Platinum,Unknown,,Y,Past Producer,Chalcopyrite,,,,,,,,,,"Blair, Will N.",,,,,,,"O'NEILL AND GUNNING, 1934, PT DEPOSITS IN CANADA: CANADA GEOLOGICAL SURVEY ECON. GEOL. REPT. 13, P. 103 - 10British Columbia Minfile, 2009, Minefile number 082ESE147O'NEILL & GUNNING 1934",,,,,,,1916 - 1918,
10103702,https://mrdata.usgs.gov/mrds/show-mrds.php?dep_id=10103702,M046172,,Criss Creek,50.94983,-120.8846,NA,Canada,British Columbia,,M,Gold,,Platinum,Unknown,Placer,Y,Past Producer,,,,STREAM GRAVELS,,,,,,,"Blair, Will N.",,,,,,,"O'NEILL AND GUNNING, 1934, PT DEPOSITS IN CANADA: CANADA GEOLOGICAL SURVEY ECON. GEOL. REPT. 13, P. 88HOLLAND, 1950, PLACER GOLD IN B. C. : B. C. DEPT. MINES BULL. 28, P. 38",,,,,,,,
10103703,https://mrdata.usgs.gov/mrds/show-mrds.php?dep_id=10103703,M046178,,Ruby Creek,59.69201,-133.34038,NA,Canada,British Columbia,,M,Gold,,"Iridium, Osmium",Unknown,Placer,Y,Past Producer,"Bismuth, Brookite, Cassiterite, Chalcopyrite, Copper, Gold, Ilmenite, Magnetite, Pyrite, Pyrope, Rutile, Wolframite, Zircon","Biotite, Chrysotile, Feldspar, Muscovite, Quartz",,,,,,Source Rocks Probably Alpine Peridotite,,Channel Narrow,"Page, Norman J.",,Gravel,,,,,"GLEDHILL, T. L., 1921, UNIV. TORONTO STUDIES, GEOL. SER. NO. 12, P. 40 - 42AITKEN, J. D., 1959, GEOL SURV. CANADA MEM. 307, P. 76HARRIS AND CABRI, 1973, CAN. MINERAL., V. 12, P. 104 - 112",,,,,,,,
10103704,https://mrdata.usgs.gov/mrds/show-mrds.php?dep_id=10103704,M046184,,Morehead Creek,52.29983,-121.80134,NA,Canada,British Columbia,,M,Gold,Platinum,,Unknown,Placer,Y,Past Producer,,,,STREAM GRAVELS,,,,,"Morehead Mining Co., Seven Mile Creek",,"Blair, Will N.",,,,,,,"O'NEILL AND GUNNING, 1934, PT DEPOSITS IN CANADA: CANADA GEOLOGICAL SURVEY ECON. GEOL. REPT. 13, P. 86.HOLLAND, 1950, PLACER GOLD IN B. C. : B. C. DEPT. OF MINES BULL. 28, P. 49B. C. ANN. REPT. FOR 1912, P. K63 - K - 64",,,,,,,,
10103705,https://mrdata.usgs.gov/mrds/show-mrds.php?dep_id=10103705,M046190,,Pete Toy's Bar,55.99987,-123.90682,NA,Canada,British Columbia,,M,"Platinum, Gold",,,Unknown,Placer,Y,Past Producer,,,,STREAM GRAVELS,,,,,Finlay River Mining Co.,,"Blair, Will N.",,,,,,,"O'NEILL AND GUNNING, 1934, PT DEPOSITS IN CANADA: CAN. GEOLOGICAL SURVEY ECON. GEOL. REPT. 13, P. 82HOLLAND, 1950, PLACER GOLD IN B. C.: B. C. DEPT. MINES BULL. 28, P. 43",,,,,,,,
10103706,https://mrdata.usgs.gov/mrds/show-mrds.php?dep_id=10103706,M046193,,Parsnip River,55.78318,-123.70152,NA,Canada,British Columbia,,M,Gold,,Platinum,Unknown,Placer,Y,Past Producer,,,,STREAM GRAVELS,,,,,,,"Blair, Will N.",,,,,,,"O'NEILL AND GUNNING, 1934, PT DEPOSITS IN CANADA: CAN. GEOLOGICAL SURVEY ECON. GEOL. BULL. 13, P. 81HOLLAND, 1950, PLACER GOLD IN B. C.: B. C. DEPT. MINES BULL. 28, P. 43",,,,,,,,
10106739,https://mrdata.usgs.gov/mrds/show-mrds.php?dep_id=10106739,I000411,,Mount Brussilof,51.04988,-115.91777,NA,Canada,British Columbia,,M,Magnesite,,,Unknown,,Y,Producer,Magnesite,"Calcite, Dolomite, Quartz",,,,,,,Baymag,,"Orris, Greta J.",Cathedral Formation,Dolomite,,,,,"HAMILTON, W.N., AND HORA, Z.D., 1987, OPPORTUNITIES EXIST FOR INDUSTRIAL MINERALS DEVELOPMENT IN BRITISH COLUMBIA AND ALBERTA:  MINING ENGINEERING, V. 39, NO. 12, P. 1061-1067HAMILTON & HORA, 1987.",,1982,,,,,,
10109566,https://mrdata.usgs.gov/mrds/show-mrds.php?dep_id=10109566,M046169,,Rock Creek,49.08317,-119.00115,NA,Canada,British Columbia,,M,"Gold, Platinum",,,Unknown,Placer,Y,Producer,"Chromite, Garnet, Magnetite",,,STREAM GRAVELS,,,,,,,"Blair, Will N.",,,,,,,"O'NEILL AND GUNNING, 1934 PT DEPOSITS IN CANADA: CANADA GEOLOGICAL SURVEY ECON. GEOL. REPT. 13, P. 98HOLLAND, 1950, PLACER GOLD IN B. C. : B. C. DEPT. MINES BULL. 28, P. 36, 37",,,,,,,,
10109567,https://mrdata.usgs.gov/mrds/show-mrds.php?dep_id=10109567,M046182,,Thibert Creek,58.81788,-130.22495,NA,Canada,British Columbia,,M,Gold,Platinum,,Unknown,Placer,S,Producer,,,,STREAM GRAVELS,,,,,"Thibert Creek Hydraulic Mining Co., 1900, Berry Creek Mining Co., 1904, Boulder Creek Mining Co. 1911",,"Blair, Will N.",,,,,,,"O'NEILL AND GUNNING, 1934, PT DEPOSITS IN CANADA: CAN. GEOLOGICAL SURVEY ECON. GEOL. REPT. 13, P. 77 - 78JOHNSTON, 1925, AU PLACERS DEASE LAKE, B. C. : CAN. GEOLOGICAL SURVEY SUMM. REPT. PT. A, P. 75 - 99",,,,,,,,
10118336,https://mrdata.usgs.gov/mrds/show-mrds.php?dep_id=10118336,,1220100022,Equity Silver,54.1887,-126.26265,NA,Canada,British Columbia,,M,"Copper, Silver","Antimony, Gold",,Surface,,,Plant,,,"Argentite, Arsenopyrite, Chalcopyrite, Dumortierite, Fluorite, Galena, Gold, Hematite, Magnetite, Pyrite, Pyrrhotite, Scorzalite, Sericite, Sphalerite, Tetrahedrite, Tourmaline",,Surface,,,,"Main Zone, Sam Goosly Claims, Southern Tail Pit, The Equity Mine, Waterline Zone",,"Peterson, Gary R.",,,,,,,"""EQUITY SILVER MINES CEASES OPERATIONS"", SKILLINGS MININGREVIEW, 5 MAR 94, P. 9.NEY, CHARLES S., JHON M. ANDERSON AND ANDRE PANTELEYEV,DISCOVERY, GEOLOGIC SETTING AND STYLE OF MINERALIZATION,SAM GOOSLEY DEPOSIT, B.C.; CIM BULL., JULY, 1972, P.53-64WATSON, BARRY N., LARGE LOW GRADE SILVER DEPOSITS IN N.AMERICA; WORLD MINING, MARCH, 1977, P.44-50.COTTER, N.P., SEEK NEW AGREEMENT ON SAM GOOSLY PROJECT;NORTHERN MINER, APRIL 27, 1978, P.1, 12.SKILLING'S, CONSTRUCTION AT SAM GOOSLY  MINE ON SCHEDULE;DEC.15, 1979, P.12.PROPERTY EVALUATION REPORT ON EQUITY SILVER MINE CANADA;PREPARED BY CHARLES RIVER ASSOCIATES, BOSTON MASS.,MAY 86.ANDERSON, SCOTT, PLACER'S NON-GOLD CANADIAN MINES;CANADIAN MINING JOURNAL, JUNE 1990, PP 39-40.EQUITY SILVER MINES LIMITED, A DESCRIPTION OF OPERATIONS;IN HOUSE REPORT PREPARED BY EQUITY SILVER MINES LTD.,FOR THE YEAR 1990.CANADIAN MINES HANDBOOK 1989-90, NORTHERN MINER PRESS, P164.ANONYMOUS, EQUITY SILVER: THE CHALLENGES AND THE SOLUTIONS,MINING MAGAZINE, JAN., 1988, PP 16-23.ANNETT, MARGARET AND WILLIAM; BC MINING TRIUMPH, CANADIANMINING JOURNAL, SEPT. 1987, PP 11-13.MARCHANT, P.B.; PRECIOUS METALS SCAVENGING AT EQUITYSILVER MINES LIMITED, CIM BULLETIN, JUNE 1986, PP 53-61.SORENSON, JEAN; CARBON IN LEACH CIRCUIT TO UP SILVER-GOLDRECOVERY AT EQUITY, CANADIAN MINING JOURNAL, NOV. 1984,PP 22-25.EDWARDS, C.R.; THE EQUITY LEACH PLANT, CIM BULLETIN, DEC.1985, PP 84-93.ANONYMOUS; EQUITY SILVER: COMPLEX METALLURGY RESOLVED,WESTERN MINER, AUG. 1981, PP 11-18.WESTERN MINER,  JULY 1980  PP. 19-22.CANADIAN MINES HANDBOOK 1986-87, NORTHERN MINER PRESS,P.142.MINE RESERVES AND CURRENTLY PROMISING DEPOSITS, JAN. 1985,EMR CANADA, MR 209, P. 22.CANADIAN MINES HANDBOOK, 1991-92, P. 148.""EQUITY SILVER LOOKS TO FUTURE"",  THE NORTHERN MINER,10 MAY 93, P. 41.",,1980,,,,1967,,
10132978,https://mrdata.usgs.gov/mrds/show-mrds.php?dep_id=10132978,,1220100041,Mount Polley,52.55344,-121.64634,NA,Canada,British Columbia,,M,"Gold, Copper",Silver,,Surface,,,Prospect,,,,,,,,,Cariboo-BellCariboo,,"Porter, Kenneth E.",,,,,,,"MINING JOURNAL, INITIAL ASSAYS FROM CARIBOO BELL, OCTOBER 7,1988, P. 276.ENGINEERING AND MINING JOURNAL, NOVEMBER 1988, P. 87.MINING JOURNAL, MT. POLLEY WORK SPEEDS UP, JUNE 23, 1989,P. 488.MINING ACTIVITIES DIGEST, GOLD/COPPER RESERVES AT MT. POLLEYAUGUST 31, 1989, VOL 16, NO. 8, P. 8.ENGINEERING AND MINING JOURNAL, AUGUST 1989, P. 9.MINING JOURNAL, MOUNT POLLEY CONFIDENCE GROWS, SEPTEMBER 1,1989, P. 168.MINING JOURNAL, FEASIBILITY STUDY FOR MOUNT POLLEY, JANUARY5, 1990, P. 4.SKILLING'S MINING REVIEW, MT POLLEY VALUED AT C$100M,NOVEMBER 1990, P. 57.IMPERIAL METALS CORP., NEWS RELEASE, JANUARY 11, 1990.IMPERIAL METALS CORP., NEWS RELEASE, MARCH 1990.MINING RECORD, 8/10/94, P.5.KILBURN, JOHN, GIBRALTAR REVIEWING MT. POLLEY, NORTHERNMINER, 3/28/94, P.1.SKILLINGS', 4/30/94, P.7.BAILEY, D.G. AND C. JAY HODGSON, TRANSPORTED ALTERED WALLROCK IN LAHARIC BRECCIAS AT THE CARIBOO-BELL CU-AUPORPHYRY DEPOSIT, BRITISH COLUMBIA; ECONOMIC GEOLOGY,VOL. 74, 1979, PP.125-153.MR 223, 1989, B.C.-205.MINING JOURNAL, MOUNT POLLEY PROFECT, FEBRUARY 1, 1991,P. 76.IMPERIAL METALS CORP., NEWS RELEASE, 7/26/90.CANADIAN MINES HANDBOOK, 1991-92, P. 205.IMPERIAL METALS CORP., NEWS RELEASE, 7/9/91.CANADIAN MINE HANDBOOK, 1992-1993, P-190.IMPERIAL METALS CORP., MOUNT POLLEY PROJECT FACT SHEET,2/19/91, 3 PP.",,,,,,,,
10133119,https://mrdata.usgs.gov/mrds/show-mrds.php?dep_id=10133119,,1220100141,Siwash Mine,49.84983,-120.31792,NA,Canada,British Columbia,,M,Gold,,Silver,Surface-Underground,,,Producer,,,,,,,,,Siwash North,,"Buckingham, David A.",,,,,,,"NORTHERN MINER, JUNE 12, 1995, P 13.CANADIAN MINES HANDBOOK, 1996-97, PP. 160, 487.",,1992,,,,,,
10133129,https://mrdata.usgs.gov/mrds/show-mrds.php?dep_id=10133129,,1220100047,Goldstream River,51.63316,-118.4512,NA,Canada,British Columbia,,M,"Copper, Zinc","Silver, Gold",,Surface-Underground,,,Producer,,,"Chalcopyrite, Pyrrhotite, Sphalerite",,"Surface, Underground",,,,,,"Porter, Kenneth E.",,,,,,,"CANADIAN MINING JOURNAL, NORANDA EXPLORATION'S GOLDSTREAMPROJECT; NOV., 1976, P.30.REINERTSON, L.C. GOLDSTREAM MASSIVE SULFIDE DEPOSIT;CANADIAN MINING JOURNAL, APRIL, 1978, P.39-42.CANADIAN MINING JOURNAL, GOLDSTREAM DEV'T AHEAD OF SCHEDULE;JAN., 1977, P.61.WORLD MINING, JUNE 1980, P. 68.BRITISH COLUMBIA MINISTRY OF ENERGY, MINES AND PETROLEUMRESOURCES, OCTOBER 1980, FACT SHEET.CANADIAN MINES HANDBOOK, 1980-1981, P. 188-192.HOY, T., GEOLOGY OF THE GOLDSTREAM AREA: B.C. MINISTRY OFENERGY BULLETIN 71, MINES AND PETROLEUM RESOURCES, 1979WESTERN MINER, NOVEMBER  1976, P. 30.MINING JOURNAL, ...AND NORANDA'S GOLDSTREAM MINE COMES INTOPRODUCTION, JUNE 17, 1983, P. 409.MINING JOURNAL, MINE CLOSURE AT GOLDSTREAM, MARCH 9, 1984,P. 161.MINING JOURNAL, GOLDSTREAM ORE FOR NORANDA?, APRIL 15, 1988,P. 305.METALS WEEK, DECEMBER 18, 1989, P. 7.KONIGSMANN, K.V., TRENDS IN CONCENTRATE DEWATERINGOPERATIONS IN MILLS OF THE NORANDA GROUP, CIM BULLETIN,DECEMBER 1984, PP. 47-49.MINING JOURNAL, BETHLEHEM UPDATE, DECEMBER 22-29, 1989,P. 501.THE NORTHERN MINER, 12/10/90, P. 1.THE NORTHERN MINER, 7/23/90, P. 16.THE NORTHERN MINER, 8/6/90, P. 11.MINING JOURNAL, 5/24/91, P. 394.THE NORTHERN MINER, 5/13/91, P. 6.THE NORTHERN MINER, 3/4/91, P. 17.THE NORTHERN MINER, 7/22/91, P. 20.THE NORTHERN MINER, 1/20/92, P. 6.CANADIAN MINING JOURNAL, ""NOT A WRITE-OFF"", 4/92, PP. 23-26.MINING JOURNAL, 4/30/93, P. 311.THE NORTHERN MINER, 5/24/93, P. 3.MINING JOURNAL, 10/2/92, P. 233.NORTHERN MINER, JUNE 22, 1992,P-3.MINING MAGAZINE, MAY 1976, P. 463.NORTHERN MINER, MARCH 4, 1976.MINING JOURNAL, MARCH 21, 1980, P. 229.ENGINEERING & MINING JOURNAL, APRIL 1978, P. 17.WESTERN MINER, MARCH 1976, P. 43.ENGINEERING & MINING JOURNAL, MAY 1976, P. 180.ENGINEERING & MINING JOURNAL, AUGUST 1976, P. 131-133.ENGINEERING & MINING JOURNAL, APRIL 1980, P. 150.NORANDA ANNUAL REPORT, 1978, P. 17.NORANDA ANNUAL REPORT, 1979, P. 13 AND 20.WORLD MINING, JULY 1976, P. 75.NORTHERN MINER, JAPANESE BACKERS REVIVE PLAN TO OPENGOLDSTREAM, DECEMBER 10, 1990, P. 1.NORTHERN MINER-MAY 13, 1991, P-6.NORTHERN MINER-MAY 24, 1993, P-3.AME MINERAL ECONOMICS QUARTERLY MINE ANALYSIS, JUN 93,P. 48.NORTHERN MINER, 5/17/93, P.1,2.NORTHERN MINING, 11/1/93, P.3.",,1982,,,,1972,,
10133139,https://mrdata.usgs.gov/mrds/show-mrds.php?dep_id=10133139,,1220100067,Churchill,56.59983,-126.69336,NA,Canada,British Columbia,,M,Copper,,,Underground,,,Past Producer,,,,,,,,,Magnum,,"Porter, Kenneth E.",,,,,,,"ANNIS, R.C., D.A. CRANSTONE AND M. VALLEE, A SURVEY OF KNOWNMINERAL DEPOSITS IN CANADA THAT ARE NOT BEING MINED;ENERGY,MINES AND RESOURCES CANADA, MINERALS, MR 181,1978,P.47.MR 223, 1989, B.C.-275.",,1970,,,,1958,,
10133186,https://mrdata.usgs.gov/mrds/show-mrds.php?dep_id=10133186,,1220100008,Lornex,50.44983,-121.03876,NA,Canada,British Columbia,,M,Copper,"Silver, Molybdenum, Gold",,Surface,,,Past Producer,,,"Azurite, Bornite, Calcite, Chalcocite, Chalcopyrite, Chlorite, Copper, Covellite, Cuprite, Epidote, Galena, Gypsum, Hematite, Limonite, Magnetite, Malachite, Molybdenite, Pyrite, Pyrolusite, Pyrrhotite, Quartz, Sericite, Siderite, Sphalerite, Tenorite, Tetrahedrite",,Surface,,,,,,"Porter, Kenneth E.",,,,,,,"B.C. DEPT. OF MINES AND PET. RES., GEM, 1973, P. 169.CANADIAN MINES HANDBOOK 1978-79.  LORNEX MINING CORP. LTD.P. 176.CANADIAN RESERVES OF COPPER, NICKEL, LEAD, ZINC, MOLYBDENUM,SILVER AND GOLD AS OF JAN. 1, 1978, MR 185.  LORNEXMINING CORP. LTD. P. 16.COAKLEY, GEORGE J.  REPORT ON FIELD TRIP TO HIGHLAND VALLEY,B.C. COPPER DISTRICT, APR. 27-29, 1977.  PRINTED JULY14, 1977, PP. 12-22.ENGINEERING AND MINING JOURNAL.  LORNEX.  SEPT. 1969, P. 197FINANCIAL POST SURVEY OF MINES 1978.  LORNEX MININGCORPORATION LTD.  P. 213.MAMEN, CHRIS.  LORNEX--300M TONS ON TAP.  CANADIAN MININGMCMANUS, JAMES, ALLEN R. PAUL AND FRANK YU.  PROCESS CONTROLIN LORNEX GRINDING CIRCUIT.  CIM BULLETIN, MAY 1978,PP. 146-151.MINING MAGAZINE.   LORNEX.  MAR. 1973, PP. 154-163.RENO, C.W.  THE LORNEX MINING PROJECT AND HIGHLAND VALLEY,B.C.  CIM BULLETIN, OCT. 1973, PP. 55-57.WALDNER, M.W., G.D. SMITH AND R.D. WILLIS.  LORNEX, ED. BYA. SUTHERLAND BROWN.  PORPHYRY DEPOSITS OF THE CANADIANCORDILLERA, CIM SPECIAL VOLUME 15, 1976, PP. 120-129.WARREN, N.F.  LORNEX--A CASE HISTORY.  WESTERN MINER, APR.1972, PP. 110-115.WEBSTER, LEN.  MAINTENANCE: AN ESSENTIAL SERVICE TOOPERATIONS.  CMJ, JUNE 1977, PP. 27-34.WESTERN MINER.  LORNEX MINING CORPORATION LTD.  AUG. 1972,PP. 35-41, 44-53.WESTERN MINER.  LORNEX MINING CORP.  MAR. 1975, P. 32.WORLD MINING (U.S. ED.).  LORNEX STRIPS 173,000 TONS ON BESTDAY--BUILDS 38,000 DAILY TON MILL.  NOV. 1973, PP. 42-43WORLD MINING.  JUNE 1975, P. 59.NORTHERN MINER, LORNEX TO INCREASE CAPACITY, BOOST PAYOUT;OCT. 25, 1979, P.1,6.LORNEX MINING CORP. LTD. STAFF, LORNEX MINING CORP. LTD.;IN MINERAL INDUSTRIES IN WESTERN CANADA, THE TENTHCOMMONWEALTH MINING AND METALLALURGICAL CONGRESS- SEPT.2-28, 1974, SECTION VI, ARTICLE M, P.1-17.MINING JOURNAL, MAJOR EXPANSION PLANNED FOR LORNEX; NOV.2,1979, P.377.COBBAN, GILLIAN, WORLD'S MOST POWERFUL AUTOGENOUS MILL INLORNEX EXPANSION; NORTHERN MINER, NOV. 29, 1979, P.D34,D3WESTERN MINER, LORNEX HAS $160-MILLION EXPANSION UNDER WAY;DEC., 1979, P.38, 39.ARMSTRONG, ROBERT D., THE IMPORTANCE OF LORENEX TO THEKAMLOOPS AREA; WESTERN MINER, JUNE, 1971, PP. 22-27.THIRGOOD, J.V., AND W.F. GILMORE, AN APPROACH TO LANDRECLAMATION AT THE LORNEX MINING PROJECT; WESTERN MINER,AUGUST, 1971, PP. 48-55.WESTERN MINER, LARGE EQUIPMENT ECONOMICS HELP AT LORNEXMINING OPERATION; JAN., 1977, P. 16.WESTERN MINER, LORNEX ACHIEVES HIGH RECOVERY; AUGUST, 1972,P. 81.MINING MAGAZINE, LORNEX, B.C., PROGRESS; APRIL, 1972, P. 245NORTHERN MINER, LORNEX MILLING REACHES RECORD RATE LASTYEAR; MARCH 22, 1979, P. 13.WORLD MINING, LORNEX TO EXPAND HIGHLAND VALLEY MINE; APRIL,1980, P. 72.CANADIAN MINING JOURNAL, LORNEX TO SPEND $160 MILLION ONEXPANSION; FEB., 1980, P. 18.1979-1980 WORLD MINES REGISTER, LORNEX MINING CORP. LTD.;P. 71.WESTERN MINER, LORNEX PERFORMANCE IMPROVES; JUNE, 1973,P. 54.WORLD MINING, LORNEX MINING CORP. OPERATES AT RECORD RATEDURING 1973; APRIL, 1974, P. 76.WORLD MINING, JULY, 1977, P. 68.WORLD MINING, MARCH, 1973.CANADIAN MINES HANDBOOK 1977-1978, LORNEX MINING CORP. LTD.;P. 184.B.C. DEPT. OF MINES AND PET. RES., GEM, 1969, P. 260.DEPT. OF ENERGY, MINES, AND RESOURCES, OTTAWA, MIN. RES.BRANCH, UNPUB. SUMMARY REPORT: LORNEX; APRIL, 1978.NORTHERN MINER, LORNEX STUDIES 50% EXPANSION IN PRODUCTION;APRIL 26, 1979, P. 3.E/MJ, MAY, 1977, P. 151.WESTERN MINER, RIO ALGOM MINES LIMITED, LORNEX MININGCORPORATION LTD.; NOV., 1972, P. 47.MAYRS, BILL, THE VALLEY OF COPPER - HIGHLAND VALLEY COPPERGIANTS FIND BIGGER IS BETTER: CANADIAN MINING JOURNAL,SEPT. 1986, P. 21-23.SCALES, MARILYN, GRINDING OUT PROFIT - COPPER, MOLY AND COALMIX WELL FOR LORNEX: CANADIAN MINING JOURNAL, NOV. 1986,P. 37-38.HANSON, POUL, HIGHLAND VALLEY COPPER - A STRATEGY FORINCREASED PRODUCTIVITY: CIM BULL., AUG. 1987, VOL. 80,NO. 904, P. 42-45.MAYCOCK, JOYCE, CUTTING HAULAGE COSTS WITH NEW CONVEYORSYSTEM: CANADIAN MINING JOURNAL, AUG. 1987, P. 26-27.RAYMOND, G.F. AND ARMSTRONG, W.P., SAMPLE BIAS ANDCONDITIONAL PROBABILITY ORE RESERVE ESTIMATION AT VALLEY:CIM BULL., MARCH 1988, VOL. 81, NO. 911, P. 128-136.SCOTT, M.D., HIGHLAND VALLEY COPPER'S IN-PIT CRUSHING ANDCONVEYING SYSTEM: CIM BULL., SEPT. 1988, VOL. 81, NO. 917,P. 50-56.MCMANUS, J., G.R. WYMAN AND C.W. RENO, LORNEX MININGCORPORATION LTD.; D.E. PICKETT, ED., IN MILLING PRACTICEIN CANADA, CIM SPECIAL VOLUME 16, 1978, P.318,319.RENO, C.W., G.R. WYMAN AND J. MCMANUS, LORNEX MINING CORP.LTD., D.E. PICKETT, ED., IN MILLING PRACTICE IN CANADA,CIM SPECIAL VOLUME 16, 1978, P.116-118.BARRATT, DEREK J., SEMI-AUTOGENOUS GRINDING; A COMPARISONWITH THE CONVENTIONAL ROUTE; CIM BULL., NOV., 1979,P.74-80.NORTHERN MINER, LORNEX SET FOR EXPANSION TO INCREASE OUTPUT68%; MARCH 27, 1980, P. 4.",,1972,,,,1964,,
10133250,https://mrdata.usgs.gov/mrds/show-mrds.php?dep_id=10133250,,1220100014,Bell,54.99982,-126.23488,NA,Canada,British Columbia,,M,Copper,"Gold, Silver",Molybdenum,Surface,,,Past Producer,,,"Bornite, Chalcocite, Chalcopyrite, Covellite, Gold, Molybdenite, Pyrite, Quartz, Silver",,Surface,,,,"Babine Lake, Granisle, Newman Mine",,"Porter, Kenneth E.",,,,,,,"CANADIAN MINES HANDBOOK 1978-79.  P. 208.CARSON, D.J.J. AND J.L. JAMBAR.  MINERALOGY, ZONAL RELATION-SHIPS AND ECONOMIC SIGNIFICANCE OF HYDROTHERMAL ALTERA-TION AT PORPHYRY DEPOSITS, BABINE LAKE AREA, BRITISHCOLUMBIA.  CIM BULLETIN, FEB. 1974, PP. 110-133.CRANSTONE, D.A. AND R.T. WHILLANS.  CANADIAN RESERVES OFCOPPER, NICKEL, LEAD, ZINC, MOLYBDENUM, SILVER AND GOLDAS OF JAN. 1, 1978.  P. 17.HOLMES, G.P. AND E.J. BROKX.  NORANDA MINES LIMITED--BELLCOPPER DIVISION.  MILLING PRACTICE IN CANADA, CIMSPECIAL VOLUME 16, 1978, PP. 120-122.MINERAL INDUSTRIES IN WESTERN CANADA.  NORANDA MINES LIMITEDBELL COPPER DIVISION.  THE TENTH COMMONWEALTH MINING ANDMETALLURGICAL CONGRESS--SEPT. 2-28, 1974; SPONSORED BYTHE CANADIAN INSTITUTE OF MINING AND METALLURGY, SECTIONVI, PP. R1-R14.NORTHERN MINER.  NORANDA EARMARKS $19 MILLION....  APRIL 19,1979, P. A9.NORANDA MINES LTD. STAFF, BELL COPPER DIVISION; IN TENTHCOMMONWEALTH MINING AND METALLURGICAL CONGRESS- SEPT. 2-28, 1974, SECTION VI, ARTICLE R, P.1-14.ETHIER, M.C. AND LARAMIE, A.L., PERFORMANCE IMPROVEMENT ATTHE BELL MINE, CIM BULL., 7/90, P. 79-83.MINING ASSOCIATION OF BRITISH COLUMBIA, NEWSLETTER, 6/91,P. 7.SCOTT, DAVID, ""THREE MINE CLOSINGS FORGE NORANDA'S POLICY ONSHUTDOWNS"", THE NORTHERN MINER, JULY 8, 1991, P. 17.ENGINEERING AND MINING JOURNAL, 5/92, P. 26.AMERICAN METAL MARKET, 6/15/92, P. 1.MINING JOURNAL, 6/19/92, P. 447.MINING JOURNAL, 3/13/92, P. 182.CARSON, DAVID J.T., JOHN L. JAMBOR, PETER L. OGRYZLO ANDTOM A. RICHARD, BELL COPPER: GEOLOGY, GEOCHEMISTRY ANDGENESIS OF A SUPERGENE- ENRICHED, BIOTITIZED PORPHYRYCOPPER DEPOSIT- WITH A SUPERIMPOSED PHYLLIC ZONE; A.SUTHERLAND BROWN, ED., PORPHYRY DEPOSITS OF THE CANADIANCORDILLERA, CIM SPECIAL VOLUME NO. 15, 1976, P.245-263.CANADIAN MINES HANDBOOK 1986-87, NORTHERN MINER PRESS,P.282.MINE RESERVES AND CURRENTLY PROMISING DEPOSITS, JAN. 1985,EMR CANADA, MR 209, P. 22.NORANDA INC., 1989 ANNUAL REPORT, P. 23.NORANDA MINERALS INC., 1989 ANNUAL REPORT, P. 9.NORANDA INC., 1984 ANNUAL REPORT, P. 27.CANADIAN MINES HANDBOOK 1987-88, P. 290.CANADIAN MINES HAND BOOK, 1992-1993, P256.",,1972,,,,1962,,
10133325,https://mrdata.usgs.gov/mrds/show-mrds.php?dep_id=10133325,,1220100109,Porcher Island,54.02754,-130.58498,NA,Canada,British Columbia,,M,Gold,,,Underground,,,Past Producer,,,,,,,,,"Edge Pass, Surf Point",,"Porter, Kenneth E.",,,,,,,"MR 223 (GOV'T OF CANADA), 1989CURRENT LATE-STAGE CANADIAN GOLD PROJECTS (METALS ECONOMICSGROUP), 6/92, P.543-6THE NORTHERN MINER, APRIL 11, 1994, P. 3",,1929,,,,1917,,
10133424,https://mrdata.usgs.gov/mrds/show-mrds.php?dep_id=10133424,,1220100100,Eskay Creek,56.64978,-130.46709,NA,Canada,British Columbia,,M,"Silver, Gold",,"Zinc, Lead, Copper",Underground,,,Plant,,,,,,,,,"Macy Adit, Pumphouse, Red Bluff",,"Buckingham, David A.",,,,,,,"THE MINING RECORD, AUGUST 7, 1996, VOL 107, #32, P5.""PRIME RESOURCES: EXPLORATION DRILLING AT ESKAY CREEKEXTENDS ZONES"".NORTHERN MINES, 3/8/93, PP. 1, 2.THE NORTHERN MINER, 9/24/90, P.1,2.MINING JOURNAL, 9/20/91, P.218.INTERNATIONAL CORONA CORP. ANNUAL REPORT. 1991. P.20.THE NORTHERN MINER, JUNE 1, 1992, PAGE 3.CORONA CORP., 1990 ANNUAL REPORT, P.10.NORTHERN MINER, 3/8/93, PP. 1, 2.CANADIAN MINES HANDBOOK, 1996-97, PP. 470, 348-349.",,1995,,,,1932,,
10133467,https://mrdata.usgs.gov/mrds/show-mrds.php?dep_id=10133467,,1220100078,Gambier Island,49.5095,-123.34851,NA,Canada,British Columbia,,M,Copper,"Silver, Molybdenum, Gold",,Surface,,,Prospect,,,,,,,,,,,"Porter, Kenneth E.",,,,,,,"NORTHERN MINER, 20TH CENTURY PROPOSES NEW COMPANY TO EXPLORESURROUNDING ACREAGE; SEPT. 13, 1979, P.3.FOX, P.E., GEOLOGICAL REPORT ON THE GAMBIER ISLAND COPPERPROSPECT, 3/9/79.NORTHERN MINER PRESS LTD, CANADIAN MINES HANDBOOK 1979-80;1979, P.279.MILLER, JOHN A., MAJOR DISCOVERY MADE BY 20TH CENTURY;NORTHERN MINER, AUG. 30, 1979, P.1, 16.NORTHERN MINES, NEW FUNDS PROVIDED 20TH CENTURY FOR GAMBIERISLAND COPPER-MOLY; NOV.29, 1979, P.A3.MR 223, 1989, B.C.-105.",,,,,,,,
10133477,https://mrdata.usgs.gov/mrds/show-mrds.php?dep_id=10133477,,1220100107,Snip,56.66647,-131.08511,NA,Canada,British Columbia,,M,Gold,Silver,,Underground,,,Producer,,,,,,,,,"Twin, Central, Jim Claims",,"Porter, Kenneth E.",,,,,,,"CANADIAN MINES HANDBOOK, 1992-93, P 197.INTERNATIONAL CORONA CORP., 1991 ANNUAL REPORT, P11.CANADIAN MINES HANDBOOK, 1996-97, PP. 348, 487.",,1991,,,,,,
10133504,https://mrdata.usgs.gov/mrds/show-mrds.php?dep_id=10133504,,1220100071,King Fissure,51.12486,-118.40949,NA,Canada,British Columbia,,M,"Zinc, Silver, Lead",,,Underground,,,Prospect,,,"Galena, Pyrite, Pyrrhotite, Quartz, Sphalerite",,Underground,,,,,,Rfb,,,,,,,"CANADIAN MINES HANDBOOK 1980-81.HOY, TRYGVE, OCTOBER 1980, STRATIGRAPHIC AND STRUCTURALSETTING OF STRATABOUND LEAD-ZINC DEPOSITS IN SOUTH-EASTERN B.C., BRITISH COLUMBIA MINISTRY OF ENERGY,MINES, AND PETROLEUM RESOURCES, VICTORIA, B.C.MINERAL DEVELOPMENT SECTOR, DEPARTMENT OF ENERGY, MINES ANDRESOURCES, 1980, KING FISSURE, OTTAWA, CANADA.NORTHERN MINER PRESS LTD., CANADIAN MINES HANDBOOK 1979-80;1979, P.120.ANNIS, R.C., D.A. CRANSTONE AND M. VALLEE, A SURVEY OF KNOWNMINERAL DEPOSITS IN CANADA THAT ARE NOT BEING MINED,EMR, MR 181, 1978, P.A-36.",,,,,,1895,,
10133505,https://mrdata.usgs.gov/mrds/show-mrds.php?dep_id=10133505,,1220100097,Kutcho Creek,58.20264,-128.3629,NA,Canada,British Columbia,,M,"Zinc, Copper","Silver, Gold",Lead,Unknown,,,Prospect,,,,,,,,,"Jeff, Smrb",,"Porter, Kenneth E.",,,,,,,"ENERGY, MINES AND RESOURCES CANADA, CANADIAN MINERALDEPOSITS NOT BEING MINED IN 1980 MINERAL POLICY SECTOR,INTERNAL REPORT MRI 80/7, MAY,1980, P.228.NOTHERN MINER, SEPT.  28, 1978, P.1,2.ENGINEERING AND MINING JOURNAL, MAY, 1979, P.11.WORLD MINING, JULY, 1981, P.60.MINING MAGAZINE, JAPANESE TO EXPLORE FOR CU IN B.C., JUNE1981, P. 439.MINING JOURNAL, KUTCHO STUDY, FEBRUARY 4, 1983, P. 79.METALS WEEK, NOVEMBER 19, 1990, P. 3.MR 223, 1989, B.C.-336.",,,,,,,,
10133562,https://mrdata.usgs.gov/mrds/show-mrds.php?dep_id=10133562,,1220100004,Similco,49.33313,-120.51791,NA,Canada,British Columbia,,M,Copper,"Gold, Silver",,Surface,,,Producer,,,"Bornite, Chalcopyrite, Magnetite, Molybdenite, Pyrite, Pyrrhotite",,Surface,,,,"Ingerbelle, Alabama Zone, Similkameen Mine, Copper Mountain, Similkameen Division, Ingerbelle East",,"Porter, Kenneth E.",,,,,,,"ROBERTS, RICHARD, NEWMONT TO DEVELOP COPPER MOUNTAIN;NORTHERN MINER, AUG. 31,1978, P.1,2.CANADIAN MINES HANDBOOK 1978-79.  P. 202.CANADIAN MINING JOURNAL.  BRITISH COLUMBIA--COPPER MOUNTAINEXPANSION.  OCT. 78, P. 12.HANNA, K.E., ET AL.  SIMILKAMEEN MINING CO. LTD.--NEWMONTMINING CORPORATION.  MILLING PRACTICE IN CANADA, CIMSPECIAL VOLUME 16, 1978, PP. 125-127.MACAULEY, T.N.  GEOLOGY OF THE INGERBELLE AND COPPERMOUNTAIN DEPOSITS AT PRINCETON, B.C.  CIM, APRIL 1973.MINING MAGAZINE.  GO-AHEAD FOR COPPER MOUNTAIN, B.C., MINE.OCT. 1978, P. 359.PARLIAMENT, J.H., THE SIMILKAMEEN PROJECT, CIM BULL., APRIL,1973, P.58-64.RAYMOND, GARY, ORE ESTIMATION PROBLEMS IN AN ERRATICALLYMINERALIZED OREBODY; CIM BULL., JUNE, 1979, P.90-98.WESTERN MINER, THE SIMILKAMEEN PROJECTS; DEC., 1973,P.30-38.DELAN, W.M., E.J. BALLANTYNE JR. AND T.N. MACAULEY,GEOPHYSICS OF THE COPPER MOUNTAIN AND INGERBELLE ORE-BODIES IN BRITISH COLUMBIA; CIM BULL., JULY,1975,P.90-97.SCHABAS, WILLIAM, SIMILKAMEEN PREPARES FOR MOVE TO COPPERMOUNTAIN; CANADIAN MINING JOURNAL, JUNE, 1978, P.58,61.SIMILKAMEEN MINING CO. LTD. STAFF, SIMILKAMEEN MINING CO.LTD.; IN MINERAL INDUSTRIES IN WESTERN CANADA, THE TENTHCOMMONWEALTH MINING AND METALLURGICAL CONGRESS- SEPT. 2-28, 1974, SECTION VI, ARTICLE I, P.1-12.NORTHERN MINER, NEWMONT'S SIMILKAMEEN DIVISION INCREASESOUTPUT AND PROFIT, MARCH 27, 1980, P. 31.DANIELSON, VIVIAN, PRINCETON SURVEYS POTENTIAL FOR SIMILCORESERVE EXPANSION, NORTHERN MINER, 8/13/90, P.1,19.MINING JOURNAL, SIMILCO MINE REPORT, 6/15/90, P.473,474.ENGINEERING AND MINING JOURNAL, 11/90, P.37.MINING ACTIVITY DIGEST, 12/31/90, P.8.NORTHERN MINER, PRINCETON EXPECTS NEW ESTIMATE OF MINABLERESERVES BY YEAR-END, 11/19/90, P.6.NORTHERN MINER, PRINCETON'S EARNINGS DROP AS COSTS RISE,REVENUE FALLS, 4/1/91, P.6.ENGINEERING AND MINING J., 5/91, P.46.THE NORTHERN MINER, 11/8/93, P. 14.TECK CORP., 1993 ANNUAL REPORT, P. 4-7.AMERICAN METAL MARKET, 4/15/94, P. 5.AME MINING WEEKLY, 6/10/94, P. 3.MINING JOURNAL, 5/6/94, P. 328.PRINCETON MINING CORP., PRESS RELEASE, 6/6/94.PRINCETON MINING CORP., PRESS RELEASE, 6/7/94.PLATT'S METALS WEEK, 7/11/94, P. 1.AMERICAN METAL MARKET, 7/14/94, P. 6.AMERICAN METAL MARKET, 7/20/94, P. 6.PRINCETON MINING CORP., PRESS RELEASE, 8/2/94.PRINCETON MINING CORP., PRESS RELEASE, 8/30/94.PRINCETON MINING CORP., PRESS RELEASE, 8/15/94.PRINCETON MINING CORP., PRESS RELEASE, 8/22/94.METAL BULLETIN, 11/4/93, P.8.PRINCETON MINING CORP., PRESS RELEASE, 3/9/94, 1PP.PRINCETON MINING CORP., PRESS RELEASE, 5/2/94, 2PP.PRINCETON MINING CORP., PRESS RELEASE, 6/8/94, 2PP.MINING JOURNAL, 9/2/94, P.164.PRINCETON MINING COEP., PRESS RELEASE, 9/20/94, 1PP.AMERICAN METAL MARKET, 9/23/94, P.6.PRINCETON MINING CORP., PRESS RELEASE, 10/4/94, 1PP.PRINCETON MINING CORP., PRESS RELEASE, 10/6/94, 1PP.AMERICAN METAL MARKET, 10/11/93, P.5.PRINCETON MINING CORP., PRESS RELEASE, 11/28/94, 1PP.AMERICAN METAL MARKET, V 103/N 188, 9/29/95, P.12.MACAULEY, T.N., GEOLOGY OF THE INGERBELLE AND COPPERMOUNTAIN DEPOSITS AT PRINCETON, B.C., CIM BULL., APRIL,1973, P.105-112.FAHRNI, K.C., T.N. MACAULEY AND V.A.G. PRETO, COPPERMOUNTAIN AND INGERBELLE; A SUTHERLAND BROWN, ED.,PORPHYRY DEPOSITS OF THE CANADIAN CORDILLERA, CIM SPECIALVOLUME NO. 15, 1976, P.368-375.PRETO, V.A., GEOLOGY OF COPPER MOUNTAIN.  BRITISH COLUMBIADEPARTMENT OF MINES AND PETROLEUM RESOURCES, BULLETIN 59,1972.NICE, R.W., CONCENTRATOR START-UP AT SIMILKAMEEN; CIM BULL.,SEPT., 1974, P.55-61.BARRATT, DEREK J., SEMI-AUTOGENOUS GRINDING: A COMPARISONWITH THE CONVENTIONAL ROUTE; CIM BULL., NOV., 1979,P.74-80.CANADIAN MINES HANDBOOK,  1980-81, P. 185.CANADIAN MINES HANDBOOK - 1986-1987, P. 282.ANNETT, WILLIAM, NEW IMPROVED CASSIAR MINING CORP.,CANADIAN MINING JOURNAL, APR. 1989, P. 29-33.CANADIAN MINES HANDBOOK - 1989-90, P. 101, 102.NORTHERN MINER, 6/29/92, P. 17.PRINCETON MINING CORP., 1992 ANNUAL REPORT, P. 7.PRINCETON MINING CORP., 1993 ANNUAL REPORT, P. 5.PRINCETON MINING CORP., PRESS RELEASE, 1/25/95, 1PP.PRINCETON MINING CORP., 1994 ANNUAL REPORT, P.5.",,1972,,,,1884,,
10133584,https://mrdata.usgs.gov/mrds/show-mrds.php?dep_id=10133584,,1220100028,Homestake Mine,51.10954,-119.82344,NA,Canada,British Columbia,,B,"Lead, Silver, Zinc",Copper,Barium-Barite,Underground,,,Prospect,,,,,Underground,,,,,,"Porter, Kenneth E.",,,,,,,"REF-THE FINANCIAL POST SURVEY OF MINES-1975,PG210; RESERVESREF-B.C. DEPT OF MINES & PET RES,G.E.M.,1970,PG 317; LOCATIOOPERATOR.REF-CNJ,DEC.,1970,PP12; GRADE & RESERVES.",,,,,,,,
10157155,https://mrdata.usgs.gov/mrds/show-mrds.php?dep_id=10157155,,1220100108,Millie Mack,50.04156,-117.72894,NA,Canada,British Columbia,,M,Gold,Silver,,Surface,,,Prospect,,,,,,,,,,,"Porter, Kenneth E.",,,,,,,"MR 223 (GOV'T OF CANADA), 1989CANADIAN MINES HANDBOOK, 1991-92, P.191CANADIAN MINES HANDBOOK, 1992-93, P.178MR 223 (GOV'T. OF CANADA), 1989",,1897,,,,,,
10157175,https://mrdata.usgs.gov/mrds/show-mrds.php?dep_id=10157175,,1220100106,Hellroaring Creek,49.39988,-115.58105,NA,Canada,British Columbia,,M,Zinc,,,Surface,,,Prospect,,,,,,,,,,,Unknown,,,,,,,,,,,,,,,
10157187,https://mrdata.usgs.gov/mrds/show-mrds.php?dep_id=10157187,,1220100077,Ladner Creek,49.51652,-121.30124,NA,Canada,British Columbia,,M,Gold,,,Underground,,,Plant,,,"Albite, Graphite, Pyrite, Pyrophyllite, Quartz",,Underground,,,,"Mcmaster, Idaho",,"Porter, Kenneth E.",,,,,,,"ANNUAL REPORTS - CAROLIN MINES LTD., 1978-1981.BARR, O.A., ""GOLD IN THE CANADIAN CORDILLERA"", CIM BULLETIN,JUNE 1980, PP. 72-73.CANADIAN MINES HANDBOOK, 1981-1982.  PUBLISHED BY THENORTHERN MINER PRESS, P. 77.CROSS, GEORGE, ""CAROLYN MINES"", THE GEORGE CROSS NEWSLETTER,19 NOVEMBER 1981.SAMUELS, R., THE CAROLIN MINES, LADNER CREEK GOLDCONCENTRATOR, CIM 6TH ANNUAL, DISTRICT 6 MEETING,VICTORIA, B.C., OCT. 31, 1981, 10 PP.E & MJ, ""THIS MONTH IN MINING"", ""PRELIMINARY FINDINGS FAVORDEVELOPMENT OF LADNER CREEK DEPOSIT"", MARCH, 1988PAGE 108.CANADIAN MINES HANDBOOK, 1990-91, PAGE 51.E & MJ, ""EXPLORATION ROUNDUP"", ""ANGLO SWISS MINING CORP."",JULY, 1990, PAGE 9.THE NORTHERN MINER, ""CAROLIN MINES CHANGES NAME, REVIVESLADNER CREEK PROJECT"", APRIL 1990, PAGE 12.",,1981,,,,1850,,
10157212,https://mrdata.usgs.gov/mrds/show-mrds.php?dep_id=10157212,,1220100072,Robb Lake,56.94157,-123.72937,NA,Canada,British Columbia,,M,"Zinc, Lead",Silver,,Underground,,,Prospect,,,,,Underground,,,,,,Eastern Field Operations Center (EFOC),,,,,,,"NORTHERN MINER PRESS LTD., CANADIAN MINES HANDBOOK 1979-80;1979, P.30,35,275.MINING ENGINEERING, MAY 1995, P407.ANNIS, R.C., D.A. CRANSTONE AND M. VALLEE, A SURVEY OF KNOWNMINERAL DEPOSITS IN CANADA THAT ARE NOT BEING MINED.EMR, MR 181, 1978, P.A-37.BARRIER REEF RESOURCES, LTD.  1976 ANNUAL REPORT.",,,,,,1971,,
10157227,https://mrdata.usgs.gov/mrds/show-mrds.php?dep_id=10157227,,1220100075,Lorraine,55.92624,-125.43909,NA,Canada,British Columbia,,M,"Copper, Gold",,,Surface,,,Prospect,,,,,,,,,,,"Porter, Kenneth E.",,,,,,,"ANNIS, R.C., D.A. CRANSTONE AND M. VALLEE, A SURVEY OF KNOWNMINERAL DEPOSITS IN CANADA THAT ARE NOT BEING MINED;ENERGY, MINES AND RESOURCES CANADA, MINERALS, MR 181,1978P.46GARNETT, J.A., GEOLOGY AND COPPER-MOLYBDENUM MINERALIZATIONIN THE SOUTHERN HOGEM BATHOLITH, NORTH-CENTRAL BRITISH.COLUMBIA; CIM BULL., SEPT., 1974, P.101 - 1066THE NORTHERN MINER, 3/25/91, P. 15.WILKINSON,  W.J., STEVENSON, R.W. AND GARNETT, J.A.,LORRAINE; A. SUTHERLAND BROWN, ED., IN PORPHYRY DEPOSITSOF THE CANADIAN CORDILLERA, SPECIAL VOLUME NO.15, 1976P.397 - 401.MR 223, 1989, B.C.-256.",,,,,,,,
10157241,https://mrdata.usgs.gov/mrds/show-mrds.php?dep_id=10157241,,1220100045,Sustut,56.59983,-126.69336,NA,Canada,British Columbia,,M,Copper,,,Surface,,,Prospect,,,"Bornite, Calcite, Chalcocite, Chalcopyrite, Copper, Epidote, Hematite, Malachite, Pyrite, Quartz",,Surface,,,,Sustut Copper,,"Porter, Kenneth E.",,,,,,,"ANNIS, R.C., D.A. CRANSTONE AND M.VALLEE, A SURVEY OF KNOWNMINERAL DEPOSITS IN CANADA THAT ARE NOT BEING MINED;ENERGY, MINES AND RESOURCES CANADA, MINERALS, MR181,1978,P.47.GOLDER ASSOCIATE, DEPOSIT PROFILE, SUSTUT, BRITISH COLUMBIA,CANADA: UNPUBLISHED REPORT ON FILE IN MINERALS AVAILABIL-ITY FIELD OFFICE, DENVER, COLORADO, 1980, 13 PP.DEPT. OF ENERGY, MINES AND RESOURCES, CANADA, 1978, A SURVEYOF KNOWN MINERAL DEPOSITS IN CANADA THAT ARE NOT BEINGMINED: OTTAWA, ONTARIO, MINERAL DEVELOPMENT SECTOR, UNPUB-LISHED SUMMARY REPORT, SUSTUT, 3 P.EMR CANADA, CANADIAN MINERAL DEPOSITS NOT BEING MINED IN1989, MR 223, NOV. 1989, P. BC 264.NORTHERN MINER, APRIL 12, 1973, P. 3.",,,,,,1971,,
10157258,https://mrdata.usgs.gov/mrds/show-mrds.php?dep_id=10157258,,1220100121,Snowfields,56.51788,-130.22068,NA,Canada,British Columbia,,M,Gold,,,Surface,,,Prospect,,,,,,,,,,,"Porter, Kenneth E.",,,,,,,"MR 223 (GOV'T. OF CANADA), 1989PRESS RELEASE, THE NORTHERN GROUP, 1/2/92",,,,,,,,
10157304,https://mrdata.usgs.gov/mrds/show-mrds.php?dep_id=10157304,,1220100049,Glacier Gulch,54.81649,-127.30161,NA,Canada,British Columbia,,M,Molybdenum,Tungsten,,Underground,,,Prospect,,,Molybdenite,,Underground,,,,"Glacier Gulch Deposit, Hudson Bay Mountain",,"Palencia, Cesar M.",,,,,,,"ANNIS, R.C., D.A. CRANSTONE AND M. VALLEE, A SURVEY OF KNOWNMINERAL DEPOSITS IN CANADA THAT ARE NOT BEING MINED;ENERGY, MINES AND RESOURCES CANADA, MINERALS, MR181,1978,P.46, A-35.BRIGHT, M.J. AND D.C. JONSON, GLACIER GULCH (YORKE-HARDY),A. SUTHERLAND BROWN, ED., IN PORPHYRY DEPOSITS IN THECANADIAN CORDILLERA, SPECIAL VOLUME NO. 15, 1976,P.455-461.RESERVE WAS PROVIDED BY TOM CHERRIER AND WILL BEDISCUSSED AT THE DISTRICT MEETING OF CIM, IN FALL 1983.",,,,,,1956,,
10157319,https://mrdata.usgs.gov/mrds/show-mrds.php?dep_id=10157319,,1220101047,Trail Zn Smt/Ref,49.1016,-117.7185,NA,Canada,British Columbia,,B,"Zinc, Refiner","Cadmium, Sulfur, Sulfur, Sulfuric Acid",,Processing Plant,,,Plant,,,,,,,,,"Trail Operations, Trail Metallurgical Complex",,"Difrancesco, Carl A.",,,,,,,"CRU ZINC MONITOR-SEPTEMBER 1996*CRU MONITOR, ZINC, APRIL 1994, P.7.",,1916,,,,,,
10157355,https://mrdata.usgs.gov/mrds/show-mrds.php?dep_id=10157355,,1220100070,Karen,58.31088,-132.63525,NA,Canada,British Columbia,,M,Molybdenum,,,Surface,,,Prospect,,,,,,,,,,,"Porter, Kenneth E.",,,,,,,"ANNIS, R.C., D.A. CRANSTONE AND M. VALLEE, A SURVEY OF KNOWNMINERAL DEPOSITS IN CANADA THAT ARE NOT BEING MINED;EMR, MR 181, 1978, P.A-38.",,,,,,,,
10157419,https://mrdata.usgs.gov/mrds/show-mrds.php?dep_id=10157419,,1220100007,Craigmont,50.20983,-120.93125,NA,Canada,British Columbia,,M,Copper,"Iron, Gold",,Underground,,,Past Producer,,,,,Underground,,,,,,"Porter, Kenneth E.",,,,,,,"DUTHIE, R.G., CRAIGMONT AND THE MINING INDUSTRY;WESTERN MINER, FEB., 1973, P.18,19.WESTERN MINER, CRAIGMONT, AUG., 1976, P.41,43-45.WESTERN MINER, CRAIGMONT AND THE MINING INDUSTRY, FEB.,CRAIGMONT MINES LTD. STAFF, CRAIGMONT MINES LIMITED; INMINERAL INDUSTRIES IN WESTERN CANADA, THE TENTH COMMON-WEALTH MINING AND METALLURGICAL CONGRESS- SEPT. 2-28,1974, SECTION VI, ARTICLE K, P.1-19.HAWTHORN, G., CRAIGMONT MINES LIMITED; D.E. PICKETT, ED.,IN MILLING PRACTICE IN CANADA, CIM SPECIAL VOLUME 16,1978, P.93-95.NORTHERN MINER, CRAIGMONT MAY EXTEND OPERATIONS  IF COPPERPRICES MAINTAIN STRENGTH;  JAN.3, 1980, P.17.CROTEAU, A.K., MECHANICAL MAINTENANCE IN TRACKLESS SUB-LEVELCAVING AT CRAIGMONT MINES LIMITED; CIM BULL., FEB., 1970,P.155-162.APILLAR, C.L., A.J. PETRINA, E.W. COKAYNE,  HOW CRAIGMONTCHOSE SUBLEVEL CAVING AND WHY IT PROVED TO BE SUCCESSFUL;WORLD MINING, JUNE, 1971, P.22-29 (U.S. ED.).PLACER DEVELOPMENT STAFF, CRAIGMONT GOES FROM OPEN PIT TOUNDERGROUND; CANADIAN MINING JOURNAL, AUG., 1976, P.21,23WESTERN MINER, MAINTENANCE AT CRAIGMONT MINES, A KEY FACTORIN COST CONTROL; JULY, 1975, P.9-16.PRESS, D.C., J. JOHNSTONE, VENTILATION AT CRAIGMONT MINES;CIM BULL., JAN., 1976, P.75-84.",,,,,,,,
10157600,https://mrdata.usgs.gov/mrds/show-mrds.php?dep_id=10157600,,1220100138,Tam,56.06654,-125.5516,NA,Canada,British Columbia,,M,Copper,Silver,,Surface,,,Prospect,,,,,,,,,,,"Porter, Kenneth E.",,,,,,,"NORTHERN MINER, 7/2/90, P.12.CANADIAN MINES HANDBOOK, 1991-92, P.242,243,388.NORTHERN MINER, 3/25/91, P.15.MINING RECORD, 8/17/94, P.11.",,,,,,,,
10157606,https://mrdata.usgs.gov/mrds/show-mrds.php?dep_id=10157606,,1220100019,Bull River,49.49988,-115.38105,NA,Canada,British Columbia,,M,Copper,"Silver, Gold",,Surface,,,Past Producer,,,,,Surface,,,,Bull River Mine,,"Porter, Kenneth E.",,,,,,,,,,,,,,,
10157633,https://mrdata.usgs.gov/mrds/show-mrds.php?dep_id=10157633,,1220100124,Tillicum,49.98456,-117.71224,NA,Canada,British Columbia,,M,Gold,,,Surface,,,Prospect,,,,,,,,,"Heino-Money Pit Zone, Esperanza, East Ridge Zone, Grizzly",,"Porter, Kenneth E.",,,,,,,"MR 223 (GOV'T. OF CANADA), 1989THE NORTHERN MINER, 10/14/91, P.12THE NORTHERN MINER, 6/15/92, P.10MEG",,,,,,1980,,
10157669,https://mrdata.usgs.gov/mrds/show-mrds.php?dep_id=10157669,,1220100129,Kemess South,56.99985,-126.75168,NA,Canada,British Columbia,,M,"Copper, Gold","Molybdenum, Silver",,Surface,,,Plant,,,,,,,,,"Ron 4, South Kemess, Kemess West, Du, Kemess North",,"Buckingham, David A.",,,,,,,"MINING RECORD, ""JV TO ADVANCE CEVELOPMENT OF KEMESS SOUTHGOLD-COPPER PROJECT"", FEB. 3, 1993, PAGE 1.CIM BULLETIN, ""GEOLOGY AND AGE OF THE KEMESS PORPHYRYCOPPER-MOLYBDENUM DEPOSIT NORTH-CENTRAL BRITISH COLUMBIA"",SEPTEMBER, 1980., PAGES 94-99.CANADIAN MINES HANDBOOK, 1996-97, PP. 374, 375, 494.MINING MAGAZINE, ""PROGRESS AT KEMESS SOUTH"", FEB. 2, 1993,PAGE 91.THE NORTHERN MINER, ""KEMESS PROGRESSING TOWARD MINEDEVELOPMENT APPLICATION"", JAN. 4, 1993, PAGE 3.NEWS RELEASE,  ""EL CONDOR/ST. PHILIPS ADVANCE KEMESS SOUTHPROJECT"", DEC. 17, 1992.EL CORDOR RESOURCES LTD. 1992 ANNUAL REPORT, PAGES 3, 4.ROYAL OAK MINES INC., 1996 FORM 10-K REPORT, P26.",,,,,,1965,,
10157688,https://mrdata.usgs.gov/mrds/show-mrds.php?dep_id=10157688,,1220100122,Spud Valley,49.98306,-126.71812,NA,Canada,British Columbia,,M,Gold,,,Underground,,,Past Producer,,,,,,,,,Roper,,"Porter, Kenneth E.",,,,,,,"MR 223 (GOV'T. OF CANADA), 1989MCADAM RESOURCES INC. ANNUAL REPORT, 1991",,1938,,,,1935,,
10157758,https://mrdata.usgs.gov/mrds/show-mrds.php?dep_id=10157758,,1220100025,Brandywine Mine,50.1298,-123.10132,NA,Canada,British Columbia,,M,"Gold, Silver","Lead, Zinc",,Underground,,,Producer,,,,,Underground,,,,,,"Porter, Kenneth E.",,,,,,,"WEBSTER, LEN, NORTHAIR- BUCKING THE TREND IN GOLD; CANADIANMINING JOURNAL, MAR., 1977, P. 50-55.WESTERN MINER, A VISIT TO NORTHAIR MINES: OUTPUT ANDRECOVERIES IMPROVING; DEC., 1976, P. 30, 32.",,,,,,,,
10157769,https://mrdata.usgs.gov/mrds/show-mrds.php?dep_id=10157769,,1220100118,Rossland Northbelt,49.08315,-117.80112,NA,Canada,British Columbia,,M,Gold,,,Underground,,,Past Producer,,,,,,,,,,,"Porter, Kenneth E.",,,,,,,"CANADIAN MINES HANDBOOK, 1991-92, P.388THE NORTHERN MINER, 4/15/91, P.3CANADIAN MINES HANDBOOK 1991-92, P.388",,,,,,,,
10159777,https://mrdata.usgs.gov/mrds/show-mrds.php?dep_id=10159777,,1220100032,Cassiar Asbestos Mine,59.33314,-129.81861,NA,Canada,British Columbia,,N,,,Asbestos,Surface-Underground,,,Producer,,,,,Surface,,,,,,"Porter, Kenneth E.",,,,,,,"EVANS, DAVID, AMBITIOUS DUST CONTROL PROGRAM MAKES CASSIARA BETTER PLACE TO WORK; CANADIAN MINING JOURNAL,NOV., 1977, P.24-29.CASSIAR ASBESTOS CORP. LTD. STAFF, THE CASSIAR STORY,CIM BULL., APR., 1978,ROBERTS, RICHARD J., IMPROVEMENTS AT CASSIAR'S B.C.OPERATION SHOW GOOD RESULTS, THE NORTHERN MINER, AUG. 11,1977, P.1,2.WESTERN MINER, ASBESTOS IN WESTERN CANADA AT CASSIAR B.C.,NOV., 1978, P.18.BOTTOMLEY, PAMELA, FUTURE LOOKS BRIGHT FOR CASSIAR ASBESTOS;NORTHERN MINER, AUG. 23, 1979, P.1,15.",,,,,,,,
10181552,https://mrdata.usgs.gov/mrds/show-mrds.php?dep_id=10181552,,1220100095,Taurus Cornucopia,59.26654,-129.7019,NA,Canada,British Columbia,,M,Gold,,,Underground,,,Past Producer,,,,,,,,,,,Unknown,,,,,,,,,,,,,,,
10181570,https://mrdata.usgs.gov/mrds/show-mrds.php?dep_id=10181570,,1220100126,Yellow Giant,53.36364,-130.12664,NA,Canada,British Columbia,,M,Gold,Silver,,Underground,,,Prospect,,,,,,,,,"Bob Deposit, Banks Island, Discovery Deposit, Tel Deposit, Kim Deposit",,"Porter, Kenneth E.",,,,,,,"MR 223 (GOV'T. OF CANADA), 1989CANADIAN MINES HANDBOOK, 1991-92, P.374NORTH AMERCAN GOLD MINING INDUSTRY NEWS, 11/15/85, P.10MINING JOURNAL, 8/22/86, P.132",,,,,,,,
10181579,https://mrdata.usgs.gov/mrds/show-mrds.php?dep_id=10181579,,1220100114,Highland Valley Copper Complex,50.44983,-121.03876,NA,Canada,British Columbia,,M,Copper,"Silver, Molybdenum, Gold",,Surface,,,Plant,,,,,Surface,,,,"Lornex, Valley Copper, Gnawed Mountain, Lake Zone, Highmont",,"Palencia, Cesar M.",,,,,,,"MAYRS, BILL, THE VALLEY OF COPPER, CANADIAN MINING JOURNAL,SEPT., 1986, P. 21-23.SCALES, MARILYN, GRINDING OUT PROFIT, CANADIAN MININGJOURNAL, NOV., 1986, P. 37-38.HANSON, POUL, HIGHLAND VALLEY COPPER: A STRAGEDY FORINCREASED PRODUCTIVITY, CIM BULL., AUG., 1987, P. 42-45.MAYCOCK, JOYCE, CUTTING HAULAGE COSTS WITH NEW CONVEYORSYSTEM, CANADIAN MINING JOURNAL, AUG., 1987, P. 26-27.RAYMOND, G.F. AND ARMSTRONG, W.P., SAMPLE BIAS ANDCONDITIONAL PROBABILITY ORE RESERVE ESTIMATION AT VALLEY,CIM BULL., VOL. 81, NO. 911, MARCH 1988, P. 128-136.SCOTT, M.D., HIGHLAND COPPER'S IN-PIT CRUSHING ANDCONVEYING SYSTEM, CIM BULL., VOL. 81, NO. 917, SEPT. 1988,P. 50-56.NEWCOMEN, H. WARREN AND MARTIN, DENNIS C., GEOTECHNICALASSESSMENT OF THE SOUTHEAST WALL SLOPE FAILURE AT HIGHMONTMINE, BRITISH COLUMBIA, CIM BULL., VOL. 81, NO. 917,SEPT., 1988, P. 71-76.ANON., HIGHMONT MILL MOVES DOWN THE HILL...ON PURPOSE!,E&MJ, OCT. 1988, P. 11.WALKER, SIMON, HIGHLAND VALLEY; THE PROFITABLE COMBINATION,INTERNATIONAL MINING, OCT. 1988, P. 20-23.SCOTT, M.D., HIGHLAND VALLEY COPPER: TRUCK, CRUSH, CONVEY,WORLD MINING EQUIPMENT, JAN. 1989, P. 19-21.TECK CORP., PEACE IN THE VALLEY, NORTHERN MINER MAGAZINE,5/87, P. 59.SPORLEDER, LISA E., HIGHLAND VALLEY COPPER, A WORLD-CLASSCOPPER PARTNERSHIP, E&MJ, 8/89, P.44-46.PERSONAL COMMUNICATION FROM P.C.F. CROWSON OF RTZ CORP.TO PROFESSOR RAYMOND F. MIKESELL, DATED 16 JUNE, 1989.KENNEDY, ALAN, HIGHLAND VALLEY: B.C.'S WORLD CLASS COPPERMINE, MARCH 1991, P. 132-138.DUVAL, DAVID, COST CUTTER, NORTHERN MINER MAGAZINE, 5/87,SCALES, MARILYN, ECONOMIES OF SCALE, CANADIAN MININGJOURNAL, 6/89, P. 87-92.HANSEN, POUL, A TEMPORARY USE OF THE LAND AT HIGHLAND VALLEYCOPPER, CIM BULLETIN, JULY/AUGUST, 1992, P. 71-72.MACPHAIL, A. DAVID, MINING AT HIGHLAND VALLEY COPPER, CIMBULLETIN, JULY/AUGUST, 1992, P. 73-77.DALY, S. AND D. ASSMUS, BLAST OPTIMIZATION AND STABILITYENHANCEMENT THROUGH GEOTECHNICAL MAPPING AT HIGHLANDVALLEY COPPER, CIM BULLETIN, JULY/AUGUST, 1992, P. 78-84.SCOTT, M.D., R.C. LO, OPTIMAL TAILINGS MANAGEMENT AT HIGH-LAND VALLEY COPPER, CIM BULLETIN, JULY/AUGUST, 1992,P. 85-88.THE NORTHERN MINER, APRIL 19, 1993, P. 15.BURGER, JOHN R., HIGHLAND VALLEY MINERS LOWER COSTS BYPOOLING RESOURCES, METAL BULLETIN MONTHLY, 8/89, P.12-13.NORTHERN MINER MAGAZINE, OPEN PIT GIANTS OF BRITISHCOLUMBIA, 7/92, P.11-13.METAL BULLETIN, HIGHLAND VALLEY SETTLES MORE COPPER TC'S,8/2/93, P.6.NORTHERN MINER, 6/20/94, P.3.MACPHAIL, A.D., D.M. RICHARDS, IN-PIT CRUSHING AND CONVEYINGAT HIGHLAND VALLEY COPPER, MINING ENGINEERING, 10/94,P.1186-1190.CANADIAN MINING HANDBOOK, 19871988, P. 98, 251, 375.RIO ALGOM LTD., 1993 ANNUAL REPORT, P.22,23.CANADIAN MINING HANDBOOK, 1986-1987, P. 248.CANADIAN MINING JOURNAL, NOVEMBER, 1979.MBM, HIGHLAND VALLEY MINERS LOWER COSTS BY POOLINGRESOURCES, AUG 1989, P. 12-13.CMH, 1986-1987, P. 362.CANADIAN MINING JOURNAL, NOVEMBER, 1979, P. 46-47.TECK CORP., 1989 ANNUAL REPORT, P.15.TECK CORP., 1991 ANNUAL REPORT, P.13.TECK CORP., 1992 ANNUAL REPORT, P.12.TECK CORP., 1993 ANNUAL REPORT, P.10,11.CANADIAN MINES HANDBOOK, 1991-1992, P-370.CANADIAN MINES HANDBOOK, 1992-1993, P-344.COMINCO LTD., 1993 ANNUAL REPORT, P.35.RIO ALGOM LTD., 1994 ANNUAL REPORT, P.4,5,22,23.METALL MINING CORP. 1993 ANNUAL REPORT, P.25,26.TECK CORP., 1996 ANNUAL REPORT, P.17.",,1986,,,,1964,,
10181583,https://mrdata.usgs.gov/mrds/show-mrds.php?dep_id=10181583,,1220100088,Goldwedge,56.48308,-130.20178,NA,Canada,British Columbia,,M,Gold,Silver,,Underground,,,Producer,,,,,,,,,,,"Porter, Kenneth E.",,,,,,,"CANADIAN MINES HANDBOOK, 1990-91, P.108THE NORTHERN MINER, 3/25/91, P.1, 2.",,1988,,,,,,
10181629,https://mrdata.usgs.gov/mrds/show-mrds.php?dep_id=10181629,,1220100073,Red Chris,57.70121,-129.80042,NA,Canada,British Columbia,,M,Copper,Gold,,Surface,,,Prospect,,,,,,,,,"Red Group, Chris, MoneyRed",,"Porter, Kenneth E.",,,,,,,"MINING RECORD, 1/19/94, P.1.MINING RECORD, 6/1/94, P.1.MINING RECORD, 10/12/94, P.3.MINING RECORD, 11/30/94, P.19.MINING RECORD, V 106/N 9, 3/1/95, P.52.MINING RECORD, V 106/N 29, 7/19/95, P.5.MINING RECORD, V 106/N 37, 9/13/95, P.3.MINING RECORD, V 106/N 38, 9/20/95, P.6.INTERNATIONAL MINING NEWS, WEDNESDAY, JUNE 1994, P-1.ANNIS, R.C., D.A. CRANSTONE AND M. VALLEE, A SURVEY OF KNOWNMINERAL DEPOSITS IN CANADA THAT ARE NOT BEING MINED;ENERGY, MINES AND RESOURCES CANADA, MINERALS, MR 181,1978P. A-38.NORTHERN MINER PRESS, CANADIAN MINES HANDBOOK 1979-80;1979,P.196, 259, 275.MR 223, 1989, B.C.-335.NORTHERN MINER, 6/6/94, P. 14.MINING RECORD, V 106/N 34, 8/23/95, P.5.THE MINING RECORD, 5/10/95, P 6, ""DIAMOND DRILLING RESUMESON RED CHRIS PROPERTY"".MINING JOURNAL, 07/09/95, P424, ""RED CHRIS UNDER COVER"".",,,,,,,,
10181791,https://mrdata.usgs.gov/mrds/show-mrds.php?dep_id=10181791,,1220100005,Brenda,49.88314,-120.0012,NA,Canada,British Columbia,,M,"Copper, Molybdenum","Silver, Gold",,Surface,,,Past Producer,,,"Biotite, Bornite, Calcite, Chalcopyrite, Epidote, Feldspar, Gold, Magnetite, Molybdenite, Pyrite, Quartz, Silver, Sphalerite",,Surface,,,,"Copper King, Brenda Mine",,"Porter, Kenneth E.",,,,,,,"BRADBURN, R.G.  BRENDA MINES CONCENTRATOR.  MILLING PRACTICEIN CANADA, CIM SPECIAL VOLUME 16, 1978, PP. 88-91.CANADIAN MINES HANDBOOK 1978-79.  P. 46.CRANSTONE, D.A. AND R.T. WHILLANS.  CANADIAN RESERVES OFCOPPER, NICKEL, LEAD, ZINC, MOLYBDENUM, SILVER AND GOLDAS OF JAN. 1, 1978.  P. 15.FINANCIAL POST SURVEY OF MINES 1978.  P. 104.MINING MAGAZINE.  BRENDA MINE.  JUNE 1972, PP. 416-423.SCHABAS, WILLIAM.  MILL COMPUTER, ANALYZER BOOST BRENDAPRODUCTIVITY.  CANADIAN MINING JOURNAL, JUNE 1978, P. 52WORLD MINING.  BRENDA STRIPPING ON SCHEDULE AT BRITISHCOLUMBIA....  JULY 1969, P. 23.WESTERN MINER, BRENDA MINES SEEKS CONTROLLED EFFICIENCY;V. 52, NO. 5, MAY 1979. PP. 33-30.LANG, A.H., HISTORICAL SIDELIGHTS OF BRENDA MINE AND REGION,PART I; CANADIAN MINING JOURNAL, MARCH, 1970, P.41-43.PART II(A); CANADIAN MINING JOURNAL, MAY, 1970, P.45-48.PART II(B); CANADIAN MINING JOURNAL, JULY, 1970, P.54-58.CARR, J.M., THE GEOLOGY OF THE BRENDA LAKE AREA, BRITISHCOLUMBIA DEPT. OF MINES & PET. RES., G.E.M., 1967,P.183-210.BRADBURN, R., ET. AL. COMPUTER APPLICATION AT BRENDA MINESMILL. CANADIAN MINING JOURNAL, MARCH 1978, PP.32, 35.BRITISH COLUMBIA AND YUKON CHAMBER OF MINES.  MINING EXPLOR-ATION AND DEVELOPMENT REVIEW, 1978-79, P. 5.BRITISH COLUIMBIA DEPARTMENT OF MINES AND PETROLEUM RESOUR-CES.  GEOLOGY, EXPLORATION AND MINING IN BRITISH COLUM-BIA, 1970, P. 391.BRITISH COLUMBIA DEPARTMENT OF MINES AND PETROLEUM RESOUR-CES.  GEOLOGY EXPLORATION AND MINING IN BRITISH COLUM-BIA, 1971, PP. 13, 28.BRITISH COLUMBIA MINISTRY OF MINES AND PETROLEUM RESOURCES.EXPLORATION IN BRITISH COLUIMBIA, 1975, P. E78.CES.  LODE METALS IN BRITISH COLUMBIA, 1965, PP. 164-165.CES.  LODE METALS IN BRITISH COLUMBIA, 1968, P. 215.CANADIAN MINES HANDBOOK.  1979-80, P. 45.CANADIAN MINES HANDBOOK.  1980-81. PP.44-45.CANADIAN MINING JOURNAL.  MILL COMPUTER, ANALYZER BOOSTBRENDA PRODUCTIVITY.  V. 99, NO. 6, 1978, PP. 54-57.CANADIAN MINING JOURNAL.  REFERENCE MANUAL AND BUYERS'GUIDE, 1979, PP. 33-39.DEPARTMENT OF ENERGY, MINES AND RESOURCES.  MINERALS RESOUR-CES BRANCH.  CANADIAN MINERALS YEARBOOK, 1971, P. 129.ENERGY, MINES AND RESOUCES CANADA.  COPPER.  MR 149, JULY1976, PP. 8, 13.FARLEY, A. L.  ATLAS OF BRITISH COLUMBIA.  THE UNIVERSITY OFBRITISH COLUMBIA, 1979, PP. 72-76.FINANCIAL POST SURVEY OF MINES.   1979, P. 26.FOUNTAIN, D. K.  THE APPLICATION OF THE INDUCED POLARIZATIONMETHOD AT BRENDA MINES, BRITISH COLUMBIA.  C.I.M. BULLE-TIN, FEBRUARY 1968, PP. 153-157.MCMYNN, ET. AL.  REPORT OF THE BRITISH COLUMBIA COPPER TASKFORCE.  1975, PP. 61, 65.SOREGAROLI, A. E. GEOLOGY OF THE BRENDA COPPER-MOLYBDENUMDEPOSIT IN BRITISH COLUMBIA.  C.I.M. BULLETIN, V. 67,NO. 750, OCTOBER 1974, PP. 76-83.TETU, H. AND PELLS, F.  DESIGN, CONSTRUCTION AND INITIALOPERATION OF THE TAILINGS SYSTEM AT BRENDA MINES LTD.C.I.M. BULLETIN, AUGUST 1971, PP. 101-107.ENGINEERING AND MINING JOURNAL.  INTERNATIONAL DIRECTORY OFOF MINING AND MINERAL PROCESSING OPERATIONS. 1980, PP.37, 232.BRENDA MINES LTD.  STAFF, BRENDA MINES LTD.  IN MINERALINDUSTRIES IN WESTERN CANADA, THE TENTH COMMONWEALTHMINING AND METALLURGICAL CONGRESS- SEPT. 2-28, 1974,SECTION VI, ARTICLE H, P.1-17.NORANDA MINERALS INC., 1989 ANNUAL REPORT, P. 9.NORANDA MINERALS INC., 1990 ANNUAL REPORT.SOREGAROLI, A.E. AND D.F. WHITFORD, BRENDA; A. SUTHERLANDBROWN, ED., PORPHYRY DEPOSITS OF THE CANADIAN CORDILLERA,CIM SPECIAL VOLUME NO. 15, 1976, P.186-194.WESTERN MINER, COMPUTER CONTROL OF GRINDING CIRCUITSIMPROVES OUTPUT AT BRENDA MINES.  V. 49,  NO. 9, SEPTEM-BER 1976, P. 14.CANADIAN MINES HANDBOOK, 1980-81, PP. 44-45.CANADIAN MINES HANDBOOK 1986-87, NORTHERN MINER PRESS, P.69.MINE RESERVES AND CURRENTLY PROMISING DEPOSITS, JAN., 1985,EMR CANADA, MR 209, P. 21.NORANDA INC., 1989 ANNUAL REPORT, P. 23.ENGINEERING AND MINING JOURNAL, BRENDA PLANTS A NEW BENCH-MARK IN LOW-GRADE BULK OPEN PITTING; SEPT., 1969, P.280.",,1970,,,,1947,,
10181847,https://mrdata.usgs.gov/mrds/show-mrds.php?dep_id=10181847,,1220100064,Cafb,53.29698,-127.00714,NA,Canada,British Columbia,,M,Molybdenum,,,Surface,,,Prospect,,,,,,,,,,,"Porter, Kenneth E.",,,,,,,"ANNIS, R.C., D.A. CRANSTONE AND M. VALLEE, A SURVEY OF KNOWNMINERAL DEPOSITS IN CANADA THAT ARE NOT BEING MINED;ENERGY, MINES AND RESOURCES CANADA, MINERALS, MR181,1978,P.44.",,,,,,,,
10181905,https://mrdata.usgs.gov/mrds/show-mrds.php?dep_id=10181905,,1220100076,Trout Lake,50.63316,-117.60115,NA,Canada,British Columbia,,M,Molybdenum,,,Surface,,,Prospect,,,Molybdenite,,Underground,,,,Trout Lake Molybdenum Deposit,,"Palencia, Cesar M.",,,,,,,"NORTHERN MINER, THE, FEB. 22, 1979, P.1, 2.NORTHERN MINER, THE, AUG.  2, 1979, P. A1SKILLING'S MINING REVIEW, AUG. 4, 1979, P. 19MINING MAGAZINE, JUNE, 1978, P. 607.ENGINEERING AND MINING JOURNAL, JUNE, 1978, P.295.NORTHERN MINER, BIG MOLY FIND IN DEEP DRILLING ON B.C.GROUP; MAY 4, 1978, P.1,8.RESERVE TONNAGE WAS PROVIDED BY NEWMONT PERSONNEL, TOPAH, DURING AN ON-SITE VISIT, IN 1981.",,,,,,1917,,
10182098,https://mrdata.usgs.gov/mrds/show-mrds.php?dep_id=10182098,,1220100009,Bethlehem,50.48983,-120.98126,NA,Canada,British Columbia,,M,Copper,"Silver, Molybdenum",Gold,Surface,,,Past Producer,,,,,Surface,,,,"Iona, Huestis, Jersey, East Jersey",,"Porter, Kenneth E.",,,,,,,"CANADIAN MINING JOURNAL, 1974, 1974 REFERENCE MANUAL ANDBUYER'S GUIDE, P. 44.CANADIAN MINING JOURNAL, 1975, 1975 REFERENCE MANUAL ANDBUYER'S GUIDE, P. 54.CANADIAN MINING JOURNAL, 1976, 1976 REFERENCE MANUAL ANDBUYER'S GUIDE, P. 69.CANADIAN MINING JOURNAL, 1978, 1978 REFERENCE MANUAL ANDBUYER'S GUIDE, P. 85.CANADIAN MINING JOURNAL, 1979, 1979 REFERENCE MANUAL ANDBUYER'S GUIDE, P. 88.NORTHERN MINER, 1966, CANADIAN MINES HANDBOOK 1966-1967:NORTHERN MINER PRESS, P. 45.NORTHERN MINER, 1967, CANADIAN MINES HANDBOOK 1967-1968:NORTHERN MINER PRESS, P. 46.NORTHERN MINER, 1968, CANADIAN MINES HANDBOOK 1968-1969:NORTHERN MINER PRESS, P. 46-47.NORTHERN MINER, 1969, CANADIAN MINES HANDBOOK 1969-1970:NORTHERN MINER PRESS, P. 47.NORTHERN MINER, 1970, CANADIAN MINES HANDBOOK 1970-1971.NORTHERN MINER PRESS, P. 49-50.NORTHERN MINER, 1971, CANADIAN MINES HANDBOOK 1971-1972:NORTHERN MINER PRESS, P. 52-53.NORTHERN MINER, 1973, CANADIAN MINES HANDBOOK 1973-1974NORTHERN MINER PRESS, P. 45-46.NORTHERN MINER, 1974, CANADIAN MINES HANDBOOK 1974-1975:NORTHERN MINER PRESS, P. 43-44.NORTHERN MINER, 1975,  CANADIAN MINES HANDBOOK 1975-1976:NORTHERN MINER PRESS, P. 40-41.NORTHERN MINER, 1976, CNANADIAN MINES HANDBOOK 1976-1977:NORTHERN MINER PRESS, P. 42-43.NORTHERN MINER, 1977, CANADIAN MINES HANDBOOK 1977-1978:NORTHERN MINER PRESS, P. 41-42.NORTHERN MINER, 1978, CANADIAN MINES HANDBOOK 1978-1979:NORTHERN MINER, 1979, CANADIAN MINES HANDBOOK 1979-1980:NORTHERN MINER PRESS, P. 39-40.WESTERN MINER, 1968, BETHLEHEM COPPER ESTABLISHES CONSISTENTPROGRESS PATTERN, JUNE 1968, P. 39.WESTERN MINER, 1973, BETHLEHEM 1972 EARNINGS, FEB. 1973,P. 21.WESTERN MINER, 1973, COPPER - BRITISH COLUMBIA:  WESTERNMINER, DEC. 1973, P. 46.WESTERN MINER, BETHLEHEM COPPER REPORT, JUNE, 1973,P.44,46.FINANCIAL POST SURVEY OF MINES 1978.  P. 100.SMITH, J.W.  BETHLEHEM COPPER CORPORATION.  MILLING PRACTICEIN CANADA, CIM SPECIAL VOLUME 16, 1978, PP. 85-87.WORLD MINING.  DEC. 1978, P. 79.WRIGHT, H.M.  THE BETHLEHEM PROJECT OF BETHLEHEM COPPERCORPORATION, LTD., HIGHLAND VALLEY, BRITISH COLUMBIA.BULLETIN OF THE INSTITUTE OF MINING AND METALLURGY, JAN.1964, NO. 686, TRANS., VOL. 73, 1963-64, PT. 4, PP. 177-INGRAM, D.G., OPERATION AND MAINTENANCE OF CRUSHINGEQUIPMENT AT BETHLEHEM COPPER; CIM BULL., JULY, 1979,P.137-141.COAKLEY, GEORGE J., REPORT ON FIELD TRIP TO HIGHLAND VALLEY,B.C. COPPER DISTRICT, APRIL 27-29, 1977; P.12-16,23-27,JULY 14, 1977.ENGINEERING AND MINING JOURNAL, BETHLEHEM COPPER... APIONEERING EFFORT ON HIGHLAND VALLEY DEPOSITS, SEPT.,1969, P.276-278.MINING MAGAZINE, BETHLEHEM COPPER- CANADA'S FIRST MAJOR OPENPIT PORPHYRY COPPER; NOV., 1973, P.406-410.BETHLEHEM COPPER CORP. LTD. STAFF, HIGHLAND VALLEYOPERATIONS; IN MINERAL INDUSTRIES IN WESTERN CANADA, CIMTHE TENTH COMMONWEALTH MINING AND METALLURGICAL CONGRESS-SEPT. 2-28, 1974, SECTION VI, ARTICLE L, P.1-13.BRISKEY, JOSEPH A., JR., AND JOHN R. BELLAMY, BETHLEHEMCOPPER'S JERSEY, EAST JERSEY, HUESTIS AND IONA DEPOSITS;A. SUTHERLAND BROWN, ED., PORPHYRY DEPOSITS OF THECANADIAN CORDILLERA, CIM SPECIAL VOLUME 15, 1976,P.105-119.MINING MAGAZINE, PROGRESS AND INNOVATION AT BETHLEHEMCOPPER'S HIGHLAND VALLEY CONCENTRATOR, AUG., 1976,P.119-126.OVERTON, C.W., 1975, PEBBLE GRINDING AT BETHELEM COPPER:CANADIAN MINING JOURNAL, SEPT. 1975, P. 83-84.SCHABAS, W., 1977, MOLYBDENUM PLANT ADDED TO BETHLEHEM OPER-ATIONS:  CANADIAN MINING JOURNAL, MAY 1977, P. 46-48.NORTHERN MINER, 1980, CANADIAN MINES HANDBOOK 1980-1981:CANADIAN MINES HANDBOOK 1986-87, NORTHERN MINER PRESS, P.101MINE RESERVES AND CURRENTLY PROMISING DEPOSITS, JAN. 1985,EMR CANADA, MR 209, P. 32.CANADIAN MINE HANDBOOK-1991-1992, P-74,75.EWANCHUK, H.G., 1969, OPEN PIT MINING AT BETHLEHEM COPPER:WESTERN MINER, AUG. 1969, P. 43-51.",,1962,,,,1898,,
10182109,https://mrdata.usgs.gov/mrds/show-mrds.php?dep_id=10182109,,1220100021,Silver Queen Mine,54.07979,-126.73156,NA,Canada,British Columbia,,M,"Silver, Zinc","Cadmium, Copper, Gold, Lead",,Underground,,,Producer,,,,,Underground,,,,"Nadina, Bradina Joint Venture",,"Porter, Kenneth E.",,,,,,,"REF-THE FINANCIAL POST SURVEY OF MINES,1975,P223; RESERVES &REF-B.C. DEPT. OF MINES & PET. RES.,GEM,1969,P126-139; 1970,GEOLOGY & ASSAYS",,,,,,,,
10182115,https://mrdata.usgs.gov/mrds/show-mrds.php?dep_id=10182115,,1220100026,Boss Mountain Mine,52.09984,-120.9346,NA,Canada,British Columbia,,M,Molybdenum,,,Surface-Underground,,,Producer,,,Molybdenite,,"Surface, Underground",,,,"Boss Mountain, Boss Mountain Mines",,C M P,,,,,,,,,1965,,,,1917,,
10182116,https://mrdata.usgs.gov/mrds/show-mrds.php?dep_id=10182116,,1220100039,Valley,50.48733,-121.04436,NA,Canada,British Columbia,,M,Copper,"Molybdenum, Gold, Silver",,Surface,,,Past Producer,,,"Bornite, Chalcopyrite, Covellite, Digenite, Galena, Molybdenite, Pyrite, Pyrrhotite, Sphalerite",,Surface,,,,"Lake Zone, Valley Copper",,"Porter, Kenneth E.",,,,,,,"COAKLEY, GEORGE J.  REPORT ON FIELD TRIP TO HIGHLAND VALLEY,B.C. COPPER DISTRICT, APR. 27-29, 1977. U.S. BUREAU OFMINES TRAVEL REPORT, JULY 14, 1977, PP. 12-16,29-32.(OFFICIAL USE ONLY)NORTHERN MINER.  COMINCO TO BRING IN VALLEY COPPER.  JUNE28, 1979, P. 24.OSATENKO, M.J. AND M.B. JONES.  VALLEY COPPER.  PORPHYRYDEPOSITS OF THE CANADIAN CORDILLERA, CIM SPECIAL VOLUME15, 1976, PP. 130-143.NORTHERN MINER, BETHLEHEM URGES IMMEDIATE START TO DEVELOP-MENT OF BIG LAKE ZONE; MAY 25, 1978, P.8.CANADIAN MINES HANDBOOK 1980-81., P. 39.CANADIAN MINES HANDBOOK 1986-87, NORTHERN MINER PRESS,P.101.MINE RESERVES AND CURRENTLY PROMISING DEPOSITS, JAN. 1985,EMR CANADA, MR 209, P. 21.",,1986,,,,1968,,
10184023,https://mrdata.usgs.gov/mrds/show-mrds.php?dep_id=10184023,,1220100130,Polaris Taku,58.70117,-133.6381,NA,Canada,British Columbia,,M,Gold,,,Unknown,,,Prospect,,,,,,,,,Whitewater,,"Buckingham, David A.",,,,,,,"THE MINING RECORD, 07/26/95, P16, ""DRILLING PROGRAM NOWUNDERWAY AT POLARIS TAKU"".THE MINING RECORD, 10/25/96, P1, ""POLARIS TAKU DRILLRESULTS"".CANADIAN MINING HANDBOOK, 1996-97, P93.MINING JOURNAL, V328, #8430, MAY 23, 1997, P409.THE MINING RECORD, 8/14/91, P. 3.CMH, 91-92, P.366.",,,,,,1994,,
10184438,https://mrdata.usgs.gov/mrds/show-mrds.php?dep_id=10184438,,1220100140,Akie,57.43316,-125.68496,NA,Canada,British Columbia,,B,Zinc,,"Barium-Barite, Lead",Unknown,,,Prospect,,,,,,,,,,,"Clarke, Donald",,,,,,,"MINING JOURNAL, JUN 16, 1995, P 441MINING JOURNAL, JUL 28, 1995, P 60NORTHERN MINER, JUN 26, 1995, P 3",,,,,,1994,,
10191144,https://mrdata.usgs.gov/mrds/show-mrds.php?dep_id=10191144,,1220100030,Bluebell Mine,49.75987,-116.8611,NA,Canada,British Columbia,,M,,,"Lead, Silver, Zinc",Underground,,,Past Producer,,,,,,,,,,,Unknown,,,,,,,"REF-IRVINE,W.T.,1957, THE BLUEBELL MINE, STRUCTURAL GEOLOGYCANADIAN ORE DEPOSITS, VOL. II,P95-104: GEOLOGYBRITISH COLUMBIA, ECONOMIC GEOLOGY, VOL. 65, P417-437: GAND MINERALOGY.",,,,,,,,
10191290,https://mrdata.usgs.gov/mrds/show-mrds.php?dep_id=10191290,,1220100133,Hedley Tailings,49.34983,-120.0512,NA,Canada,British Columbia,,M,Gold,,,Surface,,,Past Producer,,,,,,,,,,,"Porter, Kenneth E.",,,,,,,"CANADIAN MINES HANDBOOK, 1992-93, P.85CANADIAN MINES HANDBOOK, 1991-92, P.91METAL ECONOMICS GROUP, WORLDWIDE GOLD CAPITAL COSTS, APRIL,1990, P.B225-B228",,,,,,,,
10191410,https://mrdata.usgs.gov/mrds/show-mrds.php?dep_id=10191410,,1220100068,Mount Brussilof Mt. Eon,50.78318,-115.65108,NA,Canada,British Columbia,,M,Magnesite,,,Surface,,,Plant,,,,,,,,,"Mount Brussilof, Mt Eon",,"Wilburn, David R.",,,,,,,"SCHULTES, HAGEN B.; BAYMAG- HIGH PURITY MAGNESIUM OXIDE FROMNATURAL MAGNESITE, CIM BULL., MAY 1986, P. 43-47.NADA, MINERALS, MR 181,1978,ANADIAN MINES HANDBOOK 1979-80,1979, P.37.ANNIS,R.C.,D.A. CRANSTONE,AND M.VALLEE SURVEY OF KNOWN MIN.DEPOSITS IN CANADA THAT ARE NOT BEING MINED, EMR, MR 181,P.71.O'DRISCOLL, MIKE; BAYMAG STARTS NEW FUSED MGO PLANT,INDUSTRIAL MINERALS, DEC. 1989, P. 49-53.",,1982,,,,1965,,
10205867,https://mrdata.usgs.gov/mrds/show-mrds.php?dep_id=10205867,,1220100012,Endako Mine,54.02981,-125.1115,NA,Canada,British Columbia,,M,Molybdenum,,,Surface,,,Producer,,,Molybdenite,,Surface,,,,Endako Molybdenum Mine,,"Buckingham, David A.",,,,,,,"WESTERN MINER, ENDAKO MINES; JULY, 1974, P.23,24.PLACER DEVELOPMENT STAFF, ENDAKO: CANADA'S LARGESTMOLYBDENUM PRODUCER; CANADIAN MINING JOURNAL, AUG., 1976,P.14,17.WESTERN MINER, ENDAKO; AUG., 1976, P.29-34.CANEX PLACER LTD. STAFF, EXDAKO MINES DIVISION; IN MINERALINDUSTRIES IN WESTERN CANADA, THE TENTH COMMONWEALTHMINING AND METALLURGICAL CONGRESS- SEPT. 2-28, 1974,SECTION VI, ARTICLE P, P.1-23.DRUMMOND, A.D. AND E. T. KIMURA, HYDROTHERMAN ALTERATION ATENDAKO- A COMPARISON TO EXPERIMENTAL STUDIES; CIM BULL.,JULY, 1969, P.709-714.AKIMURA, E.T., G.D. BYSOUTH AND A.D. DRUMMOND, ENDAKO;A. SUTHERLAND BROWN, ED., IN PORPYRY DEPOSITS OF THECANADIAN CORDILLERA, SPECIAL VOLUME NO. 15, 1976,P.444-454.KIMURA, E.T. AND A.D. DRUMMOND, GEOLOGY OF THE ENDAKOMOLYBDENUM DEPOSIT; CIM BULL., JULY, 1969, P.699-708.THE NORTHERN MINER, VOL., 83, #11, MAY 12, 1997, P3.METAL BULLETIN, P. 11 (FEB. 25, 1993).WRIGHT, J.D., MILLING PRACTICE AT ENDAKO MINES LIMITED;CIM BULL., JAN., 1969, P.46-52.MACINTYRE, P.J., J.F. DAVEY AND J.D. WRIGHT, CANEX PLACERLIMITED- ENDAKO MINES DIVISION; IN MILLING PRACTICE INCANADA, CIM SPECIAL VOLUME 16, 1978, P.317,318.PLACER DEVELOPMENT LIMITED 1981 ANNUAL REPORT.",,1965,,,,1927,,
10206030,https://mrdata.usgs.gov/mrds/show-mrds.php?dep_id=10206030,,1220100023,Highmont,50.44153,-120.92625,NA,Canada,British Columbia,,M,"Copper, Molybdenum",,"Rhenium, Silver",Surface,,,Past Producer,,,"Bornite, Chalcocite, Chalcopyrite, Molybdenite, Pyrite",,Surface,,,,"Gap, Gaza, Gnawed Mountain, Jericho",,"Porter, Kenneth E.",,,,,,,"B.C. DEPT. OF MINES & PET. RES., G.E.M., 1969, 1970, 1971.CANADIAN MINES HANDBOOK 1979-80.  PP. 128-129.FINANCIAL POST SURVEY OF MINES 1978.  P. 179.ROBERTS, RICHARD J.  TECK TO BRING IN HIGHMONT FOURTH NEWMINE IN 6 YEARS.  NORTHERN MINER, APR. 26, 1979, PP. 1,7ANNIS, R.C., D.A. CRANSTONE AND M.VALLEE, A SURVEY OF KNOWNMINERAL DEPOSITS IN CANADA THAT ARE NOT BEING MINED;ENERGY, MINES AND RESOURCES CANADA, MINERALS, MR 181,1978P.38,39.MCMILLAN, W.J., GEOLOGY AND GENESIS OF THE HIGHLAND VALLEYORE DEPOSITS AND THE GUICHON CREEK BATHOLITH,  CIMSPECIAL VOLUME NO. 15, 1976, PP. 85-104.WESTERN MINER, VOL. 52, NO. 6, JUNE 1979, P. 48.BROWN, A.S., MINERALIZATION IN BRITISH COLUMBIA AND THECOPPER AND MOLYBDENUM DEPOSITS, CIM BULLETIN, JANUARY1969, PP. 26-29.MAYRS, BILL, THE VALLEY OF COPPER; HIGHLAND VALLEY COPPERGIANTS FIND BIGGER IS BETTER: CANADIAN MINING JOURNAL,SEPT. 1986, P. 21-23.SCALES, MARILYN, GRINDING OUT PROFIT; COPPER, MOLY AND COALMIX WELL FOR LORNEX: CANADIAN MINING JOURNAL, NOV. 1986,P. 37-38.HANSON, POUL, HIGHLAND VALLEY COPPER - A STRATEGY FORINCREASED PRODUCTIVITY: CIM BULL., AUG. 1987, VOL. 80,NO. 904, P. 42-45.MAYCOCK, JOYCE, CUTTING HAULAGE COSTS WITH NEW CONVEYORSYSTEM: CANADIAN MINING JOURNAL, AUG. 1987, P. 26-27.RAYMOND, G.F. AND ARMSTRONG, W.P., SAMPLE BIAS ANDCONDITIONAL PROBABILITY ORE RESERVE ESTIMATION AT VALLEY:CIM BULL., MARCH 1988, VOL. 81, NO. 911, P. 128-136.SCOTT, M.D., HIGHLAND VALLEY COPPER'S IN-PIT CRUSHING ANDCONVEYING SYSTEM: CIM BULL., SEPT. 1988, VOL. 81, NO. 917,P. 50-56.NEWCOMEN, H. WARREN AND MARTIN, DENNIS C., GEOTECHNICALASSESSMENT OF THE SOUTHEAST WALL SLOPE FAILURE AT HIGHMONTMINE, BRITISH COLUMBIA: CIM BULL., SEPT. 1988, VOL. 81,NO. 917, P. 71-76.ANON, HIGHMONT MILL MOVES DOWN THE HILL...ON PURPOSE!:E&MJ, OCT. 1988, P. 11.WALKER, SIMON, HIGHLAND VALLEY THE PROFITABLE COMBINATION:INTERNATIONAL MINING, OCT. 1988, P. 20-23.SCOTT, M.D., HIGHLAND VALLEY COPPER - TRUCK, CRUSH, CONVEY:WORLD MINING EQUIPMENT, JAN. 1989, P. 18-21.",,1981,,,,1962,,
10206116,https://mrdata.usgs.gov/mrds/show-mrds.php?dep_id=10206116,,1220100010,Gibraltar,52.51983,-122.28136,NA,Canada,British Columbia,,M,Copper,"Gold, Molybdenum, Silver",,Surface,,,Producer,,,,,Surface,,,,"Cuisson, Granite Lake Zone, Gibraltar Mine, Gibraltar East Zone, Pollyanna Zone, Gibraltar West Zone",,"Porter, Kenneth E.",,,,,,,"NORTHERN MINER.  CANADIAN MINES HANDBOOK, 1973-1974.  P. 137NORTHERN MINER.  CANADIAN MINES HANDBOOK, 1975-76.  P. 121.BROWN, A. SUTHERLAND.  GIBRALTAR MINE.  B.C. DEPT. OF MINESAND PET. RES., G.E.M., 1973, PP. 24, 299-318.CIM BULLETIN.  GIBRALTAR, PLACER DEVELOPMENT AND NEWEST MINEAUG. 1972, P. 93.CANADIAN MINING JOURNAL.  GIBRALTAR TO PRODUCE COPPER TO THEYEAR 2000.  AUG. 1976, P. 18.DRUMMOND, A.D., ET AL.  GIBRALTAR--REGIONAL METAMORPHISM,MINERALIZATION, HYDROTHERMAL ALTERATION AND STRUCTURALDEVELOPMENT, ED. BY A. SUTHERLAND BROWN.  PORPHYRYDEPOSITS OF THE CANADIAN CORDILLERA, CIM SPECIAL VOLUME15, 1976, PP. 195-205.DRUMMOND, A.D., S.J. TENNANT AND R.J. YOUNG.  THE INTER-RELATIONSHIP OF REGIONAL METAMORPHISM, HYDROTHERMALALTERATION AND MINERALIZATION AT THE GIBRALTAR MINESCOPPER DEPOSIT IN B.C.  CIM BULLETIN, FEB. 1973.ENGINEERING AND MINING JOURNAL.  GIBRALTAR COMES ON STREAMIN BRITISH COLUMBIA.  JULY 1972, PP. 92-93.INAMDAR, A. AND M. REDFERN, GIBRALTAR MINES LIMITED; MILLINGPRACTICE IN CANADA, CIM SPECIAL VOLUME 16, 1978, P.106-9.MINING MAGAZINE.  GIBRALTAR IN PRODUCTION.  JULY 1972,PP. 37, 39, 41.PENNINGTON, D.J.  WATER SUPPLY AND TAILINGS DISPOSAL.WESTERN MINER, JUNE 1972, PP. 23-25, 28, 30, 34.ROTHERHAM, D.C., S.J. TENNANT AND A.D. DRUMMOND.  GIBRALTARMINES LTD.  WESTERN MINER, JUNE 1972, PP. 40-52.STEPHENS, FRED H.  A PROSPECT THAT BECAME A MINE--GIBRALTARSHOWS PROMISE.  WESTERN MINER, JUNE 1972, P. 6.WESTERN MINER.  GIBRALTAR.  AUG. 1976, PP. 36-37, 40.WESTERN MINER.  GIBRALTAR MINES LTD.--HISTORY, GEOLOGY,EXPLORATION.  JUNE 1972, P. 40-52.WESTERN MINER.  WATER RESOURCES OF THE MINING INDUSTRY INBRITISH COLUMBIA.  DEC. 1974, PP. 33, 36, 38, 40.WORLD MINING (U.S. EDITION).  GIBRALTAR COPPER MINE STARTSUP MILLING 36,000 DAILY TONS.  JULY 1972, PP. 36-39.GIBRALTAR MINES LTD. STAFF, GIBRALTAR MINES LTD. (N.P.L.);IN MINERAL INDUSTRIES IN WESTERN CANADA, THE TENTHCOMMONWEALTH MINING AND METALLURGICAL CONGRESS- SEPT. 2-28, 1974, SECTION VI, ARTICLE N, P.1-23.O'ROURKE, J.C., THE START-UP AND OPERATION OF THE GIBRALTERMINES SX-EW PLANT: CIM BULL., DEC. 1988, P. 61-64.BRUYNESTEYN, A., LINDSAY, DEAN, AND O'ROURKE, J.C.,DEVELOPEMENT OF DUMP LEACH OPERATIONS AT GIBRALTER MINESANDERSON, SCOTT, GIBRALTER COPPER-MOLYBDENUM PRODUCER HASBECOME LOW COST OPERATION; CANADIAN MINING JOURNAL,JUNE 1990, P. 41-46.NORTHERN MINER, GIBRALTER SURVIVED DOWNTURNS TO PROFIT WHENCOPPER IS UP, JUNE 18, 1990, P. A13.THE NORTHERN MINER, 4/23/90, P. 24.THE NORTHERN MINER, 9/23/91, P. 20.THE NORTHERN MINER, 6/15/92, P. 6.THE NORTHERN MINER, 3/2/92, P. 20.THE NORTHERN MINER, 5/11/92, P. 16.THE NORTHERN MINER MAGAZINE, ""OPEN PIT GIANTS OF BRITISHCOLUMBIA"", 7/92, PP. 11-13.THE NORTHERN MINER MAGAZINE, ""TWO DECADES ON AROLLERCOASTER"", 11/92, PP. 14-17.METALS BULLETIN, 3/18/93, P. 5.METALS WEEK, 4/19/93, P. 5.METALS BULLETIN, 4/22/93, P. 9.AMERICAN METAL MARKET, 7/7/93, P. 2.METALS BULLETIN, 7/12/93, P. 6.METALS BULLETIN, 8/9/93, P. 7.SKILLINGS' MINING REVIEW, 7/24/93, P. 15.PLACER DOME PRESS RELEASE, 8/12/93.SKILLINGS' MINING REVIEW, 8/28/93, P. 19.MINING RECORD, 9/15/93, P. 5.AMERICAN METAL MARKET, 9/29/93, P. 4.AMERICAN METAL MARKET, 11/30/93, P. 2.METAL BULLETIN, 3/8/93, P. 12.SKILLINGS' MINING REVIEW, 11/20/93, P. 9.THE NORTHERN MINER, 11/15/93, P. 14.THE NORTHERN MINER, 12/6/93, P. 1.AMERICAN METAL MARKET, 3/31/94, P. 2.AMERICAN METAL MARKET, 7/21/94, P. 2.PLATT'S METALS WEEK, 7/25/94, P. 3.AMERICAN METAL MARKET, 7/26/94, P. 16.SKILLINGS MINING REVIEW, 7/30/94, P. 56.SKILLINGS', 4/30/94, P.7.AMERICAN METAL MARKET, 5/4/94, P.7.AMERICAN METAL MARKET, 9/30/94, P.5.METALS WEEK, 10/3/94, P.7.SKILLINGS MINING REVIEW-DECEMBER 11, 1993.PLACER DOME INC., 1993 ANNUAL REPORT, P. 14, 16.GIBRALTAR MINES LTD., 1993 ANNUAL REPORTS, P. 15.PLACER DOME INC., 1994 ANNUAL REPORT, P.17,19.NORTHERN MINER.  CANADIAN MINES HANDBOOK, 1980-81. P.109-110CANADIAN RESERVES OF COPPER, NICKEL, LEAD, ZINC, MOLYBDENUM,SILVER AND GOLD AS OF JAN. 1, 1978, MR 185.  GIBRALTARMINES LTD.  P. 16.CANADIAN MINES HANDBOOK 1986-87, NORTHERN MINER PRESS,P.159.MINE RESERVES AND CURRENTLY PROMISING DEPOSITS, JAN. 1985,EMR CANADA, MR 209, P. 23.GIBRALTER MINES LTD., 1989 ANNUAL REPORT: P. 4.PLACER DOME CORP., 1991 ANNUAL REPORT, P. 20.CANADIAN MINES HANDBOOK,1992-1993, P-157.",,1972,,,,1963,,
10206130,https://mrdata.usgs.gov/mrds/show-mrds.php?dep_id=10206130,,1220100043,Summers Creek,49.64843,-120.54792,NA,Canada,British Columbia,,M,Copper,,Molybdenum,Surface,,,Prospect,,,"Azurite, Biotite, Calcite, Chalcocite, Chalcopyrite, Hornblende, Malachite, Molybdenite, Pyrite, Quartz",,,,,,Axe,,"Porter, Kenneth E.",,,,,,,"DEPT. OF ENERGY, MINES AND RESOURCES, CANADA, 1978, A SURVEYOF KNOWN MINERAL DEPOSITS IN CANADA THAT ARE NOT BEINGMINED: OTTAWA, ONTARIO, MINERAL DEVELOPMENT SECTOR, UNPUB-LISHED SUMMARY REPORT, AXE, P. 38.GOLDER ASSOCIATE, INC., 1980, DEPOSIT PROFILE, SUMMERS CREEK, BRITISH COLUMBIA, CANADA: UNPUBLISHED REPORT ON FILE INMINERALS AVAILABILITY FIELD OFFICE, DENVER, COLORADO, P.3-4.CMH 1986-87, P. 375.NORTHERN MINER, 1979, GLOBAL ENERGY LOW GRADE TONNAGE BET:APRIL 26, 1979 EDITION, P. 22.",,,,,,1967,,
10206159,https://mrdata.usgs.gov/mrds/show-mrds.php?dep_id=10206159,,1220100119,Stronsay,48.41649,-123.36798,NA,Canada,British Columbia,,M,Zinc,Lead,,Underground,,,Prospect,,,,,,,,,,,"Difrancesco, Carl A.",,,,,,,"MINING MAGAZINE-JULY 1992 PG.47.-""MAJOR NEW PROJECTS""*CRU METAL MONITOR, ZINC, NOV. 1991, P. 7.ENGINEERING AND MINING JOURNAL (E&MJ), MARCH 1993,PP. 19,22.",,,,,,,,
10206164,https://mrdata.usgs.gov/mrds/show-mrds.php?dep_id=10206164,,1220100002,Britannia,49.6109,-123.143,NA,Canada,British Columbia,,M,Copper,,"Cadmium, Gold, Lead, Silver, Zinc",Underground,,,Past Producer,,,,,,,,,Britannia Mine,,"Porter, Kenneth E.",,,,,,,"ANACONDA STAFF, ANACONDA BRITANNIA MINES, DIVISION OFANACONDA CANADA LIMITED, BRITANNIA BEACH, B.C.; INMINERAL INDUSTRIES IN WESTERN CANADA, THE TENTH COMMON-WEALTH MINING AND METALLURGICAL CONGRESS- SEPT. 2-28,1974, SECTION VI, ARTICAL V, P.1-12.MR 223, 1989, B.C.-104.JOHNSON, T.W., THE TRANSITION TO TRACKLESS MINING METHODSAT ANACONDA BRITANNIA MINES; CIM BULL., JAN., 1975,P.39-44.",,,,,,,,
10206247,https://mrdata.usgs.gov/mrds/show-mrds.php?dep_id=10206247,,1220100103,Sb Silver Butte,56.10508,-130.03505,NA,Canada,British Columbia,,M,Gold,"Copper, Lead, Silver, Zinc",,Underground,,,Past Producer,,,,,,,,,"Packers, Sarah, 35 Zone, Winer, 35 Face Cut, Kansas, Silver Butte, Big Missouri",,"Porter, Kenneth E.",,,,,,,"CANADIAN MINES HANDBOOK, 91-92, P.397.",,1991,,,,,,
10206339,https://mrdata.usgs.gov/mrds/show-mrds.php?dep_id=10206339,,1220100083,Elk,49.59984,-119.05117,NA,Canada,British Columbia,,M,Gold,Silver,,Unknown,,,Prospect,,,,,,,,,"Lake, Dill, Siwash North, Bank",,"Porter, Kenneth E.",,,,,,,"CANADIAN MINES HANDBOOK, 1991-92, P.151.NORTHERN MINER, 4/1/91, P.13.SKILLINGS', 4/6/91, P.7.NORTHERN MINER, 12/16/91, P.17.NORTHERN MINER, 7/20/92, P.1,2.CANADIAN MINES HANDBOOK, 1992-93, P.141.NORTHERN MINER, 9/21/92, P.3.",,,,,,,,
10206352,https://mrdata.usgs.gov/mrds/show-mrds.php?dep_id=10206352,,1220101001,(Facility) Afton Copper Smelter,50.66654,-120.33454,NA,Canada,British Columbia,,M,Copper,"Silver, Gold",,Processing Plant,,,Plant,,,,,,,,,,,"Peterson, Gary R.",,,,,,,"CANADIAN MINES HANDBOOK 1979-80, P. 19.",,,,,,,,
10206384,https://mrdata.usgs.gov/mrds/show-mrds.php?dep_id=10206384,,1220100037,Maggie,50.92483,-121.42068,NA,Canada,British Columbia,,M,"Molybdenum, Copper",,,Surface,,,Prospect,,,"Chalcopyrite, Feldspar, Kaolinite, Molybdenite, Pyrite, Sericite",,Surface,,,,,,"Porter, Kenneth E.",,,,,,,"GOLDER ASSOCIATES.  DEPOSIT PROFILE, MAGGIE, BRITISHCOLUMBIA, CANADA, MARCH 1980, 9 PP.LODE METALS IN BRITISH COLUMBIA, BRITISH COLUMBIA DEPARTMENTOF MINES AND PETROLEUM RESOURCES, 1968, PP. 173-174.GEOLOGY, EXPLORATION AND MINING IN BRITISH COLUMBIA, BRITISHCOLUMBIA DEPARTMENT OF MINES AND PETROLEUM RESOURCES,1970, PP.324-325.1971, P 18, 304.CANADIAN MINERALS YEARBOOK, MINERAL RESOURCES BRANCH.,  DEPTOF ENERGY, MINES AND RESOURCES, 1971, P 137.EXPLORATION IN BRITISH COLUMBIA, BRITISH COLUMBIA MINISTRYOF MINES AND PETROLEUM RESOURCES, 1975, PP E91-E92.MCMYNN, J.E. ET AL. REPORT OF THE BRITISH COLUMBIA COPPERTASK, PP. 24, 65, 66.NEY, C.S. AND V.F. HOLLISTER. GEOLOGIC SETTING OF PORPHYRYDEPOSITS OF THE CANADIAN CORDILLERA. C.I.M. SPECIAL VOLNO. 15, 1976 PP 21-29CHRISTOPHER, P.A, AND N.C. CARTER. METALLOGENY AND METALLO-GENIC EPOCHS FOR PORPHYRY MINERAL DEPOSITS IN THECANADIAN CORDILLERA. C.T.M. SPECIAL VOLUME NO. 15, 1976,PP 64-71.COPPER. ENERGY, MINES AND RESOURCES CANADA, MR 149, JULY1976, P 7.EXPLORATION IN BRITISH COLUMBIA, PROVINCE OF BRITISHCOLUMBIA, MINISTRY OF ENERGY, MINES AND PETROLEUMRESOURCES, 1978, P. E172.ENERGY, MINES AND RESOURCES CANADA.  A SURVEY OF KNOWNMINERAL DEPOSITS IN CANADA THAT ARE NOT BEING MINED,MR 181, APRIL 1978. P 43.INTERNATIONAL DIRECTORY OF MINING AND MINERAL PROCESSINGOPERATIONS, ENGINEERING AND MINING JOURNAL 1978 PP. 34-35MINERAL DEVELOPMENT SECTOR, ENERGY, MINES AND RESOURCES,MAGGIE PROPERTY FILE REPORT 92I/14-CU1, EMR CANADA, 1982.MILLER, D.C., MAGGIE; A. SUTHERLAND BROWN, ED., PORPHYRYDEPOSITS OF THE CANADIAN CORDILLERA, CIM SPECIAL VOLUMENO. 15, 1976, P.329-335.EMR CANADA, CANADIAN MINERAL DEPOSITS NOT BEING MINED IN1989, MR 223, NOV. 1989, P. BC 150.",,,,,,1890,,
10206422,https://mrdata.usgs.gov/mrds/show-mrds.php?dep_id=10206422,,1220100080,Prosperity,51.46371,-123.51807,NA,Canada,British Columbia,,M,"Copper, Gold",Silver,,Surface,,,Plant,,,,,,,,,"Prosperity Gold-Copper Project, Fish Lake",,"Buckingham, David A.",,,,,,,"WORLD MINING, NOV., 1974, P.86.WORLD MINING, OCT., 1973WORLFHAND, MICHAEL R., FISH LAKE, A. SUTHERLAND BROWN, ED.,PORPHYRY DEPOSITS OF THE CANADIAN CORDILLERA, CIM SPECIALVOLUME NO.15, 1976, P.317-322.CANADIAN MINES HANDBOOK, 1986-87, PAGE 360.THE NORTHERN MINER, ""TASEKO PLANS TO SUE COMINCO REGARDINGFISH LAKE PROPERTY"", DECEMBER 31, 1990, PAGE 20.THE NORTHERN MINER, TASEKO RETAINS FISH LAKE DEPOSIT"", MAY13, 1991, PAGE 19.TASEKO MINES LTD. 1991, REPORT TO SHAREHOLDERSCANADIAN MINES HANDBOOK, 1991-92, PAGE 369.THE NORTHERN MINER, FISH LAKE RESERVES ESTIMATED TO TOPBILLION-TON LEVEL, 12/14/92, PAGE 3.TASEKO MINES LTD, PRESS RELEASE, 5/03/93, PAGE 2.TASEKO MINES LTD., 1995 ANNUAL REPORT, P.6.",,,,,,1963,,
10206433,https://mrdata.usgs.gov/mrds/show-mrds.php?dep_id=10206433,,1220100044,Rainbow,50.63593,-120.46514,NA,Canada,British Columbia,,M,Copper,,,Underground,,,Prospect,,,,,,,,,Sugarloaf Hill,,"Porter, Kenneth E.",,,,,,,"ANNIS, R.C., D.A. CRANSTONE AND M.VALLEE, A SURVEY OF KNOWNMINERAL DEPOSITS IN CANADA THAT ARE NOT BEING MINED;ENERGY, MINES AND RESOURCES CANADA, MINERALS, MR181,1978,P.41.CMH 1986-87, P. 336.EMR CANADA, CANADIAN MINERAL DEPOSITS NOT BEING MINED IN1983, MAY 1983, MR 198, P. 227.MR 223, 1989, B.C.-144.",,,,,,,,
10206581,https://mrdata.usgs.gov/mrds/show-mrds.php?dep_id=10206581,,1220100063,Dome Mountain,54.8165,-126.73489,NA,Canada,British Columbia,,M,Gold,Silver,,Underground,,,Producer,,,,,,,,,,,"Buckingham, David A.",,,,,,,"CANADIAN MINES HANDBOOK, 1997-97, P143.NORTHERN MINER, 12/23/91, P.13.",,1991,,,,,,
10206615,https://mrdata.usgs.gov/mrds/show-mrds.php?dep_id=10206615,,1220100011,Pinchi Lake Mine,54.63313,-124.4515,NA,Canada,British Columbia,,M,Mercury,,,Surface-Underground,,,Past Producer,,,,,"Surface, Underground",,,,Pinchi Lake,,Minerals Availability Field Office (Mafo),,,,,,,"MINING MAGAZINE, ENVIRONMENTAL CONTROL AND PINCHI LAKE;JULY, 1971, P.23.COMINCO LIMITED, ANNUAL REPORT, 1981.""COMINCO LIMITED - PINCHI LAKE MINE"", MILLING PRACTICE INCANADA"", THE CANADIAN INSTITUTE OF MINING ANDMETALLURGY, 1978, PP. 327-328.""COMINCO PUTS COMPACT, AGILE GRADER UNDERGROUND AT PINCHILAKE MINE"", CANADIAN MINING JOURNAL, MAY 1970,PP. 57-58.""ENVIRONMENTAL CONTROL AT PINCHI LAKE"", MINING MAGAZINE,JULY 1971, P. 23.""PINCHI LAKE: CANADA'S ONLY MERCURY MINE"", ENGINEERING ANDMINING JOURNAL, SEPTEMBER 1973, PP. 134-135.""THE PINCHI LAKE MINE"", MINERAL INDUSTRIES IN WESTERNCANADA, TENTH COMMONWEALTH MINING AND METALLURGICALCONGRESS, CANADIAN INSTITUTE OF MINING AND METALLURGY,1974, PP. 1-13.COMINCO LTD. STAFF, COMINCO LTD.- PINCHI LAKE MINE; D.E.PICKETT, ED., IN MILLING PRACTICE IN CANADA, CIM SPECIALVOLUME 16, 1978, P.327,328.CANADIAN MINING JOURNAL, COMINCO PUTS COMPACT, AGILE GRADERUNDERGROUND AT PINCHI LAKE MINE; MAY, 1970, P.57,58.",,1940,,,,1937,,
10208301,https://mrdata.usgs.gov/mrds/show-mrds.php?dep_id=10208301,,1220100086,Mosquito Creek,53.08874,-121.56105,NA,Canada,British Columbia,,M,Gold,,,Underground,,,Past Producer,,,,,,,,,"Sanders Zone, Island Mountain, Fording River, Cariboo",,"Porter, Kenneth E.",,,,,,,"CANADIAN MINES HANDBOOK 1990-91, P.318EMR CANADA, MR 223, 1989, BC-222 & 223CANADIAAN MINES HANDBOOK 1991-92, P.241,261",,1934,,,,,,
10215095,https://mrdata.usgs.gov/mrds/show-mrds.php?dep_id=10215095,,1220100123,Takla Rainbow,55.64983,-125.28487,NA,Canada,British Columbia,,M,Gold,,,Underground,,,Prospect,,,,,,,,,,,"Porter, Kenneth E.",,,,,,,"MR 223 (GOV'T. OF CANADA), 1989THE NORTHERN MINER, 3/25/91, P.15CATHEDRAL GOLD CORP. ANNUAL REPORT, 1988",,,,,,,,
10229986,https://mrdata.usgs.gov/mrds/show-mrds.php?dep_id=10229986,,1220100033,Poison Mountain,51.13311,-122.61523,NA,Canada,British Columbia,,M,Copper,"Silver, Molybdenum, Gold",,Surface,,,Prospect,,,"Bornite, Calcite, Chalcopyrite, Gold, Gypsum, Molybdenite, Pyrite, Quartz",,Surface,,,,Giant Copper,,"Porter, Kenneth E.",,,,,,,"ANNIS, R.C., D.A. CRANSTONE AND M. VALLEE, A SURVEY OF KNOWNMINERAL DEPOSITS IN CANADA THAT ARE NOT BEING MINED;ENERGY, MINES AND RESOURCES CANADA, MINERALS, MR 181,1978P.44.MINING JOURNAL, 1/27/89, P. 60.MINING JOURNAL, 12/22/89, P. 501.EMR CANADA, MINERAL PROPERTY FILE 920/2-CU1.NORTHERN MINER, 3/6/81, P. A19.SERAPHIM, R.H. AND W. RAINBOTH, A. SUTHERLAND BROWN, ED.,PORPHYRY DEPOSITS OF THE CANADIAN CORDILLERA, CIM SPECIALVOLUME NO. 15, 1976, P.323-328.CMH 1982-83, P. 99.CMH 1982-83, P. 194.CMH 1983-84, P. 200.EMR CANADA, CANADIAN MINERAL DEPOSITS NOT BEING MINED IN1989, MR 223, NOV. 1989, P. BC 186.MINING MAGAZINE, BITTERROOT TAKES OPTION ON COPPER GIANT,3/92, P. 179.NORTHERN MINER, BITTERROOT IN OPTION DEAL WITH LAC FORGIANT COPPER, 2/17/92, P. 20.MINING JOURNAL, 2/7/92, P. 97.NORTHERN MINER, 5/3/93, P. 16.SERAPHIM, R.H., & W. RAINBOTH.  POISON MOUNTAIN;A. SUTHERLAND BROWN, EDITOR,  PORPHYRY DEPOSITS OF THECANADIAN CORDILLERA.  CIM SPECIAL VOLUME NO. 15, 1976,PP 323-328.CMH 1985-86, P. 254.",,,,,,1956,,
10230056,https://mrdata.usgs.gov/mrds/show-mrds.php?dep_id=10230056,,1220100092,Kemess North,57.36654,-126.7517,NA,Canada,British Columbia,,M,"Copper, Gold",Silver,,Surface,,,Prospect,,,,,,,,,,,"Porter, Kenneth E.",,,,,,,"KEMESS PROJECT, EL CONDOR RESOURCES LTD., 6/30/91THE NORTHERN MINER, 1/20/92, P.1-2PRESS RELEASE, EL CONDOR RESOURCES LTD., 7/3/92EL CONDOR RESOURCES LTD. ANNUAL REPORT, 1992",,,,,,,,
10230169,https://mrdata.usgs.gov/mrds/show-mrds.php?dep_id=10230169,,1220100139,Kerr Sulphurets,56.47478,-130.26848,NA,Canada,British Columbia,,M,"Gold, Copper",,,Surface,,,Prospect,,,,,,,,,,,"Porter, Kenneth E.",,,,,,,"ENGINEERING AND MINING JOURNAL, 9/89, P.99.CANADIAN MINING JOURNAL, 3/90, P.42.CANADIAN MINES HANDBOOK, 1990-91, P.363.CANADIAN MINES HANDBOOK, 1991-92, P.319.EMR CANADA, MR223, 1989, BC-321.NORTHERN MINER, 7/22/91, P.20.PLACER DOME INC., NEWS RELEASE, 12/23/91.SKILLINGS', 1/25/92, P.18.PLACER DOME INC., 1992 ANNUAL REPORT, P.8.PLACER DOME INC., 1993 ANNUAL REPORT, P.13,14.PLACER DOME INC., PRESS RELEASE, 2/26/96,PLACER DOME INC., 1994 ANNUAL REPORT, P.16,17.PLACER DOME INC., PRESS RELEASE, 2/22/96, P.11.",,,,,,,,
10230215,https://mrdata.usgs.gov/mrds/show-mrds.php?dep_id=10230215,,1220100046,Powell River Ok,50.04148,-124.64856,NA,Canada,British Columbia,,M,"Molybdenum, Copper","Silver, Gold",,Surface,,,Prospect,,,,,,,,,"Ok, Powell River",,"Porter, Kenneth E.",,,,,,,"MEYER, W., R.E. GALE AND A.W. RANDALL, A. SUTHERLAND BROWN,PORPHYRY DEPOSITS OF THE CANADIAN CORDILLERA, CIM SPECIALVOLUME NO. 15, 1976, P.311-316.CANADIAN MINES HANDBOOK- 1991-1992, P-337.NAGMIN, RHYOLITE, LUMBERTON AGREE ON DEVELOPING OK PROPERTY,VOL 2, NO. 22, NOVEMBER 23, 1984, PP. 1,2.E/MJ, 7/80, P. 172.MINING JOURNAL, 2/18/83, P. 113.NORTH AMERICAN GOLD MINING, NOV. 23, 1984.CMH 1986-87, PP. 324-325.MR 223, 1989, B.C.-165.CANADIAN MINES HANDBOOK, 1991-92, P. 337.NORTHERN MINER, 2/21/94, P. 1.",,,,,,,,
10230228,https://mrdata.usgs.gov/mrds/show-mrds.php?dep_id=10230228,,1220100087,Johnny Mountain,56.62477,-131.06291,NA,Canada,British Columbia,,M,Gold,Silver,Copper,Underground,,,Past Producer,,,,,Surface,,,,"Stonehouse, Harmer Mine, Reg Claims, Homestake, Mcfadden, Pickaxe",,"Porter, Kenneth E.",,,,,,,"PRIVATE SOURCE (COMMENT: B-001)CANADIAN MINES HANDBOOK 1990-91, P.406CANADIAN MINES HANDBOOK 1989-90, P.419NORTHERN MINER, 6/18/90, P. B9.",,1988,,,,,,
10230300,https://mrdata.usgs.gov/mrds/show-mrds.php?dep_id=10230300,,1220100104,Windy Craggy,59.74972,-137.8355,NA,Canada,British Columbia,,M,"Copper, Cobalt","Zinc, Silver, Gold",,Surface-Underground,,,Prospect,,,,,,,,,"Alsek, Windy, Tats Claims",,"Porter, Kenneth E.",,,,,,,"CMH 1986-87, P. 156.PETER, J. M., THE WINDY CRAGGY COPPER-COBALT-GOLD MASSIVESULFIDE DEPOSIT, NORTHWESTERN BRITISH COLUMBIA, B. C.MINISTRY OF ENERGY, MINES AND PETROLEUM RESOURCES,GEOLOGICAL FIELDWORK, 1988, PAPER 1989-1SCALES, MARILYN, HOLDING PATTERN, NEW MINES WAIT AND WAITFOR OKAY TO PROCEED, CANADIAN MINING JOURNAL, 2/92, P.10-14.NORTHERN MINER, 2/22/93, P.1.NORTHERN MINER, 3/8/93, P.5.NORTHERN MINER, 4/12/93, P.1,2.MINING JOURNAL, 6/18/93, P.457,459.NORTHERN MINER, 6/21/93, P.4.METAL BULLETIN, 6/28/93, P.6.METALS WEEK, 6/28/93, P.3.NORTHERN MINER, 6/28/93, P.1,6.NORTHERN MINER, 6/28/93, P.4.MINING IN BC, JUNE/JULY, 1993, P.1,3.INFO-DATA NEWS, 7/93, P.1.RADFORD, GEOFF, EXPLORING THE PEAKS, NORTHERN MINER MAGAZINE2/86, P.75-77.HOPKINS, JOHN L., WINDY CRAGGY PROPERTY, CANADIAN MININGJOURNAL, 4/86, P.22-23.NORTHERN MINER, 1/24/90, P.17.NORTHERN MINER, 2/19/90, P.6.NORTHERN MINER, 5/28/90, P.4.METALS WEEK, 5/28/90, P.8.DANIELSON, VIVIAN, GEDDES CONFIRMS THIRD ZONE AT WINDYCRAGGY, NORTHERN MINER, 10/15/90, P.1,2.DANIELSON, VIVIAN, GEDDES DETERMINED TO DEVELOP WINDY CRAGGYDESPITE HURDLES, NORTHERN MINER, 7/2/90, P.1,23.OUDEN, PAMELA DEN, A CLASSIC STRUGGLE, CANADIAN MININGJOURNAL, 10/90, P.16-22.MINING IN BC, 1/91, P.6.DANIELSON, VIVIAN, GEDDES' NEW PLAN SHOWS LESS ACID DRAINAGELIKELY, 1/7/91, P.1,2.HARPER, G., GEOLOGY AND DEVELOPMENT OF THE WINDY CRAGGYDEPOSIT IN BRITISH COLUMBIA, PRESENTED AT 1991 SME ANNUALMEETING, FEB. 25-28, 1991, PREPRINT NUMBER 91-31, 3.PP.NORTHERN MINER, 7/8/91, P.1,2.MINING JOURNAL, 3/22/91, P.214.MINING MAGAZINE, 5/91, P.271.GERHARDT, GARY, ACTIVIST ENLISTS HELP IN DENVER TO SAVECANADIAN RIVER, ROCKY MOUNTAIN NEWS, 5/28/91, P.24.MINING IN BC, 10/91, P.5.NORTHERN MINER, 12/2/91, P.1,2.WILSON, HAROLD, WINDY CRAGGY BIG ISSUE IN BRITISH COLUMBIA,AMERICAN METAL MARKET, 1/7/92, P.4,10.DEPARTMENT OF STATE, TELEGRAM, 4/92, SHB5131, 3PP.NORTHERN MINER, 4/13/92, P.12.NORTHERN MINER, 4/20/92, P.A6.ENGINEERING AND MINING JOURNAL, 6/92, P.16AA,16BB,16DD.NORTHERN MINER, 6/22/92, P.3.AMERICAN METAL MARKET, 12/18/92, P.7,10.NORTHERN MINER, 2/1/93, P.1,2.CANADIAN MINERAL DEPOSITS NOT BEING MINED IN 1983,EMR CANADA, MR 198, P. 253.GEDDES RESOURCES LTD., 1989 ANNUAL REPORT, P.7GEDDES RESOURCES LTD., 1988 ANNUAL REPORT, P.16CANADIAN MINES HANDBOOK, 1989-90, P.186CANADIAN MINES HANDBOOK, 1991-92, P.165CANADIAN MINES HANDBOOK 1992-1993, P-155.GEDDES RESOURCES LTD., 1990 ANNUAL REPORT,CLARIDGE, PHILIP G., AND DOWNING, BRUCE W., ENVIRONMENTALGEOLOGY AND GEOCHEMISTRY AT THE WINDY CRAGGY MASSIVESULPHIDE DEPOSIT, NORTHWESTERN BRITISH COLUMBIA, CIM BULL.1/93, P.50-57.",,,,,,1958,,
10230305,https://mrdata.usgs.gov/mrds/show-mrds.php?dep_id=10230305,,1220100136,Copper Canyon Deposit,57.11647,-131.34624,NA,Canada,British Columbia,,M,Copper,"Gold, Silver",,Underground,,,Prospect,,,,,,,,,Fairhaven Resources Ltd,,"Palencia, Cesar M.",,,,,,,"THE NORTHERN MINER, 6/17/91, P. A6.THE NORTHERN MINER, 9/24/90, P. 15.ENGINEERING AND MINING JOURNAL, 9/92, P. 35.THE NORTHERN MINER, 2/25/91, P. 19.CANADIAN MINES HANDBOOK, 1992-1993, P-109THE NORTHERN MINER-JUNE 17, 1991.E/MJ SEPT. 9,1992, P-35.",,,,,,,,
10230370,https://mrdata.usgs.gov/mrds/show-mrds.php?dep_id=10230370,,1220100069,Gem,49.71652,-121.71516,NA,Canada,British Columbia,,M,Molybdenum,,,Unknown,,,Prospect,,,,,,,,,"Bailey, Meg",,"Porter, Kenneth E.",,,,,,,"BROWN, A. SUTHERLAND, (ED), PORPHYRY DEPOSITS OF THECANADIAN CORDILLERA; DEDICATED TO CHARLES S. NEY,CIMM SPECIAL VOLUME 15, 1976, TABLE 1 (IN POCKET) BYPILCHER, S.H. AMD MCDOUGAL, J.J.YOUNG, M. AND AIRD, C., GEOLOGY OF THE GEM MOLYBDENUM6DEPOSIT; CIM BULL., VOL. 62, NO. 681, 1969, P.41.6ANNIS, R.C., D.A. CRANSTONE AND M. VALLEE, A SURVEY OF KNOWNMINERAL DEPOSITS IN CANADA THAT ARE NOT BEING MINED;EMR, MR 181, 1978, P. A-37.",,,,,,,,
10230418,https://mrdata.usgs.gov/mrds/show-mrds.php?dep_id=10230418,,1220108807,Trail Phosphoric Acid Plant,49.1016,-117.7185,NA,Canada,British Columbia,,N,Phosphorus-Phosphates,,,Processing Plant,,,Plant,,,,,,,,,,,"Fantel, Richard J.",,,,,,,"INTERNATIONAL FERTILIZER INDUSTRY ASSOCIATION. PHOSPHORICACID, TRIPLE SUPERPHOSPHATE, AND AMMONIUM PHOSPHATE PLANTS1988 SURVEY. AUGUST 1988, 39PP.BRITISH SULPHUR CORPORATION. WORLD FERTILIZER ATLAS, EIGHTHED. APRIL 1987, 121PP.",,1931,,,,,,
10230429,https://mrdata.usgs.gov/mrds/show-mrds.php?dep_id=10230429,,1220100085,Fairview,49.19984,-119.64288,NA,Canada,British Columbia,,M,Gold,Silver,,Underground,,,Past Producer,,,,,,,,,Stemwinder,,"Porter, Kenneth E.",,,,,,,"MR 223 (GOV'T. OF CANADA), 1989CURRENT LATE-STAGE CANADIAN GOLD PROJECTS (METALS ECONOMICSGROUP), 6/92, P.363-8",,,,,,,,
10230435,https://mrdata.usgs.gov/mrds/show-mrds.php?dep_id=10230435,,1220100089,Mount Milligan,55.12454,-124.02931,NA,Canada,British Columbia,,M,"Copper, Gold",,,Unknown,,,Prospect,,,,,,,,,"Mbx, Southern Star",,"Buckingham, David A.",,,,,,,"CANADIAN MINES HANDBOOK, 1991-92, PAGE 319.MINING REVIEW, NOV/DEC, 1990, PAGE 4-11.PLACER DOME INC., 1992 PRESS RELEASE, 2/3/92, PAG3 1, 2.CRU INTERNATIONAL LTD., COPPER GREENFIELDS MINES PROJECTSFOR THE 1990'S, PAGE 80-82, 1993.",,,,,,1986,,
10230472,https://mrdata.usgs.gov/mrds/show-mrds.php?dep_id=10230472,,1220100058,Lucky Ship,54.03308,-127.48488,NA,Canada,British Columbia,,M,Molybdenum,,,Unknown,,,Prospect,,,,,,,,,,,"Porter, Kenneth E.",,,,,,,,,,,,,,,
10230608,https://mrdata.usgs.gov/mrds/show-mrds.php?dep_id=10230608,,1220100051,Roundy Creek,55.41647,-129.65171,NA,Canada,British Columbia,,M,Molybdenum,,,Unknown,,,Prospect,,,,,,,,,,,"Porter, Kenneth E.",,,,,,,"WOODCOCK, J.R., AND N.C. CARTER, GEOLOGY AND GEOCHEMISTRYOF THE ALICE ARM MOLYBDENUM DEPOSITS; A. SUTHERLANDBROWN, ED., IN PORPHYRY DEPOSITS IN THE CANADIANCORDILLERA, CIM SPECIAL VOLUME NO. 15, 1976, P.462-475.",,,,,,,,
10230646,https://mrdata.usgs.gov/mrds/show-mrds.php?dep_id=10230646,,1220100020,Ruth Vermont,50.94987,-116.98113,NA,Canada,British Columbia,,M,"Lead, Silver, Zinc","Cadmium, Copper, Gold",,Underground,,,Producer,,,,,Underground,,,,,,"Porter, Kenneth E.",,,,,,,"REF-THE FINANCIAL POST SURVEY OF MINES,1975,P185; GRADE & REREF-B.C. DEPT. OF MINES & PET. RES., GEM;1970,P467-8, 1973,PDEVELOPMENT, LOCATIONREF-MINISTER OF MINES, B.C., ANN. REPT., 1966, P230-5; GEOLO",,,,,,,,
10230720,https://mrdata.usgs.gov/mrds/show-mrds.php?dep_id=10230720,,1220100065,Blizzard,49.61655,-118.91787,NA,Canada,British Columbia,,M,Uranium,,,Surface,,,Prospect,,,,,,,,,,,"Porter, Kenneth E.",,,,,,,"ENGINEERING AND MINING JOURNAL, JULY, L978, P.147SAWYER, D.A., THE BLIZZARD URANIUM DEPOSIT; CANADIAN MININGJOURNAL, APRIL, 1979, P.44-47.NORTHERN MINER, POTENTIAL $1 BILLION  BLIZZARD ORE DEPOSIT;JUNE 8, 1978, P.1,2.WORLD MINING, DRILLING PROGRAM INDICATES POSSIBLE HIGH GRADEZONE AT BLIZZARD URANIUM PROPERTY; JULY, 1978, P. 78.WORLD MINING, BLIZZARD U308 PROPERTY; 1,800,000 TONS OF ORREINDICATED; SEPT., 1978, P.172.WORLDD MINING, JAN., 1979, P.84ENGINEERING AND MINING JOURNAL, OCT., 1978, P.326, 330.",,,,,,,,
10232339,https://mrdata.usgs.gov/mrds/show-mrds.php?dep_id=10232339,,1220100074,Chu Chua,51.36924,-120.05955,NA,Canada,British Columbia,,M,Copper,"Zinc, Silver, Gold, Cobalt",,Surface,,,Prospect,,,,,,,,,"Barriere, Chu Chua Mountain",,"Porter, Kenneth E.",,,,,,,"NORTHERN MINER, THE, OCT. 12, 1978, P.1NOV. 16, 1978, P.7DEC. 28, 1978, P.A3JAN. 18, 1979, P.A27JAN. 25, 1979, P.9FEB. 1, 1979, P.3MAR. 8, 1979, P.A4APR. 26, 1979, P.23SKILLING'S MINING REVIEW, DEC.2, 1978, P.12ENGINEERING AND MINING JOURNAL, MAR., 1979, P.31MINING JOURNAL, 4/20/84, P. 270.MINING JOURNAL, 7/16/82, P. 49.MINING MAGAZINE, 10/92, P. 267.MINING JOURNAL, 10/14/88, P. 296.MINING JOURNAL, 8/11/89, P. 106.MINING JOURNAL-AUG. 10, 1989, P-106.NORTHERN MINER PRESS LTD., CANADIAN MINES HANDBOOK 1979-80,1979, P.85, 204, 251, 286.MR 223, 1989, B.C.-197.CANADIAN MINES HANDBOOK, 1991-92, PP. 256, 287, 327.",,,,,,,,
10232662,https://mrdata.usgs.gov/mrds/show-mrds.php?dep_id=10232662,,1220100038,Galore Creek,57.13307,-131.45605,NA,Canada,British Columbia,,M,Copper,"Silver, Gold",,Surface,,,Prospect,,,"Azurite, Bornite, Chalcopyrite, Galena, Gold, Magnetite, Malachite, Pyrite, Silver, Sphalerite",,Surface,,,,"Hab, Stikine Copper",,"Porter, Kenneth E.",,,,,,,"ALLEN, D.G., A. PANTELEYEV AND A.T. ARMSTRONG.  GALORECREEK.  PORPHYRY DEPOSITS OF THE CANADIAN CORDILLERA,CIM SPECIAL VOLUME 15, 1976, PP. 402-414.BRITISH COLUMBIA DEPARTMENT OF MINES AND PETROLEUM RESOURCESLODE METALS IN BRITISH COLUMBIA, 1965, P 24-29.CANADIAN MINERALS YEARBOOK, 1971. MINERAL RESOURCES BRANCH,DEPARTMENT OF ENERGY, MINES AND RESOURCES, OTTAWA, P.137.ECONOMIC MINERALS OF WESTERN CANADA.  ECONOMIC GEOLOGYREPORT NO 1, GEOLOGICAL SURVEY OF CANADA, 1970, P 511-513MCMYNN, J.E. ET AL. REPORT OF THE BRITISH COLUMBIA COPPERTASK FORCE, 1975, P 24, 65-66.WHITE, W.H. ET AL. POTASSIUM-ARGON AGES OF SOME ORE DEPOSITSIN BRITISH COLUMBIA, CIM BULLETIN, NOVEMBER 1968.EXPLORATION IN BRITISH COLUMBIA. PROVINCE OF BRITISHCOLUMBIA MINISTRY OF MINES AND PETROLEUM RESOURCES, 1976.GOLDER ASSOCIATES, GALORE CREEK, DEPOSIT PROFILE PREPAREDUNDER CONTRACT FOR THE U.S. BUMINES, MARCH 1980, 10 P.BARR, D.A., THE GALORE CREEK COPPER DEPOSITS; CIM BULL.,JULY, 1966, P.841-853.THE NORTHERN MINER, 10/1/90, P. 5.CANADIAN MINES HANDBOOK, 1979-1980, P.265.CMH 1985-86, P. 381.EMR CANADA, CANADIAN MINERAL DEPOSITS NOT BEING MINED IN1983, MAY 1983, MR 198, P. 249.1989, NOV. 1989, MR 223, P.B.C. 330.",,,,,,1955,,
10240615,https://mrdata.usgs.gov/mrds/show-mrds.php?dep_id=10240615,,1220100060,Mt.Haskins,59.33314,-129.4852,NA,Canada,British Columbia,,M,Molybdenum,"Copper, Zinc","Bismuth, Silver",Unknown,,,Prospect,,,,,,,,,Joem,,"Porter, Kenneth E.",,,,,,,"ANNIS, R.C., D.A. CRANSTONE AND M. VALLEE, A SURVEY OF KNOWNMINERAL DEPOSITS IN CANADA THAT ARE NOT BEING MINED;ENERGY, MINES AND RESOURCES CANADA, MINERALS,MR 181,1978,P.A-35",,,,,,,,
10254907,https://mrdata.usgs.gov/mrds/show-mrds.php?dep_id=10254907,,1220100101,Golden Bear,58.21618,-132.28523,NA,Canada,British Columbia,,M,Gold,Silver,,Surface-Underground,,,Producer,,,,,,,,,"Bear, Totem, Fleece",,"Buckingham, David A.",,,,,,,"MINING JOURNAL, JUL 14, 1995, P 26NORTHERN MINER, JUN 26, 1995, P 7NORTHERN MINER, JUN 19, 1995, P 15MINING MAGAZINE, 10/87, PAGE 300-301.RAMSEY, KATHY, NATIVE LAND CLAIMS AND THE MINING INDUSTRY,THE GOLDER BEAR STORY; MINING IN BRITISH COLUMBIA, 1991,PAGE 30-32.NORTHERN MINER, 4/9/90, PAGE 6.MCALPINE, STEVEN, GOLDEN BEAR MINE, WINNING WITH FIRSTNATIONS, CIM, BULL, NOV/DEC, 1992, PAGE 45-47.CANADIAN MINES HANDBOOK, 1996-97, PP. 317, 422.CANADIAN MINES HANDBOOK, 1991-92, PAGE 275.PRIVATE COMPANY SOURCE, SEE REFERENCE ""B"" 001-002.THE NORTHERN MINER, ""GOLDEN BEAR TURNAROUND"", VOL. 77, #52,PAGES 1-2, (DATE NOT READABLE, SOMETIME IS EARLY 1992.)CANADIAN MINES HANDBOOK, 1992-93, PAGE 258.",,1990,,,,1981,,
10255013,https://mrdata.usgs.gov/mrds/show-mrds.php?dep_id=10255013,,1220100105,Quesnell Lake,54.99987,-122.00142,NA,Canada,British Columbia,,N,Fluorine-Fluorite,,,Underground,,,Prospect,,,,,,,,,Quesnel Lake,,Unknown,,,,,,,"NORTHERN MINER, JULY 29, 1982EAGLET MINESNORTHERN MINER, MARCH 19, 1982NORTHERN MINER, AUGUST 9, 1982",,,,,,,,
10255065,https://mrdata.usgs.gov/mrds/show-mrds.php?dep_id=10255065,,1220100093,Premier,56.06057,-130.03505,NA,Canada,British Columbia,,M,Gold,Silver,,Underground,,,Producer,,,,,,,,,"Martha Ellen, Premier Pit, Dago, Premier Gold Project, Province, Big Missouri, Northern Lights",,"Buckingham, David A.",,,,,,,"MRI 213, 1986, P298, 12/31/89MINING ACTICITY DIGEST. 12/31/90. P. 4.CANADIAN MINES 1990-01, P 360.CANADIAN MINES HANDBOOK, 1991-92, P. 397.WESTMIN RESOURCES LTD., ANNUAL REPORT. 1991. P.11.CANADIAN MINES HANDBOOK, 1996-97, PP. 439, 440, 483.",,1989,,,,,,
10255281,https://mrdata.usgs.gov/mrds/show-mrds.php?dep_id=10255281,,1220100013,Congress,50.90231,-122.78963,NA,Canada,British Columbia,,M,Gold,,,Underground,,,Prospect,,,,,,,,,"Howard Level, Zone 3a, Gold Bridge",,"Porter, Kenneth E.",,,,,,,"MR223, 1989, (BC-158)MINING JOURNAL, 8/5/88, P.101.MINING JOURNAL, 10/21/88, P.317.MINING RECORD, 10/12/88, P.9.ENGINEERING AND MINING JOURNAL, 1/89, P.7.MINING RECORD, 2/22/89, P.22.",,,,,,,,
10255362,https://mrdata.usgs.gov/mrds/show-mrds.php?dep_id=10255362,,1220100003,Giant Nickel Mine,49.46982,-121.52125,NA,Canada,British Columbia,,M,,,"Cobalt, Copper, Nickel",Underground,,,Past Producer,,,,,,,,,Pride of Emory Mine,,"Porter, Kenneth E.",,,,,,,"GIANT MASCOT MINES STAFF, GIANT MASCOT MINES; IN MINERALINDUSTRIES IN WESTERN CANADA, THE TENTH COMMONWEALTHMINING AND METALLURGICAL CONGRESS- SEPT. 2-28, 1974,SECTION VI, ARTICLE J, P.1-17.",,,,,,,,
10255439,https://mrdata.usgs.gov/mrds/show-mrds.php?dep_id=10255439,,1220102130,Brandywine Operations,50.1298,-123.10132,NA,Canada,British Columbia,,M,"Lead, Copper, Gold, Silver, Zinc",,,Processing Plant,,,Producer,,,,,,,,,,,Zimbelman,,,,,,,"BUREAU OF MINES MINERALS YEARBOOK (PREPRINT), SILVER, U.S.DEPT. OF THE INTERIOR, BUREAU OF MINES, 1977, P. G.1979 E/MJ INTERNATIONAL DIRECTORY OF MINING AND MINERALPROCESSING OPERATIONS, P. 296.",,,,,,,,
10255463,https://mrdata.usgs.gov/mrds/show-mrds.php?dep_id=10255463,,1220100006,Phoenix,49.09985,-118.60115,NA,Canada,British Columbia,,M,Copper,"Gold, Silver",,Surface,,,Past Producer,,,"Amphibole, Calcite, Chalcopyrite, Chlorite, Epidote, Garnet, Gold, Hematite, Magnetite, Pyrite, Pyroxene, Silver",,Surface,,,,Phoenix Mine,,"Porter, Kenneth E.",,,,,,,"WESTERN MINER, PHOENIX, WHERE IT ALL STARTED AND STILL GOES;JUNE, 1974, P.23-29.WESTERN MINER, MARCH, 19759B.C. DEPT. OF MINES AND PET. RES., G.E.M., 1973, P.39-40.REF-STRUCTURAL GEOL. OF CAN. ORE DEP.,VOL II,1957,PP132-136GRANBY MINING CO. LTD. STAFF, PHOENIX; IN MINERAL INDUSTRIESIN WESTERN CANADA, THE TENTH COMMONWEALTH MINING ANDMETALLURGICAL CONGRESS- SEPT. 2-28, 1974, SECTION VI,ARTICLE G, P.1-7.HARDWICKE, G.B., G.W. HINGLEY AND J.M. KAZAKOFF, GRANBYMINING CORPORATION; D.E. PICKETT, ED., IN MILLINGPRACTICE IN CANADA, CIM SPECIAL VOLUME 16, 1978,P.109-111",,1900,,,,1891,,
10255503,https://mrdata.usgs.gov/mrds/show-mrds.php?dep_id=10255503,,1220100131,Rock @ Roll,56.71647,-131.25182,NA,Canada,British Columbia,,M,Gold,,"Copper, Lead, Silver, Zinc",Unknown,,,Unknown,,,,,,,,,Bornagain,,"Porter, Kenneth E.",,,,,,,"CMH, 91-92, 150,374.NORTHERN MINER, 5/20/91, P.3.",,,,,,,,
10255509,https://mrdata.usgs.gov/mrds/show-mrds.php?dep_id=10255509,,1220100040,Ja Zone,50.47623,-120.97626,NA,Canada,British Columbia,,M,"Molybdenum, Copper",,,Surface,,,Prospect,,,"Biotite, Bornite, Calcite, Chalcopyrite, Epidote, Feldspar, Gypsum, Molybdenite, Pyrite",,Underground,,,,,,"Porter, Kenneth E.",,,,,,,"COAKLEY, GEORGE J.  REPORT ON FIELD TRIP TO HIGHLAND VALLEY,B.C. COPPER DISTRICT, APR., 27-29, 1977.  JULY 14, 1977,P. 12-16.MCMILLAN, W.J., J.A.; A. SUTHERLAND BROWN, ED., PORPHYRYDEPOSITS OF THE CANADIAN CORDILLERA, CIM SPECIAL VOLUME15, 1976, P.144-162.BETHLEHEM COPPER CORPORATTION,1977,TWENTY-SECOND ANNUAL RE-PORT,1976: 1055 W. HASTINGS ST., VANCOUVER, BRITISH COLUM-BIA, P. 8-11. (RESERVES AS OF DECEMBER 31, 1976)EMR CANADA, CANADIAN MINERAL DEPOSITS NOT BEING MINED IN1989, MR 223, NOV., 1989, P. BC 131.",,,,,,1971,,
10255551,https://mrdata.usgs.gov/mrds/show-mrds.php?dep_id=10255551,,1220100094,Bruceside,56.46618,-130.19067,NA,Canada,British Columbia,,M,"Gold, Silver",,,Underground,,,Prospect,,,,,,,,,"Sulphurets, Snowfields, Bruce-Jack",,"Porter, Kenneth E.",,,,,,,"CANDADIAN MINES HANDBOOK, 1991-92, P. 270.",,,,,,,,
10255601,https://mrdata.usgs.gov/mrds/show-mrds.php?dep_id=10255601,,1220100015,Granduc,56.21647,-130.35177,NA,Canada,British Columbia,,M,Copper,"Gold, Silver",,Underground,,,Past Producer,,,"Arsenopyrite, Calcite, Chalcopyrite, Chlorite, Cobaltite, Galena, Gold, Magnetite, Pyrite, Pyrrhotite, Quartz, Silver, Sphalerite, Tourmaline, Zircon",,Underground,,,,,,"Porter, Kenneth E.",,,,,,,"B.C. DEPT OF MINES AND PET. RES., G.E.M., 1973, PP. 24, 497.CANADIAN MINES HANDBOOK 1978-79.  NEWMONT MINES LTD. P. 202.CRANSTONE, D.A. AND R.T. WHILLANS.  CANADIAN RESERVES OFCOPPER, NICKEL, LEAD, ZINC, MOLYBDENUM, SILVER AND GOLD,AS OF JAN. 1, 1978.  P. 16.ENGINEERING AND MINING JOURNAL.  GRANDUC APPROACHES INITIALPRODUCT STAGE.  SEPT. 1970, PP. 109-113.MATTSON, R.S. AND J.A. COX.  SUBLEVEL CAVING AND DRAWCONTROL PROCEDURES AT GRANDUC.  CIM BULLETIN, APRIL 1973NATIONAL ATLAS OF CANADA, 1969.SKILLINGS.  ESSO MINERALS CANADA TO REOPEN GRANDUC COPPERPROPERTY.  MARCH 1979, P. 21.WESTERN MINER.  GRANDUC MINE TO REOPEN UNDER ESSO AGREEMENT.MARCH 1979, P. 34.WESTERN MINER.  GRANDUC PERFORMANCE IMPROVES.  JUNE 73, P.52EYLES, N. AND R.G. ROGERSON, CANADIAN MINING JOURNAL, JULY,1977, P.32.WESTERN MINER, MINING OPERATIONS DEPEND ON SNOW-CLEARINGIDEA; FEB., 1974, P.46,47.ENGINEERING AND MINING JOURNAL, GRANDUC MAKES ITS MARK INMINING EVEN BEFORE PRODUCTION STARTS; SEPT., 1969,P.266,267.WESTERN MINER, GRANDUC IMPROVEMENT, AUG., 1973, P.43.WESTERN MINER, GRANDUC OPERATING COMPANY, MAR., 1975, P.32.MEYKNECHT, J.J.M., GRANDUC; D.E. PICKETT, ED., IN MILLINGPRACTICE IN CANADA, CIM SPECIAL VOLUME 16, 1978,P.112-113MR 223, 1989, B.C. 318.",,1971,,,,1951,,
10255636,https://mrdata.usgs.gov/mrds/show-mrds.php?dep_id=10255636,,1220100061,Krain,50.57063,-120.99706,NA,Canada,British Columbia,,M,Copper,Molybdenum,,Surface,,,Prospect,,,,,,,,,,,"Porter, Kenneth E.",,,,,,,"ANNIS,R.C.,D.A. CRANSTONE AND M. VALLEE, A SURVEY OF KNOWNMINERAL DEPOSITS IN CANADA THAT ARE NOT BEING MINED;ENERGY, MINES AND RESOURCES CANADA, MINERALS, MR181,1978,P.43.CHRISTIE, JAMES S., KRAIN; A. SUTHERLAND BROWN, ED.,PORPHYRY DEPOSITS OF THE CANADIAN CORDILLERA, CIM SPECIALVOLUME 15, 1976, P.182-185.MR 223, 1989, B.C.-146.",,,,,,,,
10257029,https://mrdata.usgs.gov/mrds/show-mrds.php?dep_id=10257029,,1220100050,Bell Molybdenum,55.44978,-129.335,NA,Canada,British Columbia,,M,Molybdenum,,,Unknown,,,Prospect,,,,,,,,,,,"Porter, Kenneth E.",,,,,,,"ANNIS, R.C., D. A. CRANSTONE AND M. VALLEE, A SURVEY OF KNOWMINERAL DEPOSITS IN CANADA THAT ARE NOT BEING MINED;ENERGY, MINES AND RESOURCES CANADA, MINERALS, MR 181,1978P.48.WOODCOCK, J.R. AND N.C. CARTER, GEOLOGY AND GEOCHEMISTRY OFTHE ALICE ARM MOLYBDENUM DEPOSITS; A. SUTHERLAND BROWN,ED., IN PORPHYRY DEPOSITS IN THE CANADIAN CORDILLERA,SPECIAL VOLUME NO.15., 1976, P.462-475.",,,,,,,,
10257224,https://mrdata.usgs.gov/mrds/show-mrds.php?dep_id=10257224,,1220100059,Mt. Thomlinson,55.5831,-127.48494,NA,Canada,British Columbia,,M,Molybdenum,,,Underground,,,Prospect,,,Molybdenite,,Underground,,,,Mt. Thomlinson Molybdenum Deposit,,C M P,,,,,,,"PORPHRY DEPOSITS OF THE CANADIAN CORDILLERA.  THECANADIAN INSTITUTE OF MINING AND METALLURGY, 1976.",,,,,,1962,,
10264954,https://mrdata.usgs.gov/mrds/show-mrds.php?dep_id=10264954,,1220100096,Red Dog,56.13308,-130.00174,NA,Canada,British Columbia,,M,Gold,,,Underground,,,Prospect,,,,,,,,,,,"Porter, Kenneth E.",,,,,,,"CANADIAN MINES HANDBOOK 1981-82, P.98WORLD MINING, JUNE,1981, P.147.WORLDMINING, AUGUST, 1981, P.74.",,,,,,,,
10278625,https://mrdata.usgs.gov/mrds/show-mrds.php?dep_id=10278625,,1220100120,Snowbird,54.44983,-124.5015,NA,Canada,British Columbia,,M,Gold,,,Underground,,,Prospect,,,,,,,,,Ennadai,,"Porter, Kenneth E.",,,,,,,"MR 223 (GOV'T. OF CANADA), 1989CANADIAN MINES HANDBOOK, 1991-92, P.404THE NORTHERN MINER, 1/28/91, P.6",,,,,,,,
10278688,https://mrdata.usgs.gov/mrds/show-mrds.php?dep_id=10278688,,1220100127,Frasergold,52.30265,-120.57349,NA,Canada,British Columbia,,M,Gold,,,Surface-Underground,,,Prospect,,,,,,,,,Frasergold Property,,"Porter, Kenneth E.",,,,,,,"THE NORTHERN MINER, 6/18/90, P. A17.THE NORTHERN MINER, 3/9/92, PAGE 6.",,,,,,1989,,
10278767,https://mrdata.usgs.gov/mrds/show-mrds.php?dep_id=10278767,,1220100024,Bralorne,50.78041,-122.81522,NA,Canada,British Columbia,,M,Gold,,,Underground,,,Past Producer,,,,,,,,,"Bralorne-Pioneer MinePioneer, King",,"Porter, Kenneth E.",,,,,,,"WESTERN MINER, MARCH 1975; RESOURCE AND RESERVE ESTIMATES.WORLD MINING, MAY 1975; RESOURCE AND RESERVE ESTIMATES.THE NORTHERN MINER PRESS, CANADIAN MINES HANDBOOK,1975-76, PAGE 45.WESTERN MINER, BRALORNE REBORN; AUG., 1973, P. 24,25.MINING RECORD, 12/25/91, P.1SEE ""R"" 004 BELOW.THE NORTHERN MINER PRESS, CANADIAN MINES HANDBOOK, 1991-92,PAGE 96.THE NORTHERN MINER. 12/16/91. P. 18.",,,,,,,,
10278844,https://mrdata.usgs.gov/mrds/show-mrds.php?dep_id=10278844,,1220100134,Tulsequah Chief,58.74117,-133.577,NA,Canada,British Columbia,,M,"Copper, Lead, Zinc","Gold, Silver",,Underground,,,Past Producer,,,,,,,,,,,"Palencia, Cesar M.",,,,,,,"NORTHERN MINER-MAY 17,1993, PP 1&2.CANADIAN MINES HANDBOOK,1992-1993,P-305.""REDFERN HITS TALSEQUAH SULPHIDES"", THE NORTHERN MINER,E 04 OCT 1993, P. 6.NORTHERN MINER, 5/17/93, P.1,2.NORTHERN MINER, 8/30/93, P.3.NORTHERN MINER, 4/18/94, P.3.",,,,,,,,
10278880,https://mrdata.usgs.gov/mrds/show-mrds.php?dep_id=10278880,,1220100034,Huckleberry Mountain,53.68038,-127.17376,NA,Canada,British Columbia,,M,Copper,"Gold, Silver, Molybdenum",,Surface,,,Prospect,,,"Argentite, Bornite, Calcite, Chalcopyrite, Chlorite, Gold, Magnetite, Molybdenite, Orthoclase, Pyrite, Quartz, Sericite",,Surface,,,,Len,,"Porter, Kenneth E.",,,,,,,"ANNIS, R.C., D.A. CRANSTONE AND M.VALLEE, A SURVEY OF KNOWNMINERAL DEPOSITS IN CANADA THAT ARE NOT BEING MINED;ENERGY,MINES AND RESOURCES CANADA,MINERALS, MR 181,1978,P.45.NORTHERN MINER, NEW CANAMIN OPTIONS KENNECOTT GROUND, 6/8/92P. 9.THE NORTHERN MINER, 7/6/92, P. 6.THE NORTHERN MINER, 10/5/92, P. 12.THE NORTHERN MINER, 11/9/92, P. 1, 10.THE NORTHERN MINER, 1/4/93, P. 15.THE NORTHERN MINER, 2/1/93, P. 3.THE NORTHERN MINER, 3/22/93, P. 6.THE NORTHERN MINER, 5/3/93, P. 16.THE NORTHERN MINER, 11/8/93, P. 14.THE NORTHERN MINER, 1/3/94, P. 10.THE NORTHERN MINER, 5/9/94, P. 16.THE NORTHERN MINER, 5/30/94, P. 20.THE NORTHERN MINER, 6/20/94, P. 3.MINING JOURNAL, 7/8/94, P. 20.AMERICAN METAL MARKET, V 103/N 177, 9/14/95, P.6.AMERICAN METAL MARKET, V 103/N 188, 9/29/95, P.12.SOUTHWESTERN PAY DIRT, #676, 10/95, P.10A,11A.AMERICAN METAL MARKET, V 103/N 215, 11/7/95, P.8.AMERICAN METAL MARKET, V 103/N 250, P.2.JAMES, DONALD H., HUCKLEBERRY; A. SUTHERLAND BROWN, ED.,PORPHYRY DEPOSITS OF THE CANADIAN CORDILLERA, CIM SPECIALVOLUME 15, 1976, P.284-288.AMERICAN METAL MARKET, V103 / N81, 4/27/95, P.6.JAMES, DONALD H.  HUCKLEBERRY;  A. SUTHERLAND BROWN,  ED.,IN PORPHYRY DEPOSITS OF THE CANADIAN CORDILLERA, CIMSPECIAL VOL. 15, 1976, PP. 284-288.EMR CANADA, CANADIAN MINERAL DEPOSITS NOT BEING MINED IN1983, MAY 1983, MR 198, P. 236.1989, MR 223, NO. 1989, P. BC 214.MINING JOURNAL, 9/9/94, P.180.MINING MAGAZINE, 10/94, P.230.PRINCETON MINING CORP., PRESS RELEASE, 1/26/95.PRINCETON MINING CORP., 1994 ANNUAL REPORT, P.11.ENGINEERING AND MINING JOURNAL, V196 / N3, 3/95, P.WW7.",,,,,,1962,,
10278885,https://mrdata.usgs.gov/mrds/show-mrds.php?dep_id=10278885,,1220101016,(Facility) Kitimat Smelter,54.08307,-128.63492,NA,Canada,British Columbia,,M,"Aluminum, Contained or Metal",,,Processing Plant,,,Plant,,,,,,,,,Kitimat,,"Wilburn, David R.",,,,,,,"CRU METAL MONITOR.  JAN. 1995.BROOK HUNT & ASSOCIATES LTD., ALUMINIUM SMELTER DATA, 1986,PAGE 115, 1988, PAGE 1.30.U.S. BUREAU OF MINES, BRANCH OF NONFERROUS METAL, ""PRIMARYALUMINUM PLANTS WORLDWIDE"", PART I - DETAIL, PAGE 35,PART II - SUMMARY, PAGE 4, DECEMBER 31, 1987.U.S. BUREAU OF MINES, MINERALS AVAILABILITY PROGRAM,""PRIMARY POST-MILL ALUMINUM SMELTING FACILITIES 1983: ADATA BANK"", CONTRACT # J0245003, OCTOBER 1, 1985.THE NORTHERN MINER; KITIMAT SMELTER'S FATE RESTS ON GLOBALDECISIONS, APRIL 27, 1992, P. 10.METALS WEEK; BRITISH COLUMBIA SMELTER PLANS STILL ALIVE,MARCH 9, 1992, P. 9.",,1954,,,,,,
10278891,https://mrdata.usgs.gov/mrds/show-mrds.php?dep_id=10278891,,1220100048,Morrison,55.19011,-126.31829,NA,Canada,British Columbia,,M,"Copper, Gold","Molybdenum, Silver",,Surface,,,Prospect,,,,,,,,,,,"Palencia, Cesar M.",,,,,,,"CARSON, D.J.T. AND J.L. JAMBOR, MORRISON: GEOLOGY ANDEVOLUTION OF A BISECTED ANNULAR PORPHYRY COPPER DEPOSIT;A. SUTHERLAND BROWN, ED., PORPHYRY DEPOSITS OF THECANADIAN CORDILLERA, CIM SPECIAL VOLUME NO. 15, 1976,P.264-273.CARSON, D.J.T. AND J.L. JAMBOR, MINERALOGY, ZONAL RELATION-SHIPS AND ECONOMIC SIGNIFICANCE OF HYDROTHERMALALTERATION AT PORPHYRY COPPER DEPOSITS, BABINE LAKE AREA,BRITISH COLUMBIA; CIM BULL., FEB., 1974, P.110-133.CANADIAN MINES HANDBOOK, 1992-1993.CIM SPEC. VOL. 15, P. 264, 1976.CANADIAN RESERVES AS OF JANUARY 1, 1983, EMR CANADA, MR 201,1984, P. 30.MR 223, 1989, B.C.-241.",,,,,,,,
10278893,https://mrdata.usgs.gov/mrds/show-mrds.php?dep_id=10278893,,1220100042,Red Mountain,55.93308,-129.75174,NA,Canada,British Columbia,,M,Gold,,,Underground,,,Prospect,,,,,,,,,,,"Porter, Kenneth E.",,,,,,,"NORTHERN MINER, 2/18/91, P.18.CANADIAN MINES HANDBOOK, 1991-92, P.233.MINING JOURNAL, 2/19/93, P.128.LAC MINERALS LTD., INTERIM REPORT (12/31/92), P.4.NORTHERN MINER, 2/22/93, P.3.",,,,,,,,
10278917,https://mrdata.usgs.gov/mrds/show-mrds.php?dep_id=10278917,,1220100102,Lawyers,57.33314,-127.16841,NA,Canada,British Columbia,,M,Gold,Silver,,Underground,,,Plant,,,,,,,,,"Agb, Dukes Ridge, Midzone, Cliff Creek",,"Buckingham, David A.",,,,,,,"CANADIAN MINES HANDBOOK, 1996-97, PP. 502, 104.MR 213, 1986, P290; 12/31/89:THE NORTHERN MINER, ""LAWYERS PUSHES CHENI INTO RED"", MAY 20,1991, PAGE ???.CANADIAN MINES HANDBOOK, 1991-92, PAGE 100.THE NORTHERN MINER, ""CHENI CONSIDERS SUSPENDING LAWYERS"",OCT. 28, 1991, PAGE 3.",,1989,,,,1969,,
10278933,https://mrdata.usgs.gov/mrds/show-mrds.php?dep_id=10278933,,1220101046,Trail Pb Smt/Ref,49.1016,-117.7185,NA,Canada,British Columbia,,B,"Lead, Refiner","Silver, Sulfur, Sulfuric Acid, Arsenic, Bismuth, Copper, Gold",,Processing Plant,,,Plant,,,,,,,,,"Trail Operations Smelter, Trail Metallurgical Complex",,"Difrancesco, Carl A.",,,,,,,"PINCOCK, ALLEN & HOLT REPORT, 1987*CRU QUQRTERLY MARKET SERVICE, LEAD, JAN. 1994, P. 47.*CRU QUARTERLY MARKET SERVICE, LEAD, OCT. 1993, P. 43.",,1899,,,,,,
10278963,https://mrdata.usgs.gov/mrds/show-mrds.php?dep_id=10278963,,1220108808,Kimberley Phos-Acid Plant,49.66657,-115.96777,NA,Canada,British Columbia,,N,Phosphorus-Phosphates,,,Processing Plant,,,Plant,,,,,,,,,,,"Fantel, Richard J.",,,,,,,"INTERNATIONAL FERTILIZER INDUSTRY ASSOCIATION. PHOSPHORICACID, TRIPLE SUPERPHOSPHATE AND AMMONIUM PHOSPHATE PLANTS1988 SURVEY. AUGUST 1988, 39PP.BRITISH SULPHUR CORPORATION. WORLD FERTILIZER ATLAS, EIGHTHED. APRIL 1987, 121PP.",,1953,,,,,,
10278982,https://mrdata.usgs.gov/mrds/show-mrds.php?dep_id=10278982,,1220100057,Ox Lake,53.67478,-127.05716,NA,Canada,British Columbia,,M,"Molybdenum, Copper","Silver, Gold",,Surface,,,Prospect,,,,,,,,,,,"Porter, Kenneth E.",,,,,,,"ANNIS, R.C., D.A. CRANSTONE AND M.VALLEE, A SURVEY OF KNOWNMINERAL DEPOSITS IN CANADA THAT ARE NOT BEING MINED;ENERGY, MINES AND RESOURCES CANADA, MINERALS, MR181,1978,P.A-37RICHARD, GORDON, OX LAKE, A SUTHERLAND BROWN, ED., PORPHYRYDEPOSITS OF THE CANADIAN CORDILLERA, CIM SPECIAL VOLUMENO. 15, 1976, P.289-298.MR 223, 1989, B.C.-216.",,,,,,,,
10279014,https://mrdata.usgs.gov/mrds/show-mrds.php?dep_id=10279014,,1220100056,Red Bird,53.29978,-127.01824,NA,Canada,British Columbia,,M,Molybdenum,,,Surface,,,Prospect,,,Molybdenite,,Surface,,,,,,C M P,,,,,,,REDBIRD MOLYBDENUM PROSPECT BRITISH COLUMBIA-PRELIMINARYECONOMIC APPRAISAL.,,,,,,1959,,
10279021,https://mrdata.usgs.gov/mrds/show-mrds.php?dep_id=10279021,,1220100016,Beaverdell,49.42984,-119.07117,NA,Canada,British Columbia,,M,"Zinc, Silver, Lead","Gold, Copper, Cadmium",,Underground,,,Plant,,,"Acanthite, Argentite, Arsenopyrite, Chalcopyrite, Galena, Polybasite, Pyrargyrite, Pyrite, Silver, Sphalerite, Tetrahedrite",,Underground,,,,"Highland Lass Mine, Bell Mine, The Tech Mine, The Tennis Court Vein Deposit, Wallace Mountain Claims, The Sally Mine, Highland Bell Mine, Highland-Bell Mine",,"Peterson, Gary R.",,,,,,,"REF-THE FINANCIAL POST SURVEY OF MINES,1975,P150-151; GENERAPRODUCTION.CANADIAN MINES HANDBOOK 1989-90; NORTHERN MINER PRESS LTD.P437-438.CANADIAN MINES HANDBOOK 1988-89; NORTHERN MINER PRESS LTD.P434.DANIELSON, VIVIAN; TECH CLOSES BEAVERDELL SILVER MINE-KENOREOPENS YUKON OPERATIONS; THE NORTHERN MINER, OCT 29,1990.ANONOMOUS; YOU CAN'T JUDGE A MINE BY ITS' RESERVES; THENORTHERN MINER MAGAZINE, MAY 1987, P56.GODWIN, WATSON AND SHEN; GENESIS OF THE LASS VEIN SYSTEM,BEAVERDELL SILVER CAMP, SOUTH-CENTRAL BRITISH COLUMBIA;DEPT. OF GEOLOGICAL SCIENCES, UNIV. OF BRITISHCOLUMBIA, CANADIAN JOUNAL OF EARTH SCIENCE,VOL 23, 1986.TOMPKINS, JOHN; TECH'S BEAVERDELL MINE; MINING REVIEWMAGAZINE, NOV/DEC 1981, P23-24.MINERAL POLICY SECTOR, DEPT. OF ENERGY, MINES AND RESOUCES,OTTAWA CANADA, MINE FILE NO. 509248.  1980. 4 PAGES.HOSKINS, J. R.; MINERAL INDUSTRY COSTS; NORTHWEST MININGASSOCIATION, 1980, P101-114.ANONOMOUS; OFFICIAL OPENING OF THE HIGHLAND-BELLCONCENTRATOR; SEPT. 20, 1950. (SOUVENIR BROCHURE).",,1913,,,,1898,,
10279108,https://mrdata.usgs.gov/mrds/show-mrds.php?dep_id=10279108,,1220100143,Willoughby,55.94978,-129.66843,NA,Canada,British Columbia,,M,Gold,,,Unknown,,,Prospect,,,,,,,,,,,"Clarke, Donald",,,,,,,"MINING JOURNAL, SEP 22, 1995, P 212",,,,,,,,
10279193,https://mrdata.usgs.gov/mrds/show-mrds.php?dep_id=10279193,,1220100132,Central Zeballos,50.03306,-126.85143,NA,Canada,British Columbia,,M,Gold,,,Underground,,,Past Producer,,,,,,,,,,,"Porter, Kenneth E.",,,,,,,"METALS ECONOMICS GROUP, CURRENT LATE STAGE CANADIAN GOLDPROJECTS, 6/92, P.313-315",,,,,,,,
10279214,https://mrdata.usgs.gov/mrds/show-mrds.php?dep_id=10279214,,1220100081,Cirque Stronsay,57.49987,-125.13494,NA,Canada,British Columbia,,M,"Lead, Silver, Zinc",,,Underground,,,Prospect,,,"Barite, Galena, Pyrite, Silver, Sphalerite",,Underground,,,,Cirque,,Rfb,,,,,,,"*CRU MONITOR, LEAD, AUG. 1991, P. 8.CANADIAN MINES HANDBOOK 1979-80, NORTHERN MINER PRESS LTD.,P.88NORTHERN MINER, CYPRUS ANVIL, HUDSON'S BAY OIL LEAD-ZINC-SILVER DISCOVERY; AUG. 2, 1979, P.A24.NORTHERN MINER, SUBSTANTIAL PROFIT FOR CYPRUS ANVIL; AUG.23,1979, P.3.WALL STREET JOURNAL, HUDSON'S BAY OIL GIVES MORE DETAILS ONFIND OF LEAD, ZINC, SILVER; NOV.? , 1979, P.?WORLD MINING, DEC. 1981, P. 68-69E/MJ, MAY 1982, P. 13.E/MJ, JAN. 1980, P. 11-12.NORTHERN MINER, FEBL 19, 1981, P. 24.NORTHERN MINER, AUG. 23, 1979, P. 3.WESTERN MINER, JAN. 1981, P. 55-56.CYPRUS ANVIL, 1979-80 ANNUAL REPORT AND INTERIM REPORTS.CYPRUS ANVIL, APRIL 15, 1979, PROSPECTUS.MACINTYRE, D.G., JAN. 1981, NORTHEAST BRITISH COLUMBIA,CIRQUE BA-ZN-PB-AG DEPOSIT (94F/6, 11), BRITISHCOLUMBIA MINISTRY OF ENERGY, MINES, AND RESOURCES.MACINTYRE, D.G., MARCH 12, 1980, GEOLOGIC SETTING OFRECENTLY DISCOVERED SHALE-HOSTED BARITE-LEAD-ZINCOCCURRENCES, NORTHEAST BRITISH COLUMBIA, P. 1-11.SPATE OF NEW MINES, OCTOBER 10, 1980, MINING JOURNAL, P. 286",,,,,,1979,,
10279223,https://mrdata.usgs.gov/mrds/show-mrds.php?dep_id=10279223,,1220100035,Schaft Creek,57.36508,-130.99354,NA,Canada,British Columbia,,M,Copper,"Silver, Molybdenum, Gold",,Surface,,,Prospect,,,"Bornite, Chalcocite, Chalcopyrite, Copper, Covellite, Gold, Malachite, Molybdenite, Pyrite, Tetrahedrite",,Surface,,,,"Mess Creek, Nab, Liard Copper, Bird, Sno",,"Porter, Kenneth E.",,,,,,,"SEE BIB. REF. 001-003, 004-006, 007-011, 029-030, 031-033,034-037, 038-041, 044-047, 050-052, 055-057, 058-060,061-063.LINDER, H., 1975, GEOLOGY OF THE SCHAFT CREEK PORPHYRYCOPPER-MOLYBDENUM DEPOSIT, NORTHWESTERN B.C., CIM BULL.,VOL. 68, NO. 758, P. 49-63.MINERAL POLICY SECTOR, 1978, ENERGY, MINES AND RESOURCESCANADA REPORT ENTITLED BIRD (LIARD COPPER) (SCHAFTCREEK), 3 P.GOLDER ASSOC., 1980, DEPOSIT PROFILE SCHAFT CREEK BRITISHCOLUMBIA, CANADA: CONFIDENTIAL REPORT PREPARED FOR U.S.BUREAU OF MINES MINERALS AVAILABILITY SYSTEM BY GOLDERASSOC., CONSULTING MINING AND GEOTECHNICAL ENGINEERS,CONTRACT NO. J02950059, 12 P.FOX, P.E., GROVE. E.W., SERAPHIM, R.H., AND SUTHERLANDBROWN, A., 1978, SCHAFT CREEK: PAPER 21 IN PORPHYRYDEPOSITS OF THE CANADIAN CORDILLERA, CIM SPECIAL VOLUMENO. 15, P. 219-226.SERAPHIM, R.H., SUTHERLAND BROWN, A., AND GROVE, E.W., 1976,GEOLOGY OF THE SCHAFT CREEK PORPHYRY COPPER-MOLYDBENUMDEPOSIT, NORTHWESTERN B.C.: DISCUSSION OF A PAPER BYH. LINDER ALONG WITH AN AUTHOR'S REPLY, CIM BULL., VOL.69, NO. 771, P. 96-102. SEE BIBLIOGRAPHIC REF. 001-003.SUTHERLAND BROWN, A., 1969, MINERALIZATION IN BRITISHCOLUMBIA AND THE COPPER AND MOLYBDENUM DEPOSITS: CIMBULL., VOL. 62, P. 26, 37.WESTERN MINER, JULY, 1973, P. 42-43.METALS SOURCEBOOK, JUNE, 1978, PAGES UNKNOWN.NORTHERN MINER, DEC. 14, 1978, P. 1, 10.CANADIAN MINING JOURNAL, JAN., 1979, P. 12.WORLD MINING, JAN., 1979, P. 83.BRITISH COLUMBIA DEPT. OF MINES ANNUAL REPORT, 1966, P. 26-31 PLUS MAP.GROVE, E.W., 1968, BIRD, SNO:  IN BRITISH COLUMBIA DEPT. OFMINES AND PETROLEUM RESOURCES, LODE METALS IN BRITISHCOLUMBIA 1968, P. 39-41.SUTHERLAND BROWN, A., 1970, SNO, BIRD (LIARD COPPER): INBRITISH COLUMBIA DEPT. OF MINES AND PETROLEUM RESOURCES,GEOLOGY, EXPLORATION AND MINING IN BRITISH COLUMBIA 1970,P. 17, 49-57 PLUS MAP.DUDAS, B.M., 1971, SND, BIRD (LIARD COPPER): IN BRITISHCOLUMBIA DEPT. OF MINES AND PETROLEUM RESOURCES, GEOLOGY,EXPLORATION AND MINING IN BRITISH COLUMBIA 1971, P. 18,39-40.ENERGY, MINES AND RESOURCES CANADA, 1971, CANADIAN MINERALSYEARBOOK 1971, P. 137.GROVE, E.W., 1974, LIARD COPPER (BIRD, SN0: IN BRITISHEXPLORATION AND MINING IN BRITISH COLUMBIA 1974, P. 337-338.ENERGY, MINES AND RESOURCES CANADA, 1975, CANADIAN MINERALSYEARBOOK, MINERAL REPORT 25, P. 187.BRITISH COLUMBIA MINISTRY OF MINES AND PETROLEUM RESOURCES,1975, LIARD COPPER (BIRD, SNO): IN EXPLORATION IN BRITISHCOLUMBIA 1975, P. E184.REPORT OF THE BRITISH COLUMBIA COPPER TASK FORCE, P. 24, 65APPEN. V.1976, LIARD COPPER (BIRD, SNO): IN EXPLORATION IN BRITISHCOLUMBIA 1976, P. E184-E185.1977, LIARD COPPER (BIRD, SNO): IN EXPLORATION IN BRITISHCOLUMBIA 1977, P. E224.ANNIS, R.C., CRANSTONE, D.A., AND VALLEE, M., 1978, A SURVEYOF KNOWN MINERAL DEPOSITS IN CANADA THAT ARE NOT BEINGMINED: ENERGY, MINES AND RESOURCES CANADA, MR181, P. 49.BRITISH COLUMBIA & YUKON CHAMBER OF MINES, 1979, MININGEXPLORATION & DEVELOPMENT REVIEW, 1978-79, BRITISHCOLUMBIA-YUKON, P. 26.CANADIAN MINES HANDBOOK, 1977-78, P. 180.THE FINANCIAL POST SURVEY OF MINES, 1977, P. 159.E/MJ INTERNATIONAL DIRECTORY OF MINING AND MINERAL PROCESS-ING OPERATIONS, 1978, P. 92, 233.EMR CANADA, MINERAL PROPERTY FILE.SEE BIB. REF. 001-003, 004-006, 007-011, 012-015, 034-037.SEE BIB. REF. 001-003, 004-006, 007-011, 012-015, 016-020.029-030, 031-033, 034-037, 044-047.SEE BIB. REF. 001-003.SEE BIB. REF. 025, 026, 027, 028, 064-066.YEARBOOK 1975: MINERAL REPORT 25, P. 187.COPPER-MOLYBDENUM DEPOSIT, NORTHWESTERN B.C.: CIM BULL.,FOX, P.E., GROVE, E.W., SERAPHIM, R.H., AND SUTHERLANDBROWN, A., 1976, SCHAFT CREEK: PAPER 21 IN PORPHYRYCANADIAN MINES HANDBOOK 1986-87, NORTHERN MINER PRESS,P.244.TECK CORP., 1980 ANNUAL REPORT, P. 10.TECK CORP., 1981 ANNUAL REPORT, P. 14.TECK CORP., 1982 ANNUAL REPORT, P. 11.TECK CORP., 1983 ANNUAL REPORT, P. 12.EMR CANADA, CANADIAN MINERAL DEPOSITS NOT BEING MINED IN1989, MR 223, NOV. 1989, P. BC 332.NORTHERN MINER MAGAZINE, A BILLION-TON COPPER DEPOSIT,MAY 1987, P. 59.",,,,,,1957,,
10279278,https://mrdata.usgs.gov/mrds/show-mrds.php?dep_id=10279278,,1220100053,Kitsault,55.41647,-129.4267,NA,Canada,British Columbia,,M,Molybdenum,,,Surface,,,Producer,,,Molybdenite,,Surface,,,,"Kitsault Mine, Kitsault-Bell Molybdenum Mine",,C M P,,,,,,,"ROBERTS, R.J., CLIMAX MOLYBDENUM B.C. PROJECT TO COST $135MILLION AT KITSAULT; NORTHERN MINER, SEPT. 21, 1978,PA1,A21.ANNIS, R.C. D.A. CRANSTONE AND M. VALLEE, A SURVEY OF KNOWNMINERAL DEPOSITS IN CANADA THAT ARE NOT BEING MINED;ENERGY, MINES AND RESOURCES CANADA, MINERALS, MR181,1978,P.48WOODCOCK, J.R. AND N.C. CARTER, GEOLOGY AND GEOCHEMISTRY OFTHE ALICE ARM MOLYBDENUM DEPOSITS; A. SUTHERLAND BROWN,ED., IN PORPHYRY DEPOSITS IN THE CANADIAN CORDILLERA,SPECIAL VOLUME NO.15, 1976, P.462-475.10 K REPORT AMAX 1982.",,1967,,,,,,
10279280,https://mrdata.usgs.gov/mrds/show-mrds.php?dep_id=10279280,,1220100084,Blackdome Mountain,51.32762,-122.48603,NA,Canada,British Columbia,,M,Gold,Silver,,Underground,,,Plant,,,,,,,,,"#1, Giant, Black Dome Mountain, Red Bird, Watson, Clinton, #2",,"Porter, Kenneth E.",,,,,,,"DEPARTMENT OF ENERGY, MINES AND RESOURCES, CANADA, CANADIANMINERAL DEPOSITS NOT BEING MINED IN 1980, MINERAL POLICYSECTOR INTERNAL REPORT, MRI 80/7, MAY, 1980, P.212.THE NORTHERN MINER, APRIL 2, 1981, P.11.THE NORTHERN MINER, NEW RESERVES FOR BLACKDOME, JUNE 18,1990, PAGE 136.THE NORTHERN MINER PRESS, CANADIAN MINES HANDBOOK, 1990-91,PAGE 287.",,1990,,,,1979,,
10302947,https://mrdata.usgs.gov/mrds/show-mrds.php?dep_id=10302947,,1220100062,Rexspar,51.56655,-119.91795,NA,Canada,British Columbia,,B,"Fluorine-Fluorite, Uranium",,,Surface,,,Prospect,,,,,,,,,Birch Island,,"Porter, Kenneth E.",,,,,,,"PRETO, V.A., SETTING AND GENESIS OF URANIUM MINERALIZATIONAT REXSPAR; CIM BULL., DEC., 1978, P.82-88.ANNIS, R.C., D.A. CRANSTONE AND M. VALLEE, A SURVEY OF KNOWNMINERAL DEPOSITS IN CANADA THAT ARE NOT BEING MINED;ENERGY, MINES AND RESOURCES CANADA, MINERALS, MR181,1978,P.37.",,,,,,,,
10302958,https://mrdata.usgs.gov/mrds/show-mrds.php?dep_id=10302958,,1220100135,Big Onion,54.8095,-126.89599,NA,Canada,British Columbia,,M,Copper,,Molybdenum,Underground,,,Occurrence,,,,,,,,,,,"Porter, Kenneth E.",,,,,,,"MINING JOURNAL, AUG. 9, 1991, P. 96.ENERGY, MINES AND REOURCES CANADA, MR 223, 1989, P. BC-236.",,,,,,,,
10302993,https://mrdata.usgs.gov/mrds/show-mrds.php?dep_id=10302993,,1220100055,Carmi,49.51654,-119.16787,NA,Canada,British Columbia,,M,Molybdenum,,,Unknown,,,Prospect,,,,,,,,,"Ivy,Doe",,"Porter, Kenneth E.",,,,,,,"ANNIS, R.C., D.A. CRANSTONE AND M. VALLEE, A SURVEY OF KNOWNMINERAL DEPOSITS IN CANADA THAT ARE NOT BEING MINED;ENERGY, MINES AND RESOURCES CANADA, MINERALS, MR181,1978,P.A-36.",,,,,,,,
10303065,https://mrdata.usgs.gov/mrds/show-mrds.php?dep_id=10303065,,1220100098,Todd Creek,56.23308,-129.78505,NA,Canada,British Columbia,,M,Gold,,,Underground,,,Prospect,,,,,,,,,,,Unknown,,,,,,,,,,,,,,,
10303093,https://mrdata.usgs.gov/mrds/show-mrds.php?dep_id=10303093,,1220100018,Silvana Silmonac,49.96986,-117.25112,NA,Canada,British Columbia,,M,"Lead, Zinc, Silver",,Cadmium,Underground,,,Plant,,,"Calcite, Galena, Pyrargyrite, Quartz, Siderite, Sphalerite, Tetrahedrite",,Underground,,,,"The Minniehaha Mine, The Silmonac MineSilmonac, The Mascot Mine",,"Peterson, Gary R.",,,,,,,"REF-THE FINANCIAL POST SURVEY OF MINES,1975,P148,REF-B.C. DEPT. OF MINES & PET.RES.,GEM;1970,P452-3; 1973,P78GENERAL, DEVELOPMENT, PRODUCTIONTREMINCO RESOURCES LTD. INTERIM REPORT PAMPHLET, NINE MONTHSENDED APRIL 30 1990.FISCAL YEAR; THE NORTHERN MINER JOURNAL, DEC. 24, 1990P6.CANADIAN MINES HANDBOOK 1989-90; NORTHERN MINER PRESS,ONTARIO, CANADA, P448.CANADIAN MINES HANDBOOK 1990-91; NORTHERN MINER PRESS,ONTARIO, CANADA, P145.MINERAL POLICY SECTOR, DEPT. OF ENERGY, MINES AND RESOUCES,OTTAWA, MINERAL PROPERTY FILE NO. 509267. 3 PAGES.MINISTRY OF ENERGY, MINES AND PETROLEUM RESOURCESMINERAL RESOURCES DIVISION-GEOLOGICAL SURVEY BRANCHMINFILE REPORT NO. 082FNW050. 2 PAGES.COMPANY PROPRIETARY QUESTIONARE, FROM STEVE PHILLIPSTREMINCO RESOURCES MINE MANAGER, TO KEN PORTER OF THEU.S. BUREAU OF MINES-MAFO, JULY 10,1990, 7 PAGES.BEAUDOIN, G., SANGSTER, D.F., PRELIMINARY REPORT ON THESILVANA MINE AND OTHER AG-PB-ZN VEIN DEPOSITS,NORTHERN KOKANEE RANGE, BRITISH COLUMBIA GEOLOGICALSURVEY BRANCH, GEOLOGICAL FIELDWORK 1989, PAPER 1990-1,P251-255.ANONYMOUS, EXPLORATION THAT PUT SILVANA BACK TO WORK ADICKENSON HIGHLIGHT; THE NORTHERN MINER, MARCH 7, 1985.NATIONAL MINERAL INVENTORY MINFILE NO. 082FNW050.DICKENSON MINES LIMITED, FORM 10K FOR THE YEAR 1986.ANONYMOUS, EXPLORATION THAT PUT SILVANA BACK TO WORK -A DICKENSON HIGHLIGHT; THE NORTHERN MINER, MARCH 7, 1985.ANONYMOUS, DICKENSON ANNUAL REPORT FOR THE YEAR 1988.ANONYMOUS, TREMINCO TAKES SMALL LOSS DURING EVENTFUL FISCALYEAR; THE NORTHERN MINER, DEC. 24, 1990, P6.",,1913,,,,1895,,
10303159,https://mrdata.usgs.gov/mrds/show-mrds.php?dep_id=10303159,,1220100052,Ajax,55.56,-129.54,NA,Canada,British Columbia,,M,Molybdenum,Copper,,Underground,Moly porphyry,,Prospect,,,Molybdenite,,Underground,,,,Ajax Molybdenum Deposit,,"Palencia, Cesar M.",,,,,,,"Creston Moly Corporation, 2011, Ajax: web page accessed 10 August, 2011, at http://www.crestonmoly.com/s/Ajax.asp.WOODCOCK, J.R., AND N.C. CARTER, GEOLOGY AND GEOCHEMISTRY OF THE ALICE ARM MOLYBDENUM DEPOSITS; A. SUTHERLAND BROWN, ED., IN PORPHYRY DEPOSITS IN THE CANADIAN CORDILLERA, SPECIAL VOLUME NO. 15, 1976, P.462-475.COSTIN, C.P.  AN ECONOMIC ANALYSIS OF THE AJAX MOLYBDENUM DEPOSIT, B.C., CANADA.  THESIS, 1975.",,,,,,1927,,
10303166,https://mrdata.usgs.gov/mrds/show-mrds.php?dep_id=10303166,,1220100116,Qr Quesnel River,52.66624,-121.70134,NA,Canada,British Columbia,,M,Gold,,,Surface,,,Prospect,,,,,,,,,Qr Project,,"Porter, Kenneth E.",,,,,,,"NORTHERN MINER, 12/16/91, P.17.",,,,,,,,
10303176,https://mrdata.usgs.gov/mrds/show-mrds.php?dep_id=10303176,,1220100090,Nickel Plate,49.37313,-120.0318,NA,Canada,British Columbia,,M,Gold,Silver,,Surface,,,Past Producer,,,,,,,,,"Princeton Adit, Canty, French, Good Hope, Hedley Mascot",,"Buckingham, David A.",,,,,,,"PRIVATE SOURCE; SEE COMMENTS; B-001, 002.CANADIAN MINES HANDBOOK, 1996-97, PP. 214, 215.CANADIAN MINES HANDBOOK, 1991-92, P. 212.INTERNATIONAL CORONA CORP., ANNUAL REPORT 1991. P. 16.CANADING MINES HANDBOOK. 1996-97, PP. 214, 215",,1987,,,,,,
10303181,https://mrdata.usgs.gov/mrds/show-mrds.php?dep_id=10303181,,1220100125,Willa,49.88046,-117.36922,NA,Canada,British Columbia,,M,Gold,Copper,,Underground,,,Past Producer,,,,,,,,,,,"Porter, Kenneth E.",,,,,,,"MR 223 (GOV'T. OF CANADA), 1989CURRENT LATE-STAGE CANADIAN GOLD PROJECTS (METALS ECONOMICSGROUP), 6/92, P.620-4",,,,,,1899,,
10303227,https://mrdata.usgs.gov/mrds/show-mrds.php?dep_id=10303227,,1220100099,Table Mountain,59.02483,-129.65188,NA,Canada,British Columbia,,M,Gold,,,Surface-Underground,,,Past Producer,,,,,,,,,,,"Porter, Kenneth E.",,,,,,,"CANADIAN MINING JOURNAL, 11/84, P.41CANADIAN MINING JOURNAL, 12/86, P.9THE NORTHERN MINER, 9/24/90, P.17CANADIAN MINES HANDBOOK, 1990-91THE NORTHERN MINER, 1/6/92, P.6THE MINING RECORD, 4/22/92, P.5MINING JOURNAL, 5/1/92, P.316THE NORTHERN MINER, 3/1/93, P.3MEGMINING JOURNAL, 8/13/93, P.105",,1978,,,,,,
10303254,https://mrdata.usgs.gov/mrds/show-mrds.php?dep_id=10303254,,1220100036,Berg,53.80258,-127.43217,NA,Canada,British Columbia,,M,Copper,"Silver, Molybdenum",,Surface,,,Prospect,,,"Calcite, Chalcocite, Chalcopyrite, Chlorite, Covellite, Epidote, Galena, Gypsum, Molybdenite, Pyrite, Quartz, Sphalerite, Tetrahedrite",,Surface,,,,,,"Porter, Kenneth E.",,,,,,,"ANNIS, R.C., D.A. CRANSTONE AND M.VALLEE, A SURVEY OF KNOWNMINERAL DEPOSITS IN CANADA THAT ARE NOT BEING MINED;ENERGY, MINES AND RESOURCES CANADA, MINERALS, MR 181,1978P.45.E/MJ INTERNATIONAL DIRECTORY OF MINING AND MINERALPROCESSING OPERATIONS, 1978, P 87, 120, 233-234.GEOLOGY, EXPLORATION AND MINING IN BRITISH COLUMBIA, 1971,BRITISH COLUMBIA DEPT OF MINES AND PETROLEUM RESOURCES,P. 157.MINING, EXPLORATION AND DEVELOPMENT REVIEW, 1978-1979,BRITISH COLUMBIA AND YUKON CHAMBER OF MINES, P.8.LODE METALS IN BRITISH COLUMBIA, 1965, BRITISH COLUMBIA DEPTOF MINES AND PETROLEUM RESOURCES, P.87.WHITE, N H ET AL. POTASSIUM-ARGON AGES OF SOME ORE DEPOSITSIN BRITISH COLUMBIA, BULLETIN, NOV 1968, P 1326-1333.BROWN, A.S. MINERALIZATION IN BRITISH COLUMBIA AND THECOPPER AND MOLYBDENUM DEPOSITS. C.I.M. BULLETIN, JANUARY1969, P 28-39.NEW, C.S. ET AL, SUPERGENE COPPER MINERALIZATION. C.I.M.SPECIAL VOLUME NO 15, 1976, P 72-77.MCMYNN, J.E. ET AL, REPORT OF THE BRITISH COLUMBIA COPPERTASK FORCE, 1975, P. 24, 63, 65.FARLEY, A.L. ATLAS OF BRITISH COLUMBIA, P. 27, 43, 45, 49.EMR CANADA, MINERAL PROPERTY FILE.PANTELEYEV, A., A.D. DRUMMOND AND PETER G. BEAUDOIN,  BERG.PORPHYRY DEPOSITS OF THE CANADIAN CORDILLERA, CIMSPECIAL VOLUME 15, 1976, PP. 274-283.CIM SPEC. VOL. 37, 1983, P 1986.PANTELEYEV, ANDREJS, BERG PORPHYRY COPPER-MOLYBDENUM.DEPOSIT; BULL. 66, BRITISH COLUMBIA DEPT. OF MINES, 1981.EMR CANADA, CANADIAN MINERAL DEPOSITS NOT BEING MINEDIN 1989, MR 223, NOV. 1989, P. B.C. 218.",,,,,,1929,,
10303284,https://mrdata.usgs.gov/mrds/show-mrds.php?dep_id=10303284,,1220100091,Harrison Lake,49.33591,-121.74295,NA,Canada,British Columbia,,M,Gold,,,Underground,,,Prospect,,,,,,,,,,,"Porter, Kenneth E.",,,,,,,"CANADIAN MINES HANDBOOK, 1991-92, P.28MR 223 (CANADIAN GOV'T.), 1989THE MINING RECORD, 3/4/92MINING JOURNAL, 3/6/92THE NORTHERN MINER, 3/9/92, P.11MINING RECORD, MARCH 4, 1992.MEG",,1972,,,,1983,,
10303292,https://mrdata.usgs.gov/mrds/show-mrds.php?dep_id=10303292,,1220100031,Ok Alwin,50.47763,-121.09846,NA,Canada,British Columbia,,M,Copper,Silver,"Lead, Gold",Underground,,,Past Producer,,,,,,,,,Ok Syndicate Mine,,Unknown,,,,,,,"MINING MAGAZINE, ALWIN MINING UPDATES PRODUCTION PLAINS;OCT., 1971, P.323.WAY, L.C., ALWIN-HIGHLAND VALLEY'S HIGH GRADE COPPERPROJECT; MINING MAGAZINE, JULY, 1971, P.10-21.JACQUES, HAROLD E., D.W. PRINGLE AND J.A.C. ROSS, PRODUCTIONCOMMENCES FROM ALWIN'S UNDERGROUND MINING OPERATION;WESTERN MINER, MAY, 1972, P.28-32.MR 223, 1989, BC-128.",,,,,,,,
10303324,https://mrdata.usgs.gov/mrds/show-mrds.php?dep_id=10303324,,1220100115,Samatosum,51.15815,-119.81794,NA,Canada,British Columbia,,M,"Zinc, Silver, Lead, Gold, Copper",,,Surface,,,Plant,,,,,,,,,"Rea Silver Zone, Minnova Inc./Rea Gold Joint Venture, Adams Lake Claims",,Unknown,,,,,,,,,1989,,,,1986,,
10303396,https://mrdata.usgs.gov/mrds/show-mrds.php?dep_id=10303396,,1220100029,Eagle,58.49423,-129.15184,NA,Canada,British Columbia,,M,Copper,,,Underground,,,Past Producer,,,,,,,,,"Eagle Mine, Toad River",,Unknown,,,,,,,"SINCLAIR, A.J., AND DERAISME, J., A GEOSTATISTICAL STUDY.OF THE EAGLE COPPER VEIN, NORTHERN BRITISH COLUMBIA;CIM BULL., JUNE, 1974, P.131-142.",,,,,,,,
10303435,https://mrdata.usgs.gov/mrds/show-mrds.php?dep_id=10303435,,1220100082,Summit Lake,56.21918,-130.09616,NA,Canada,British Columbia,,M,Gold,Silver,,Underground,,,Past Producer,,,,,,,,,"Salmon Gold, Scottie",,"Porter, Kenneth E.",,,,,,,"ANNIS, R.C., D.A. CRANSTONE AND M. VALLEE, A SURVEY OF KNOWNMINERAL DEPOSITS IN CANADA THAT ARE NOT BEING MINED;ENERGY, MINES AND RESOURCES CANADA,MINERALS,MR 181,1978,P.74.MINING RECORD, SCOTTIE GOLD PROGRESSING TO JUNE PRODUCTIONSTART-UP, DEC. 24, 1980, P.1.CANADIAN MINING JOURNAL, AUG.,1979, P. 13,16.NORTHERN MINER, SCOTTIE GOLD IS LOOKING TO PRODUCTION 1980,MAY 3, 1979, P.17DUVAL, DAVID, PRODUCTION PUSH FOR SCOTTIE GOLD, NORTHERNMINER, SEPT. 25, 1980, P.1.NORTHERN MINER, SCOTTIE GOLD MAKING GOOD PROGRESS DEVELOPINGSTEWART MINE FOR 1981, DEC. 25, 1980, P.3SORENSEN, JEAN, THREE NEW MINES ALMOST DOUBLE GOLDPRODUCTION IN BC OVER 1978, CANADIAN MINING JOURNAL,DEC., 1979, P.42, 43, 45.",,,,,,,,
10303464,https://mrdata.usgs.gov/mrds/show-mrds.php?dep_id=10303464,,1220100137,June,58.25262,-129.82685,NA,Canada,British Columbia,,M,Copper,Gold,,Surface,,,Prospect,,,,,,,,,"Stikine, Gnat Lake",,"Porter, Kenneth E.",,,,,,,"BRITISH COLUMBIA, PRELIMINARY MAP 65, 1986.ENERGY, MINES AND RESOURCES CANADA, MR 213, 1986, P.301.ENERGY, MINES AND RESOURCES CANADA, MR 223, 1089, BC-237.CANADIAN MINES HANDBOOK, 1991-92, P.209,210.",,,,,,1965,,
10303684,https://mrdata.usgs.gov/mrds/show-mrds.php?dep_id=10303684,,1220100079,Moly-Taku,58.44147,-133.36868,NA,Canada,British Columbia,,M,Molybdenum,,,Unknown,,,Prospect,,,,,,,,,Mount Ogden,,"Porter, Kenneth E.",,,,,,,"NORTHERN MINER, OMNI INTO MOLY ON MOUNTAINSIDE, AUG. 30,1979, P.7.WORLD MINING, AMBITIOUS EXPLORATION AT MOLY-TAKU PROSPECT,OCTOBER, 1979, P.137.",,,,,,,,
10303688,https://mrdata.usgs.gov/mrds/show-mrds.php?dep_id=10303688,,1220100001,Sullivan,49.69987,-116.02107,NA,Canada,British Columbia,,B,"Lead, Silver, Zinc","Beryllium, Copper, Gold, Iron, Sulfur, Tin","Antimony, Bismuth",Underground,,,Plant,,,"Arsenopyrite, Boulangerite, Cassiterite, Chalcopyrite, Galena, Jamesonite, Magnetite, Pyrite, Pyrophyllite, Pyrrhotite, Quartz, Sericite, Sphalerite, Tetrahedrite, Tourmaline",,Underground,,,,Sullivan Mine,,Eastern Field Operations Center (EFOC),,,,,,,"WESTERN MINER, ANALYTICAL CONTROL; MAY, 1975, P.9-16.B.C. DEPT. OF MINES AND PET. RES., G.E.M., 1973, P.23,67-69.ENG. AND MIN. JOUR., SEPT., 1973, P.108-114.COBBAN, GILLIAN, COMMINCO MOVES AHEAD ON BIG TRAIL PROJECT:NORTHERN MINER, NOV.  29, 1979, P.D31.ANALYTICAL CONTROL AND INSTRUMENTATION AT THE SULLIVAN CON-CENTRATOR, MAY 1975, WESTERN MINER, PP. 9-16.CAMPBELL, F.A., ETHIER, V.G., AND KROUSE, H.R., 1980, THEMASSIVE SULFIDE ZONE: SULLIVAN ORE BODY, ECONOMICGEOLOGY, VOL. 75, PP. 916-926.COMINCO IN THE 80'S, APRIL 11, 1980, MINING JOURNAL, P. 291.COMINCO LIMITED, 1972-79, ANNUAL REPORTS.COMINCO, RECORD SALES, MAY 9, 1980, MINING JOURNAL, P. 394.ETHIER, V.G., CAMPBELL, F.A., BOTH, R.A., AND KROUSE, H.R.,1976, GEOLOGICAL SETTING OF THE SULLIVAN OREBODY AND ES-TIMATES OR TEMPERATURES AND PRESSURES OF METAMORPHISM,ECONOMIC GEOLOGY, VOL. 71, PP. 1570-1588.FREEZE, A.C., 1966, ON THE ORIGIN OF THE  SULLIVAN OREBODY,KIMBERLEY, B.C., TECTONIC HISTORY AND MINERAL DEPOSITS OFTHE WESTERN CORDILLERA, SPECIAL VOLUME NO. 8, PP. 263-294HOY, TRYGVE, OCTOBER 24, 1980, STRATIGRAPHIC AND STRUCTURALSETTING OF STRATABOUND LEAD-ZINC DEPOSITS IN SOUTHEASTERNB.C., PRESENTED AT THE 5TH ANNUAL CIM DISTRICT 6 MEETING,INTERNATIONAL GEOLOGICAL CONGRESS, 1972, GUIDEBOOK, FIELDEXCURSION A24-C24, 24TH SESSION, CANADA, PP. 26-36.MINERAL POLICY SECTOR, DEPARTMENT OF ENERGY, MINES AND RE-SOURCES, 1973, SULLIVAN, OTTAWA, CANADA.SPATE OF NEW MINES, OCTOBER 10, 1980, MINING JOURNAL, P. 286THE SULLIVAN: HEAD OF COMINCO'S MINING EMPIRE, SEPT., 1973,ENGINEERING AND MINING JOURNAL, PP. 108-114.WHITE, LANE AND JACKSON, DANIEL, JR., SEPT. 1973, COMINCO:MODERN, RESOURCEFUL, SUCCESSFUL; ENGINEERING AND MININGJOURNAL,  PP. 71-86.JACOBI, H.P., COMINCO LTD.- SULLIVAN CONCENTRATOR; D.E.PICKETT, ED., IN MILLING PRACTICE IN CANADA, CIM SPECIALVOLUME 16, 1978, P.208-214.COMINCO LTD. STAFF, SULLIVAN CONCENTRATOR- KIMBERLEY, B.C.;IN MINERAL INDUSTRIES IN WESTERN CANADA, THE TENTHCOMMONWEALTH MINING AND METALLURGICAL CONGRESS-SEPT.2-28,1974, SECTION VI, ARTICLE E, P.1-13.*CRU QUARTERLY MARKET SERVICE, LEAD, JAN. 1994, P. 34.AME MINERAL ECONOMICS QUARTERLY MINE ANALYSIS, JUNE 1993,P. 38.P. 38, 43.1995 COMINCO ANNUAL REPORT-PG 37.-ALSO ADIT.FISH, RICHARD, SULLIVAN MINE GOES TRACKLESS; CANADIAN MININGJOURNAL, JUNE, 1978, P.38,39.REYNOLDS, J.W., PNEUMATIC BACKFILLING WITH CRUSHED ROCK ATTHE SULLIVAN MINE; CIM BULL., JULY, 1972, P.31-36.COMINCO LTD. STAFF, SULLIVAN MINE- KIMBERLEY, B.C., INMINERAL INDUSTRIES IN WESTERN CANADA, THE TENTH COMMON-WEALTH MINING AND METALLURGICAL CONGRESS- SEPT. 2-28,1974, SECTION VI, ARTICLE D, P.1-16.",,1900,,,,1892,,
10305817,https://mrdata.usgs.gov/mrds/show-mrds.php?dep_id=10305817,,1220100066,Davis-Keays,58.55408,-125.44611,NA,Canada,British Columbia,,M,Copper,,,Underground,,,Prospect,,,,,,,,,,,"Porter, Kenneth E.",,,,,,,"ANNIS, R.C., D.A. CRANSTONE AND M. VALLEE, A SURVEY OF KNOWNMINERAL DEPOSITS IN CANADA THAT ARE NOT BEING MINED;ENERGY, MINES AND RESOURCES CANADA, MINERALS,MR 181,1978,P.47.MR 223, 1989, B.C.-274.",,,,,,,,
10133511,https://mrdata.usgs.gov/mrds/show-mrds.php?dep_id=10133511,,1220100027,New Afton Mine,50.6606,-120.5111,NA,Canada,British Columbia,,M,Copper,"Gold, Silver",,Surface,,,Producer,"Bornite, Chalcocite, Chalcopyrite, Copper, Cuprite, Digenite, Enargite, Pyrite, Tennantite, Tetrahedrite, Electrum, Covellite","Ankerite, Calcite, Fluorite, Gypsum, Hematite, Quartz, Zeolite, Epidote, Magnetite",,,Surface,78: Porphyry Cu-Au,,,"Afton Mining Lease, Afton Mine (historic), Afton Group and Ajax Group, KamloopsAfton, Afton/AjaxAjax, Pothook",,"Porter, Kenneth E., Orris, Greta J., Wilson, Anna B",,"Syenite,Diorite",,,,,"Masse, Sean, Prince, Ferrin, and Keskimaki, Kurt, 2014, New Afton Mine; The world's newest block cave mine:  Mining Engineering, Jan. 2014, v. 66, no. 1, p. 16, 18, 20, 22-26.NewGold corporate website, accessed Feb. 07, 2014 at http://www.newgold.com/properties/operations/new-afton/project-summary/default.aspxBeren, R.D., Rennie, D.W., and Scott, K.C., 2009, Technical Report on the New Afton Project, British Columbia, Canada: NI 43-101 Report prepared by Scott Wilson Mining for New Gold Inc.  Accessed 2/7/2014 at http://www.newgold.com/properties/operations/new-afton/geology-and-mineralization/default.aspx.RUMMOND, A.D., AND GODWIN, C.I., 1976, HYPOGENE MINERALIZATION- AN EVALUATION OF ALTERATION ZONING: CIM SPECIAL VOLUME 15.WESTERN MINER, FEBRUARY, 1981.CANADIAN DEPARTMENT OF ENERGY, MINES, AND RESOURCES, 1971, MR 21.BOTTOMLEY, PAMELA.  THE AFTON MINES PROJECT FLOWING ALONG SWEET AND GENTLE.  WESTERN MINER, JAN. 1978, PP. 9-18.PAZOUR, DONALD A.  AFTON, NEW CANADIAN COPPER MINE--ON STREAM.  WORLD MINING, APRIL 1978, PP. 42-47.SCHABAS, WILLIAM.  AFTON IS NOW SHIPPING ANODE-GRADE COPPER.  CANADIAN MINING JOURNAL, JUNE 1978, PP. 42-43.MINING MAGAZINE, B.C. COPPER MINE REACHES TUNE-UP STAGE, OCT., 1977, P.295.GUILD, N.I., AFTON MINES-WATER SUPPLY AND TAILINGS DISPOSAL; WESTERN MINER, JAN., 1978, P.21-24.WESTERN MINER, AFTON MINES PROJECT GEOTECHNICAL ENGINEERING; JAN., 1978, P.27-30.MINING MAGAZINE, AFTON MINE ON STREAM; JAN., 1978, P.14-21.SKILLINGS MINING REVIEW, AFTON STARTS UP ITS COPPER PROJECT IN BRITISH COLUMBIA; AUG. 26, 1978, P.18.WESTERN MINER, AFTON MINES MAKES THE FIRST MOVE TOWARDS A POSSIBLE COPPER REVIVAL IN BC; NOV.,1975, P.16-19.MINING MAGAZINE, BRITISH COLUMBIAN COPPER MINE / SMELTER PROJECT; DEC., 1975, P.419,421.MILLAR, CHESTER, THE AFTON DISCOVERY; WESTERN MINER, FEB., 1973, P.33-36.ANDERSON, JOHN M., AFTON MINES: ANOTHER BIG B.C. COPPER NEARS PRODUCTION; CANADIAN MINING JOURNAL, JUNE, 1977, P.42-47.ROBERTS, R.J., AFTON MINES NOW OFFICIALLY IN PRODUCTION; NORTHERN MINER, MAY 4, 1978, P.1,11.ROBERTS, RICHARD J., AFTON PERFORMS WELL IN MINE, MILL, SMELTER; NORTHERN MINER, JUNE 8, 1978, P.20.NORTHERN MINER, TECK COUNTS ON AFTON FOR BETTER DAYS AHEAD; JUNE 8, 1978, P.3.THE NORTHERN MINER MAGAZINE, 5/87, PP. 53-55.REID, G.J., STEWART, D.H., ""AFTON-A GEOTECHNICAL POTPOURRI"", CIM BULLETIN, 9/88, PP. 77-83.CANADIAN MINING JOURNAL, ""COPPER A WINNER TECK'S BASE METAL MINES CONTINUE TO PRODUCE"", 6/89, PP. 31, 33, 35, 39.MINING JOURNAL, 11/11/88, P. 377.MINING ENGINEERING, 12/88, P. 1092.ENGINEERING AND MINING JOURNAL, 1/89, P. 127.ENGINEERING AND MINING JOURNAL, 6/88, P. 95.MINING ENGINEERING, 3/89, P. 95.ENGINNERING AND MINING JOURNAL, 4/89, P. 71, 72.INTERNATIONAL MINING, 4/89, P. 68.MINING JOURNAL, 8/30/91, P. 155.CANADIAN MINING JOURNAL, 4/89, P. 60.AMERICAN METAL MARKET, 7/28/94, P. 2.TECK CORPORATION MINING FOR THE FUTURE VOLUME 2, P. 9.MINING JOURNAL, 8/5/94, P.97.MINING MAGAZINE, 9/94, P.168.CARR, J.M. AND A.J. REED, AFTON: A SUPERGENE COPPER DEPOSIT; A. SUTHERLAND BROWN, ED., PORPHYRY DEPOSITS OF THE CANADIAN CORDILLERA, CIM SPECIAL VOLUME NO. 15, 1976, P. 376-387.BARRATT, DEREK J., SEMI-AUTOGENOUS GRINDING; A COMPARISON  WITH THE CONVENTIONAL ROUTE; CIM BULL., NOV., 1979, P. 74-80.MINE RESERVES AND CURRENTLY PROMISING DEPOSITS, JAN. 1985, EMR CANADA, MR 209, P. 23.CANADIAN MINES HANDBOOK, 1989-90, P. 438.TECK CORP., 1991 ANNUAL REPORT, P. 22, 23.TECK CORP., 1993 ANNUAL REPORT, P.11.TECK CORP., 1996 ANNUAL REPORT, P.20.",,1977,,,,1898,,